Record ID,Store Name,Store Street Address,Additonal Address,City,State,Zip Code,Zip4,County,Store Type,Latitude,Longitude,Incentive Program,Grantee Name,x,y
228449,Graziano's,3922 SW 92nd Ave,,Miami,FL,33165,4100,MIAMI DADE,Other,25.733526,-80.34388,,,-8943839.809955876,2966114.2551015657
238008,PUBLIX  0084,2551 S le Jeune Rd,,Coral Gables,FL,33134,5805,MIAMI DADE,Supermarket,25.748051,-80.262611,,,-8934792.9862586,2967909.2960860305
242327,La Trocha Supermarket,12073 W Okeechobee Rd,,Hialeah,FL,33018,2919,MIAMI DADE,Grocery Store,25.883823,-80.361916,,,-8945847.568291822,2984699.025168475
245854,PUBLIX 0328,20425 Old Cutler Rd,,Cutler Bay,FL,33189,1833,MIAMI DADE,Supermarket,25.5776,-80.338058,,,-8943191.707880478,2946858.254656033
246945,PUBLIX 0044,7805 Bird Rd,,Miami,FL,33155,3547,MIAMI DADE,Supermarket,25.73324,-80.321289,,,-8941324.991339365,2966078.9126070226
259938,CVS Pharmacy 1127,6780 SW 40th St,,Miami,FL,33155,3753,MIAMI DADE,Other,25.733238,-80.304489,,,-8939454.823894039,2966078.6654570107
262512,PUBLIX  0261,8250 Mills Dr,,Kendall,FL,33183,4805,MIAMI DADE,Supermarket,25.690786,-80.385864,,,-8948513.44745734,2960833.5953519032
264239,CVS PHARMACY 3764,20345 Old Cutler Rd,,Cutler Bay,FL,33189,1831,MIAMI DADE,Other,25.578468,-80.336182,,,-8942982.87251575,2946965.3782925964
271897,Walgreens 11939,8450 Coral Way,,Miami,FL,33155,2334,MIAMI DADE,Other,25.747473,-80.331238,,,-8942432.508953268,2967837.86100301
275611,MAS UNIDOS SUPERMARKET,832 SE 8th St,,Hialeah,FL,33010,5702,MIAMI DADE,Grocery Store,25.815729,-80.264175,,,-8934967.089942198,2976276.0332518066
276449,Sedano's 4,6709 W Flagler St,,Miami,FL,33144,2990,MIAMI DADE,Supermarket,25.770548,-80.304359,,,-8939440.352360236,2970689.97290624
279550,Walgreens 5625,1601 SW 107th Ave,,Miami,FL,33165,7344,MIAMI DADE,Other,25.753181,-80.36795,,,-8946519.270099271,2968543.328578381
280826,Presidente Supermarket 3,1895 SW 8th St,,Miami,FL,33135,3417,MIAMI DADE,Supermarket,25.765566,-80.226128,,,-8930731.717275986,2970074.1417381545
283918,Sedano's 18,12175 SW 26th St,,Miami,FL,33175,2467,MIAMI DADE,Supermarket,25.744488,-80.39183,,,-8949177.579539413,2967468.950059514
288724,Sedano's 9,4040 E 4th Ave,,Hialeah,FL,33013,2302,MIAMI DADE,Supermarket,25.858931,-80.274681,,,-8936136.612512473,2981619.4084937996
291371,CVS Pharmacy 3756,2391 W 68th St,,Hialeah,FL,33016,6816,MIAMI DADE,Other,25.884199,-80.331192,,,-8942427.388256693,2984745.5485383114
295717,Gordon Food Service Store MP125,2299 SW 8th St,,Miami,FL,33135,4913,MIAMI DADE,Supermarket,25.765398,-80.232491,,,-8931440.043195905,2970053.375501344
304151,Walmart Supercenter 1680,15885 SW 88th St,,Miami,FL,33196,1003,MIAMI DADE,Super Store,25.684399,-80.448792,,,-8955518.56037398,2960044.6244913386
306667,Sedano's 5,9688 SW 24th St,,Miami,FL,33165,8015,MIAMI DADE,Supermarket,25.747124,-80.351501,,,-8944688.175795212,2967794.7282232447
306828,PUBLIX  0094,1401 Monza Ave,,Coral Gables,FL,33146,3117,MIAMI DADE,Supermarket,25.707567,-80.281944,,,-8936945.125974104,2962906.7138747866
307668,Diaz Supermarket,13501 SW 268th St,,Naranja,FL,33032,7719,MIAMI DADE,Super Store,25.51815,-80.4104,,,-8951244.782483445,2939523.1194431093
308853,Presidente Supermarket 6,11336 Quail Roost Dr,,Miami,FL,33157,6567,MIAMI DADE,Supermarket,25.593576,-80.377357,,,-8947566.452549163,2948830.0464159837
316464,CVS Pharmacy 931,101 Hialeah Dr,,Hialeah,FL,33010,5216,MIAMI DADE,Other,25.822807,-80.278557,,,-8936568.086858789,2977151.3315774915
321097,WALGREENS  6012,655 NW 57th Ave,,Miami,FL,33126,4814,MIAMI DADE,Other,25.777802,-80.288322,,,-8937655.121686384,2971586.695025838
321462,WINN DIXIE  371,19167 S Dixie Hwy,,Cutler Bay,FL,33157,7714,MIAMI DADE,Supermarket,25.590094,-80.358543,,,-8945472.087649379,2948400.2681632857
323083,PUBLIX 0024,10201 HAMMOCKS BLVD BOX 111,,MIAMI,FL,33196,    ,MIAMI DADE,Supermarket,25.672722,-80.444069,,,-8954992.798418963,2958602.3019033335
323260,PUBLIX  0054,311 SW 7th St,,Miami,FL,33130,2917,MIAMI DADE,Supermarket,25.767227,-80.19928,,,-8927743.011587169,2970279.4571255404
323633,PUBLIX  0010,8341 W Flagler St,,Miami,FL,33144,2029,MIAMI DADE,Supermarket,25.769817,-80.331039,,,-8942410.3563746,2970599.6114759403
329878,PUBLIX 0375,1525 SW 107th Ave,,Miami,FL,33174,2510,MIAMI DADE,Supermarket,25.754787,-80.367996,,,-8946524.390795847,2968741.824690791
330087,PUBLIX 655,10755 NW 58th St,,Doral,FL,33178,2801,MIAMI DADE,Supermarket,25.82633,-80.371109,,,-8946870.928370688,2977587.021609145
330327,Walgreens 3211,9675 NW 41st St,,Doral,FL,33178,2974,MIAMI DADE,Other,25.811764,-80.352562,,,-8944806.285774944,2975785.725811343
330356,Sedano's 17,10720 W Flagler St,,Miami,FL,33174,4406,MIAMI DADE,Supermarket,25.76745,-80.370216,,,-8946771.520065408,2970307.022263859
331136,DELI VIEW,25 NW 9th St,,Miami,FL,33136,3522,MIAMI DADE,Convenience Store,25.782911,-80.19458,,,-8927219.80998044,2972218.2902851366
334415,Joe's Market,2190 NW 46th St,,Miami,FL,33142,4017,MIAMI DADE,Supermarket,25.816772,-80.232101,,,-8931396.628594495,2976405.012185396
338846,CVS Pharmacy 0866,9031 SW 107th Ave,,Miami,FL,33176,1414,MIAMI DADE,Other,25.685007,-80.366196,,,-8946324.01571242,2960119.7274579233
341635,CVS Pharmacy 5147,227 SW 8th St,,Miami,FL,33130,3529,MIAMI DADE,Other,25.766333,-80.197868,,,-8927585.82846617,2970168.949871265
344046,CVS Pharmacy 4072,1525 W 49th St,,Hialeah,FL,33012,2924,MIAMI DADE,Other,25.866678,-80.313499,,,-8940457.812506085,2982577.7910841326
344270,Walgreens 3239,1 SE 3rd Ave,Ste 100,Miami,FL,33131,1707,MIAMI DADE,Other,25.773773,-80.18895,,,-8926593.081247276,2971088.632919877
345234,CVS Pharmacy 4665,12955 SW 112th St,,Miami,FL,33186,4768,MIAMI DADE,Other,25.663536,-80.405579,,,-8950708.111218331,2957467.762569547
345550,Mexico Market,407 Park Pl,,Homestead,FL,33030,6022,MIAMI DADE,Super Store,25.473768,-80.475327,,,-8958472.42306218,2934049.4919421584
348837,Sedano's 28,3140 W 76th St,,Hialeah,FL,33018,3803,MIAMI DADE,Supermarket,25.891443,-80.346916,,,-8944177.775929924,2985641.894726475
349462,Walgreens 01600,14720 SW 88th St,,Miami,FL,33196,1481,MIAMI DADE,Other,25.684772,-80.430634,,,-8953497.221060155,2960090.699127698
352308,CVS Pharmacy 5118,28740 S Dixie Hwy,,Homestead,FL,33033,1233,MIAMI DADE,Other,25.499701,-80.446045,,,-8955212.76573277,2937247.560591372
360900,PUBLIX 0293,13735 SW 152nd St,,Miami,FL,33177,1106,MIAMI DADE,Supermarket,25.626364,-80.415596,,,-8951823.198557608,2952877.6359751513
366593,PUBLIX 0238,14630 SW 26th St,,Miami,FL,33175,8065,MIAMI DADE,Supermarket,25.74291,-80.431625,,,-8953607.538675532,2967273.9315367616
369948,Presidente Supermarket 10,2294 W Flagler St,,Miami,FL,33135,1523,MIAMI DADE,Supermarket,25.77252,-80.232689,,,-8931462.08445508,2970933.741401259
369983,PUBLIX 581,134 SW 13th St,,Miami,FL,33130,4211,MIAMI DADE,Supermarket,25.761482,-80.196793,,,-8927466.160013566,2969569.332736243
380153,PUBLIX  0051,1500 S Douglas Rd,,Coral Gables,FL,33134,4108,MIAMI DADE,Supermarket,25.758017,-80.254929,,,-8933937.829930324,2969141.0497825337
384572,WALGREEN 03784,3655 S Dixie Hwy,,Miami,FL,33133,4306,MIAMI DADE,Other,25.733313,-80.253365,,,-8933763.726246724,2966087.933585311
391819,Walgreens 02184,8327 W Flagler St,,Miami,FL,33144,2029,MIAMI DADE,Other,25.769823,-80.33078,,,-8942381.524626486,2970600.3531543612
391891,CVS Pharmacy 4059,1160 S Dixie Hwy,,Coral Gables,FL,33146,2918,MIAMI DADE,Other,25.715706,-80.275223,,,-8936196.947676482,2963912.3081810838
394240,MATANZAS GROCERY,1160 SW 4th St,,Miami,FL,33130,2005,MIAMI DADE,Convenience Store,25.769604,-80.214081,,,-8929390.651370399,2970573.2819162854
398626,Walgreens 3566,4451 W 12th Ave,,Hialeah,FL,33012,4100,MIAMI DADE,Other,25.862103,-80.306671,,,-8939697.723022949,2982011.8095187917
400168,Walgreens 3301,1695 NW 20th St,,Miami,FL,33142,7403,MIAMI DADE,Other,25.794819,-80.222549,,,-8930333.304818438,2973690.5110594695
407039,CVS PHARMACY 1136,909 N Homestead Blvd,,Homestead,FL,33030,5026,MIAMI DADE,Other,25.479216,-80.464066,,,-8957218.854276357,2934721.284387143
407085,Walgreens 0622,3715 NW 7th St,,Miami,FL,33126,5501,MIAMI DADE,Other,25.778963,-80.257736,,,-8934250.30374098,2971730.2201568075
407461,WALGREEN 06013,13698 SW 8th St,,Miami,FL,33184,1039,MIAMI DADE,Other,25.760853,-80.415726,,,-8951837.670091411,2969491.585782373
409338,MILAM'S MARKET 3,2969 SW 32nd Ave,,Miami,FL,33133,3612,MIAMI DADE,Super Store,25.736021,-80.245804,,,-8932922.039576836,2966422.578721796
410692,CVS Pharmacy 591,8695 Coral Way,,Miami,FL,33155,2337,MIAMI DADE,Other,25.747759,-80.335274,,,-8942881.79441811,2967873.2077307515
411202,CVS Pharmacy 3984,11299 S Dixie Hwy,,Miami,FL,33156,4441,MIAMI DADE,Other,25.665792,-80.323769,,,-8941601.063676532,2957746.387253996
413667,WALGREENS  3316,2700 W Flagler St,,Miami,FL,33135,1335,MIAMI DADE,Other,25.772287,-80.239197,,,-8932186.551701164,2970904.938928897
413885,PUBLIX 1090,5715 NW 7th St,,Miami,FL,33126,3105,MIAMI DADE,Supermarket,25.778053,-80.288963,,,-8937726.477479983,2971617.72402645
414445,WINN DIXIE 318,604 CRANDON BLVD,,KEY BISCAYNE,FL,33149,    ,MIAMI DADE,Supermarket,25.689934,-80.163918,,,-8923806.531753737,2960728.347380817
421300,VINA & SONS FOOD DIST CORP,2020 NW 22nd St,,Miami,FL,33142,7334,MIAMI DADE,Other,25.797342,-80.22879,,,-8931028.04976048,2974002.4558919375
422570,PUBLIX  0327,13850 SW 8th St,,Miami,FL,33184,3033,MIAMI DADE,Supermarket,25.760838,-80.419891,,,-8952301.315770565,2969489.7317264983
429771,Mi Regreso Supermarket,2620 W 12th Ave,,Hialeah,FL,33010,1015,MIAMI DADE,Grocery Store,25.8454,-80.306259,,,-8939651.859392742,2979945.6369844577
434130,Sedano's 10,1690 W 68th St,,Hialeah,FL,33014,4435,MIAMI DADE,Supermarket,25.884007,-80.317383,,,-8940890.177408328,2984721.7919054176
434442,ALTA HABANA SUPER MARKET,498 E 25th St,,Hialeah,FL,33013,3811,MIAMI DADE,Grocery Store,25.844664,-80.272369,,,-8935879.241849758,2979854.5999935414
435165,LA BODEGA BESTWAY,11400 W Flagler St,Ste 119-121,Miami,FL,33174,4007,MIAMI DADE,Other,25.768185,-80.381607,,,-8948039.560385035,2970397.8763375212
436545,Walmart Supercenter 2814,9300 NW 77th Ave,,Hialeah Gardens,FL,33016,2504,MIAMI DADE,Super Store,25.856667,-80.323189,,,-8941536.498371873,2981339.3405575072
438794,Walgreens 03318,11690 SW 72nd St,,Miami,FL,33173,2691,MIAMI DADE,Other,25.700535,-80.381348,,,-8948010.728636919,2962037.947630881
439039,El Tesoro Supermarket,701 Palm Ave,,Hialeah,FL,33010,4317,MIAMI DADE,Grocery Store,25.828314,-80.281372,,,-8936881.451225372,2977832.3889460857
440493,Publix 1748,11495 Bird Rd,,Miami,FL,33165,3311,MIAMI DADE,Supermarket,25.732216,-80.380699,,,-8947938.482287394,2965952.372344769
442441,VICTORIA GROCERY,1416 W 49th St,,Hialeah,FL,33012,3219,MIAMI DADE,Grocery Store,25.866478,-80.310852,,,-8940163.149813956,2982553.0482626357
443885,CVS Pharmacy 3737,13830 SW 8th St,,Miami,FL,33184,3033,MIAMI DADE,Other,25.760838,-80.419456,,,-8952252.891792068,2969489.7317264983
450820,PUBLIX  0127,2270 SW 27th Ave,,Miami,FL,33145,3434,MIAMI DADE,Supermarket,25.749109,-80.238312,,,-8932088.033951811,2968040.055321756
457889,Walgreens 3565,18590 S Dixie Hwy,,Cutler Bay,FL,33157,6818,MIAMI DADE,Other,25.596264,-80.355453,,,-8945128.110422827,2949161.8309470084
458421,CVS PHARMACY 5126,11211 SW 152nd St,,Miami,FL,33157,1101,MIAMI DADE,Other,25.627798,-80.375282,,,-8947335.464605765,2953054.684729773
461447,Arahy Bakery Company,745 SW 8th St,,Miami,FL,33130,3310,MIAMI DADE,Specialty Store,25.766088,-80.206535,,,-8928550.634492874,2970138.665590057
461713,LA FAMA #2 SUPER MARKET,2288 NW 28th St,,Miami,FL,33142,5986,MIAMI DADE,Grocery Store,25.801844,-80.233513,,,-8931553.811715497,2974559.1016519866
462990,PUBLIX  0889,15755 SW 56th St,,Miami,FL,33185,3879,MIAMI DADE,Supermarket,25.713535,-80.447586,,,-8955384.309068084,2963644.068840973
463378,Sedano's 7,4803 SW 8th St,,Coral Gables,FL,33134,2522,MIAMI DADE,Supermarket,25.764133,-80.273582,,,-8936014.272392092,2969897.011626305
463735,LA GUELAGETZA MEAT MARKET,501 W Palm Dr,Ste 101,Florida City,FL,33034,3300,MIAMI DADE,Grocery Store,25.447697,-80.483841,,,-8959420.197206793,2930835.100119342
466088,Sedano's 11,950 E 4th Ave,,Hialeah,FL,33010,4102,MIAMI DADE,Supermarket,25.83053,-80.273643,,,-8936021.06288103,2978106.4532933305
466234,WINN DIXIE 0370,8710 SW 72nd St,,Miami,FL,33173,3512,MIAMI DADE,Supermarket,25.702188,-80.334373,,,-8942781.495556906,2962242.1623854465
466266,PUBLIX  0832,1585 W 49th St,,Hialeah,FL,33012,2924,MIAMI DADE,Supermarket,25.866709,-80.314438,,,-8940562.34150794,2982581.6262252126
467209,PUBLIX  0478,20711 S Dixie Hwy,,Miami,FL,33189,2215,MIAMI DADE,Supermarket,25.573761,-80.374191,,,-8947214.01504131,2946384.4763659504
468879,Sedano's 16,3925 Palm Ave,,Hialeah,FL,33012,4447,MIAMI DADE,Supermarket,25.858091,-80.282707,,,-8937030.062745579,2981515.495736116
472825,BROTHERS SUPERMERKET,1080 SW 4th St,,Homestead,FL,33030,6814,MIAMI DADE,Convenience Store,25.466038,-80.490631,,,-8960176.056549279,2933096.3584787007
474250,CVS Pharmacy 5136,11503 Quail Roost Dr,,Miami,FL,33157,6566,MIAMI DADE,Other,25.592772,-80.378464,,,-8947689.68322547,2948730.8087414145
474619,WALGREEN 05293,4895 Palm Ave,,Hialeah,FL,33012,4006,MIAMI DADE,Other,25.866701,-80.283005,,,-8937063.235953836,2982580.636511289
477881,Walgreens 4384,400 Hialeah Dr,,Hialeah,FL,33010,5347,MIAMI DADE,Other,25.822924,-80.272659,,,-8935911.52450209,2977165.800780011
479935,CVS Pharmacy 3655,10201 Hammocks Blvd,Ste 112,Miami,FL,33196,3780,MIAMI DADE,Other,25.672722,-80.444069,,,-8954992.798418963,2958602.3019033335
486860,Sedano's 29,16255 SW 88th St,,Miami,FL,33196,4912,MIAMI DADE,Supermarket,25.684212,-80.455437,,,-8956258.278390301,2960021.525465201
489038,Walgreens 5130,6800 W 28th Ave,,Hialeah,FL,33018,5305,MIAMI DADE,Other,25.88419,-80.339653,,,-8943369.262468293,2984744.434945281
495570,Sedano's 32,14655 SW 56th St,,Miami,FL,33175,5703,MIAMI DADE,Supermarket,25.714058,-80.430122,,,-8953440.22548087,2963708.6880041524
496929,WINN DIXIE 0254,11241 S.W. 40TH STREET,,MIAMI,FL,33165,    ,MIAMI DADE,Supermarket,25.732286,-80.376961,,,-8947522.370030807,2965961.0225233
497120,CIRCLE K 2702384,13300 SW 288th St,,Homestead,FL,33033,1928,MIAMI DADE,Convenience Store,25.499674,-80.405571,,,-8950707.220662404,2937244.230580917
497674,WINN DIXIE  280,10505 NW 41st St,,Doral,FL,33178,4289,MIAMI DADE,Supermarket,25.811787,-80.367348,,,-8946452.255765814,2975788.5699181487
502104,Walgreens 02832,4010 SW 137th Ave,,Miami,FL,33175,6464,MIAMI DADE,Other,25.730759,-80.415855,,,-8951852.03030572,2965772.326213649
503550,Sedano's 22,5360 W 16th Ave,,Hialeah,FL,33012,2165,MIAMI DADE,Supermarket,25.871008,-80.315063,,,-8940631.916189687,2983113.483437796
505340,TIMS ORIENTAL GROCERY,30365 S Dixie Hwy,,Homestead,FL,33033,3209,MIAMI DADE,Grocery Store,25.485201,-80.460274,,,-8956796.730767269,2935459.3293485153
507248,PUBLIX 0550,9041 SW 107th Ave,,Miami,FL,33176,1414,MIAMI DADE,Supermarket,25.684891,-80.366264,,,-8946331.585437793,2960105.398572868
510896,Grazianos Market,5999 W 16th Ave,,Hialeah,FL,33012,6813,MIAMI DADE,Grocery Store,25.8766,-80.315216,,,-8940648.948071778,2983805.335038417
512160,Trade Fair,12396 Quail Roost Dr,,Miami,FL,33177,4976,MIAMI DADE,Convenience Store,25.581339,-80.392395,,,-8949240.47505171,2947319.7063618763
520029,PUBLIX 1695,18485 S Dixie Hwy,,Cutler Bay,FL,33157,6817,MIAMI DADE,Supermarket,25.597797,-80.354439,,,-8945015.232459161,2949351.0551512255
522567,MILAM'S MARKET 1,5767 Bird Rd,,Miami,FL,33155,5301,MIAMI DADE,Super Store,25.734114,-80.287872,,,-8937605.027915526,2966186.917560262
522870,MILAM'S MARKET 2,80 Curtiss Pkwy,,Miami Springs,FL,33166,5318,MIAMI DADE,Super Store,25.821756,-80.281609,,,-8936907.83394469,2977021.3567326996
523151,WINN DIXIE 0247,1155 NW 11th St,,Miami,FL,33136,2201,MIAMI DADE,Supermarket,25.784037,-80.213966,,,-8929377.849628959,2972357.4946212075
530705,PUBLIX  588,4260 SW 152nd Ave,,Miami,FL,33185,5252,MIAMI DADE,Supermarket,25.727667,-80.439781,,,-8954515.460442442,2965390.2452340308
532398,Sedano's 31,831 NE 8th St,,Homestead,FL,33030,5021,MIAMI DADE,Supermarket,25.477297,-80.467033,,,-8957549.139205541,2934484.6491780845
539969,La Mexicana Market,27861 S Dixie Hwy # 63,,Naranja,FL,33032,8129,MIAMI DADE,Grocery Store,25.507744,-80.437943,,,-8954310.855218364,2938239.5670306613
549380,CVS Pharmacy 4994,3215 Grand Ave,,Coconut Grove,FL,33133,5010,MIAMI DADE,Other,25.727962,-80.246254,,,-8932972.133347692,2965426.698197563
560796,Apple Food Market,5700 NW 22nd Ave,,Miami,FL,33142,3005,MIAMI DADE,Convenience Store,25.82704,-80.232941,,,-8931490.136966761,2977674.829004202
569769,Walmart Supercenter 2091,8651 NW 13th Ter,,Doral,FL,33126,1512,MIAMI DADE,Super Store,25.785192,-80.335815,,,-8942942.018262628,2972500.2855219315
570650,Walgreens 10900,3490 Bird Rd,,Miami,FL,33133,4301,MIAMI DADE,Other,25.735172,-80.249901,,,-8933378.115530616,2966317.661460881
576566,CVS Pharmacy 3236,726 Crandon Blvd,,Key Biscayne,FL,33149,2506,MIAMI DADE,Other,25.687769,-80.163803,,,-8923793.730012296,2960460.9072733554
577643,MILAGROS AAA GROCERY,1405 NW 7TH STREET,Door #123,MIAMI,FL,33125,3634,MIAMI DADE,Grocery Store,25.780193,-80.218315,,,-8929861.97809442,2971882.27673743
577940,Winn Dixie 251,3275 SW 22nd St,,Miami,FL,33145,2233,MIAMI DADE,Supermarket,25.750158,-80.248055,,,-8933172.61975061,2968169.7033886206
577979,RICKY'S MEAT & DELI CORP,2614 NW 31st St,,Miami,FL,33142,5840,MIAMI DADE,Specialty Store,25.804443,-80.239372,,,-8932206.032612054,2974880.4623076916
591240,CUBA BAKERY,1641 NE 8th St,,Homestead,FL,33033,4603,MIAMI DADE,Specialty Store,25.477398,-80.454575,,,-8956162.320989238,2934497.1035686196
591397,Walgreens 4385,770 W 29th St,,Hialeah,FL,33012,5606,MIAMI DADE,Other,25.847982,-80.29744,,,-8938670.132803436,2980265.013081621
591668,SANTA BARBARA GROCERY,1818 NW 17th Ave,,Miami,FL,33125,2331,MIAMI DADE,Convenience Store,25.79229,-80.223221,,,-8930408.11151625,2973377.8310468793
592368,WALGREENS  4808,20340 Old Cutler Rd,,Cutler Bay,FL,33189,1832,MIAMI DADE,Other,25.578375,-80.336647,,,-8943034.636078969,2946953.900722953
599230,M & M SUPERMARKET,513 W Lucy St,,Florida City,FL,33034,1802,MIAMI DADE,Convenience Store,25.462427,-80.483505,,,-8959382.793857887,2932651.1317378753
599350,4TH AVENUE SUPERMARKET,1992 E 4th Ave,,Hialeah,FL,33010,2714,MIAMI DADE,Grocery Store,25.840078,-80.274033,,,-8936064.477482438,2979287.363242264
599900,Sedano's 23,2425 SW 8th St,,Miami,FL,33135,3003,MIAMI DADE,Supermarket,25.765299,-80.235695,,,-8931796.710844407,2970041.138268416
602365,PUBLIX 0069,13820 SW 88th St,,Miami,FL,33186,1304,MIAMI DADE,Supermarket,25.685139,-80.419456,,,-8952252.891792068,2960136.032757887
602685,CVS PHARMACY 8369,10761 W Flagler St,,Miami,FL,33174,1421,MIAMI DADE,Other,25.7686,-80.370308,,,-8946781.76145856,2970449.1751446393
607810,PUBLIX 657,16800 SW 88th St,,Miami,FL,33196,5935,MIAMI DADE,Supermarket,25.683693,-80.464508,,,-8957268.057491288,2959957.416593308
613903,CVS Pharmacy 3610,15700 SW 88th St,,Miami,FL,33196,5828,MIAMI DADE,Other,25.684282,-80.446274,,,-8955238.257896164,2960030.1721552312
614433,CVS Pharmacy 3327,3695 W Flagler St,,Miami,FL,33135,1039,MIAMI DADE,Other,25.771877,-80.255196,,,-8933967.552234365,2970854.25660411
617492,CVS Pharmacy 5233,650 NW 27th Ave,,Miami,FL,33125,3037,MIAMI DADE,Other,25.779074,-80.239456,,,-8932215.38344928,2971743.9422713155
619419,CVS Pharmacy 3672,13749 SW 152nd St,,Miami,FL,33177,8125,MIAMI DADE,Other,25.626337,-80.415863,,,-8951852.920861648,2952874.302441582
625148,Sedano's 33,10780 NW 58th St,,Doral,FL,33178,2802,MIAMI DADE,Supermarket,25.826147,-80.371834,,,-8946951.635001512,2977564.389647612
626593,HOUSE OF MEATS,11639 SW 216th St,,Miami,FL,33170,2908,MIAMI DADE,Grocery Store,25.566343,-80.380928,,,-8947963.974450786,2945469.0499143037
629462,Sedano's 8,3950 W 12th Ave,,Hialeah,FL,33012,4105,MIAMI DADE,Supermarket,25.857603,-80.306648,,,-8939695.16267466,2981455.1277112067
632789,PUBLIX  0222,13890 SW 56th St,,Miami,FL,33175,6021,MIAMI DADE,Supermarket,25.714235,-80.418701,,,-8952168.84557652,2963730.5572690265
635051,WINN DIXIE  249,6770 Bird Rd,,Miami,FL,33155,3753,MIAMI DADE,Supermarket,25.733244,-80.304321,,,-8939436.122219585,2966079.4069070597
638430,PUBLIX  590,9510 SW 160th St,,Miami,FL,33157,3300,MIAMI DADE,Supermarket,25.619625,-80.347153,,,-8944204.158649243,2952045.634063441
650452,PUBLIX  0223,14601 S Dixie Hwy,,Miami,FL,33176,7926,MIAMI DADE,Supermarket,25.634218,-80.338478,,,-8943238.462066611,2953847.3558459356
652420,EL NUEVO SIGLO,1305 SW 8th St,,Miami,FL,33135,3903,MIAMI DADE,Grocery Store,25.765827,-80.216286,,,-8929636.110847598,2970106.4036286375
656742,CVS Pharmacy 3241,5795 Sunset Dr,,South Miami,FL,33143,5315,MIAMI DADE,Other,25.704397,-80.287193,,,-8937529.441981278,2962515.0708613116
658183,PUBLIX 31,9755 NW 41st St,,Doral,FL,33178,2381,MIAMI DADE,Supermarket,25.811728,-80.355148,,,-8945094.157978136,2975781.2741670143
658798,Walgreens 4654,861 NE 8th St,,Homestead,FL,33030,5021,MIAMI DADE,Other,25.477318,-80.465569,,,-8957386.16747102,2934487.2387039694
660215,Walgreens 5250,1699 NW 7th St,,Miami,FL,33125,3604,MIAMI DADE,Other,25.780087,-80.221893,,,-8930260.279232478,2971869.172612305
663423,Sedano's 26,2301 W 52nd St,,Hialeah,FL,33016,2008,MIAMI DADE,Supermarket,25.869883,-80.329536,,,-8942243.043179939,2982974.300511394
684667,MILLER MEAT & FISH MARKET INC.,13445 SW 56th St,,Miami,FL,33175,6117,MIAMI DADE,Grocery Store,25.714741,-80.411728,,,-8951392.614767218,2963793.076363879
685183,Chevron Superstop,12701 SW 268th St,,Homestead,FL,33032,7807,MIAMI DADE,Convenience Store,25.518248,-80.396683,,,-8949717.813028233,2939535.2080112263
688946,PUBLIX  529,15750 SW 72nd St,,Miami,FL,33193,5060,MIAMI DADE,Supermarket,25.698729,-80.448486,,,-8955484.496609798,2961814.83420751
692629,Mr. Food Store 2 ,9617 Fontainebleau Blvd,,Miami,FL,33172,6811,MIAMI DADE,Convenience Store,25.777115,-80.351013,,,-8944633.851883706,2971501.767379816
697247,Sedano's 14,1263 W Flagler St,,Miami,FL,33135,2419,MIAMI DADE,Supermarket,25.77354,-80.215714,,,-8929572.436098866,2971059.830143382
699348,CVS Pharmacy 3421,14705 S Dixie Hwy,,Miami,FL,33176,7927,MIAMI DADE,Other,25.633482,-80.338776,,,-8943271.635274867,2953756.480483592
702521,O & M SUPERMARKET,645 NW 5th Ave,,Miami,FL,33136,3205,MIAMI DADE,Convenience Store,25.780422,-80.202919,,,-8928148.103214165,2971910.586632629
703765,Sedano's 21,13794 SW 152nd St,,Miami,FL,33177,1163,MIAMI DADE,Supermarket,25.626118,-80.416397,,,-8951912.365469731,2952847.26380825
705116,PUBLIX  1072,155 E 2nd Ave,,Hialeah,FL,33010,4924,MIAMI DADE,Supermarket,25.823542,-80.277313,,,-8936429.605412241,2977242.228086942
708376,Walgreens 2416,10609 SW 40th St,,Miami,FL,33165,3612,MIAMI DADE,Other,25.732496,-80.366783,,,-8946389.360253515,2965986.9730894547
708877,PUBLIX 586,3339 W 80th St,,Hialeah,FL,33018,5065,MIAMI DADE,Supermarket,25.895203,-80.35006,,,-8944527.764408978,2986107.165123196
709059,PUBLIX  510,891 N Homestead Blvd,,Homestead,FL,33030,5024,MIAMI DADE,Supermarket,25.479065,-80.464134,,,-8957226.424001731,2934702.664179081
710569,WALGREENS #2743 02743,998 SW 67th Ave,,Miami,FL,33144,4761,MIAMI DADE,Other,25.761299,-80.303886,,,-8939387.69824109,2969546.7131507406
711256,Walgreens 00621,5731 Bird Rd,,Miami,FL,33155,5394,MIAMI DADE,Other,25.734118,-80.287003,,,-8937508.291278027,2966187.4118639333
712246,CVS Pharmacy 3722,1247 W 68th St,,Hialeah,FL,33014,4523,MIAMI DADE,Other,25.884581,-80.308823,,,-8939937.282567138,2984792.8144540554
713386,Gordon Food Service Store MP129,5600 W Flagler St,,Miami,FL,33134,1068,MIAMI DADE,Supermarket,25.770599,-80.287086,,,-8937517.530795762,2970696.277212844
714038,Walmart Supercenter 2727,33501 S Dixie Hwy,,Florida City,FL,33034,5628,MIAMI DADE,Super Store,25.456387,-80.475082,,,-8958445.149786936,2931906.445591179
714752,PUBLIX  0658,9105 S Dadeland Blvd,,Miami,FL,33156,7813,MIAMI DADE,Supermarket,25.685392,-80.31498,,,-8940622.67667195,2960167.2846333194
716121,PUBLIX  0835,12100 SW 127th Ave,,Miami,FL,33186,4663,MIAMI DADE,Supermarket,25.65551,-80.399582,,,-8950040.528232044,2956476.563403752
719748,Walgreens 3302,9701 SW 24th St,,Miami,FL,33165,7512,MIAMI DADE,Other,25.747297,-80.351891,,,-8944731.59039662,2967816.1092128493
720935,WINN DIXIE  319,30346 Old Dixie Hwy,,Homestead,FL,33033,3215,MIAMI DADE,Supermarket,25.485163,-80.461868,,,-8956974.174035594,2935454.6432328504
721759,PUBLIX 0343,2414 W 60th St,,Hialeah,FL,33016,4418,MIAMI DADE,Supermarket,25.876972,-80.331635,,,-8942476.702791113,2983851.3606629637
727818,CVS 564,2520 SW 22nd St,,Miami,FL,33145,3404,MIAMI DADE,Other,25.750303,-80.236671,,,-8931905.35866742,2968187.624326823
729376,CVS Pharmacy 3315,9720 SW 8TH ST,,MIAMI,FL,33174,    ,MIAMI DADE,Other,25.761456,-80.35305,,,-8944860.609686451,2969566.1190225165
741511,TROPICAL SUPERMARKET #5,6190 SW 8th St,,West Miami,FL,33144,5005,MIAMI DADE,Super Store,25.763298,-80.295311,,,-8938433.133607538,2969793.800020913
741778,REY/CHAVEZ DISTRIBUTOR,3400 NW 62nd St,,Miami,FL,33147,7536,MIAMI DADE,Super Store,25.830177,-80.251854,,,-8933595.522496134,2978062.7955875867
742069,Kwik Stop ,2581 E 8th Ave,,Hialeah,FL,33013,3449,MIAMI DADE,Convenience Store,25.845873,-80.265862,,,-8935154.885923168,2980004.1433931105
747028,METRO SUPERMARKET,2671 NW 30th Ave,,Miami,FL,33142,6445,MIAMI DADE,Grocery Store,25.800381,-80.244019,,,-8932723.33428577,2974378.2080074972
752930,Miami Bakery,1990 NW 22nd Ave,,Miami,FL,33125,1326,MIAMI DADE,Specialty Store,25.794224,-80.231773,,,-8931360.115801517,2973616.945964579
754737,TORMAC CORPORATION,2537 SW 37th Ave,,Miami,FL,33133,2043,MIAMI DADE,Convenience Store,25.743921,-80.254318,,,-8933869.813721448,2967398.87656596
756587,Walgreens 04809,3595 SW 22nd St,,Miami,FL,33145,3012,MIAMI DADE,Other,25.750069,-80.25148,,,-8933553.88900658,2968158.7036511768
757598,Presidente Supermarket 22,10855 SW 72nd St,Ste 33,Miami,FL,33173,2720,MIAMI DADE,Supermarket,25.701088,-80.36908,,,-8946645.061123867,2962106.2659838907
757605,Presidente Supermarket 12,9875 SW 40th St,,Miami,FL,33165,3977,MIAMI DADE,Supermarket,25.732714,-80.355324,,,-8945113.750208514,2966013.9122971
758009,PUBLIX 1108,20201 SW 127th Ave,,Miami,FL,33177,5119,MIAMI DADE,Supermarket,25.579302,-80.396957,,,-8949748.314568711,2947068.306573766
758949,EL PALACIO SUPERMARKET,995 SW 5th St,,Miami,FL,33130,2504,MIAMI DADE,Grocery Store,25.768789,-80.211075,,,-8929056.024981076,2970472.537793351
760383,PUBLIX 1029,3060 NE 41st Ter,,Homestead,FL,33033,6619,MIAMI DADE,Supermarket,25.498823,-80.413948,,,-8951639.74403678,2937139.2739683245
765838,Target Store T-746,15005 SW 88th St,,Miami,FL,33196,1314,MIAMI DADE,Super Store,25.68479,-80.437103,,,-8954217.346846096,2960092.9225722444
765839,Target Store T-1075,20500 SW 112TH AVE,,MIAMI,FL,33189,    ,MIAMI DADE,Super Store,25.575527,-80.373802,,,-8947170.711759392,2946602.4198971363
766809,Presidente Supermarket 14,1060 W 29th St,,Hialeah,FL,33012,5060,MIAMI DADE,Supermarket,25.847969,-80.303459,,,-8939340.164818522,2980263.4050512747
766811,Presidente Supermarket 11,4275 W Flagler St,,Coral Gables,FL,33134,1605,MIAMI DADE,Supermarket,25.77169,-80.265297,,,-8935091.99041087,2970831.140577536
769045,Coral Supermarket,275 SW 37th Ave,,Miami,FL,33135,1024,MIAMI DADE,Grocery Store,25.76911,-80.255302,,,-8933979.352100391,2970512.217297841
771961,SHOP MART,595 Hialeah Dr,,Hialeah,FL,33010,5362,MIAMI DADE,Convenience Store,25.823069,-80.269424,,,-8935551.405949373,2977183.732717501
775107,MARTINEZ DISTRIBUTORS CORP,7379 NW 31st St,,Miami,FL,33122,1240,MIAMI DADE,Super Store,25.803246,-80.316521,,,-8940794.220007263,2974732.455004756
776591,Race Trac 261,1955 NE 8th St,,Homestead,FL,33033,4703,MIAMI DADE,Convenience Store,25.477457,-80.451202,,,-8955786.84034679,2934504.3789105057
778058,SUPER ECONOMICO SUPERMARKET,5370 W 12th Ave,,Hialeah,FL,33012,3030,MIAMI DADE,Supermarket,25.871183,-80.30703,,,-8939737.686720144,2983135.134234347
778114,WALGREEN 07458,11190 SW 88th St,,Miami,FL,33176,0901,MIAMI DADE,Other,25.686523,-80.376167,,,-8947433.982355118,2960306.9924453134
780172,CASA MARTINEZ CORP,13275 SW 136th St,,Miami,FL,33186,5824,MIAMI DADE,Specialty Store,25.641462,-80.400215,,,-8950110.993469717,2954741.8166142455
780942,WALGREEN 09361,3090 NE 43rd Ave,,Homestead,FL,33033,3028,MIAMI DADE,Other,25.499331,-80.412483,,,-8951476.660982767,2937201.9271799317
781123,MERCADO ORIENTAL,201 SW 8th Ave,,Miami,FL,33130,1217,MIAMI DADE,Grocery Store,25.771706,-80.207588,,,-8928667.85391668,2970833.1184179573
781264,EL NINO DISCOUNT,200 NW 8th Ave,,Miami,FL,33128,1412,MIAMI DADE,Convenience Store,25.7759,-80.20784,,,-8928695.90642836,2971351.5690351073
786374,TARGET STORE T-1039,8350 S Dixie Hwy,,Miami,FL,33143,7714,MIAMI DADE,Super Store,25.692053,-80.304672,,,-8939475.195360852,2960990.109865559
788043,Kwik Stop 2002 2002,1405 NW 29th St,,Miami,FL,33142,6621,MIAMI DADE,Convenience Store,25.803278,-80.219765,,,-8930023.39135607,2974736.411738601
790261,BJ's WHOLESALE CLUB 051,7007 SW 117th Ave,,Miami,FL,33183,2805,MIAMI DADE,Super Store,25.700928,-80.382065,,,-8948090.544711817,2962086.499339181
790268,BJ's WHOLESALE CLUB 091,10425 Marlin Rd,,Cutler Bay,FL,33157,7731,MIAMI DADE,Super Store,25.590347,-80.361206,,,-8945768.53145336,2948431.4951680284
790277,BJ's WHOLESALE CLUB 111,8005 NW 95th St,,Hialeah Gardens,FL,33016,2111,MIAMI DADE,Super Store,25.859838,-80.32737,,,-8942001.92516288,2981731.6103600576
790294,BJ's WHOLESALE CLUB 170,650 SE 8th St,,Homestead,FL,33030,7405,MIAMI DADE,Super Store,25.462435,-80.467941,,,-8957650.217303181,2932652.1181019275
790295,BJ's WHOLESALE CLUB 179,16200 SW 88th St,,Miami,FL,33196,4941,MIAMI DADE,Super Store,25.68298,-80.458427,,,-8956591.123667773,2959869.3445522264
797771,MEAT PLACE PLUS,11108 SW 184th St,,Cutler Bay,FL,33157,6603,MIAMI DADE,Grocery Store,25.597956,-80.370789,,,-8946835.306133633,2949370.681283837
800652,WALGREEN 07844,7605 W 33rd Ct,,Hialeah Gardens,FL,33018,5003,MIAMI DADE,Other,25.891964,-80.350998,,,-8944632.182091344,2985706.363489966
802117,LUCKY MEATS II,291 W Mowry Dr,,Homestead,FL,33030,5801,MIAMI DADE,Supermarket,25.469828,-80.482239,,,-8959241.863382544,2933563.6698194835
803981,Direct Meat & Seafood Corp,30300 SW 170th Ave,,Homestead,FL,33030,3410,MIAMI DADE,Other,25.48535,-80.467346,,,-8957583.98220616,2935477.703868965
805082,TARGET STORE T-968,7795 SW 40th St,,Miami,FL,33155,3546,MIAMI DADE,Super Store,25.733229,-80.321098,,,-8941303.729316626,2966077.5532820085
806578,Walgreens 5050,1610 W 49th St,,Hialeah,FL,33012,2931,MIAMI DADE,Other,25.866468,-80.315208,,,-8940648.057515852,2982551.811122661
812830,PUBLIX 1136,2950 NE 8th St,,Homestead,FL,33033,5694,MIAMI DADE,Supermarket,25.477449,-80.434273,,,-8953902.312687153,2934503.392423261
814837,PUBLIX 1062,15771 SW 152nd St,,Miami,FL,33187,5417,MIAMI DADE,Supermarket,25.625362,-80.449242,,,-8955568.654144837,2952753.925345364
826017,Whole Foods Market 10190,6701 SW 57th Ave,,South Miami,FL,33143,3630,MIAMI DADE,Super Store,25.705872,-80.285393,,,-8937329.06689785,2962697.300934331
826143,Family Dollar 1579,11520 Quail Roost Dr,,Miami,FL,33157,6548,MIAMI DADE,Other,25.592024,-80.379272,,,-8947779.629374031,2948638.4837425924
826146,Family Dollar 2487,5362 W 16th Ave,,Hialeah,FL,33012,2165,MIAMI DADE,Other,25.871071,-80.315041,,,-8940629.46716089,2983121.2777208607
826148,Family Dollar 3071,27365 S Dixie Hwy,,Naranja,FL,33032,8210,MIAMI DADE,Other,25.513123,-80.432686,,,-8953725.648655266,2938903.038477468
826155,Family Dollar 5263,3311 NW 17th Ave,,Miami,FL,33142,6164,MIAMI DADE,Other,25.807201,-80.223747,,,-8930466.66556841,2975221.49067345
827506,Family Dollar 5418,8250 NW 103rd St,,Hialeah Gardens,FL,33016,2202,MIAMI DADE,Other,25.869261,-80.332176,,,-8942536.926635632,2982897.3483867683
827512,Family Dollar 6032,904 W Palm Dr,,Homestead,FL,33034,3104,MIAMI DADE,Other,25.448259,-80.491661,,,-8960290.715624796,2930904.383874268
827518,Family Dollar 7049,2009 W Flagler St,,Miami,FL,33135,1616,MIAMI DADE,Other,25.772697,-80.228104,,,-8930951.684589796,2970955.621428792
827519,Family Dollar 7341,1795 SW 8th St,,Miami,FL,33135,3506,MIAMI DADE,Other,25.765642,-80.224457,,,-8930545.702406872,2970083.5359977945
828911,Family Dollar 6865,9590 SW 160th St,,Miami,FL,33157,3353,MIAMI DADE,Other,25.619919,-80.347893,,,-8944286.535072431,2952081.93054127
828919,Walgreens 9018,1155 W 68th St,,Hialeah,FL,33014,5152,MIAMI DADE,Other,25.884539,-80.307388,,,-8939777.53909785,2984787.617670498
831970,Target Store T-2109,1750 W 37th St,,Hialeah,FL,33012,4687,MIAMI DADE,Super Store,25.855244,-80.317474,,,-8940900.30748199,2981163.3112029154
841475,EL MERCADITO MEXICANO,38000 SW 193rd Ave,Ste # 1,Florida City,FL,33034,7004,MIAMI DADE,Grocery Store,25.414515,-80.503372,,,-8961594.378181478,2926744.9727223227
849584,Rey Chavez Distributor 2,780 W 17th St,,Hialeah,FL,33010,2435,MIAMI DADE,Super Store,25.836836,-80.297546,,,-8938681.93266946,2978886.3774791798
854600,Walgreens 10264,28875 S Dixie Hwy,,Homestead,FL,33033,2406,MIAMI DADE,Other,25.498751,-80.446709,,,-8955286.681874657,2937130.394007015
855561,La Patrona Bakery Corp,110 W Mowry Dr,,Homestead,FL,33030,5904,MIAMI DADE,Specialty Store,25.469599,-80.479897,,,-8958981.153135104,2933535.433439272
856731,Dollar Tree 2117,9525 W Flagler St,,Miami,FL,33174,2012,MIAMI DADE,Other,25.769175,-80.351334,,,-8944669.585440248,2970520.2521015364
857518,Dollar Tree 2229,7342 SW 117th Ave,,Miami,FL,33183,3804,MIAMI DADE,Other,25.698801,-80.382248,,,-8948110.916178634,2961823.729030044
858129,Walgreens 10470,16795 S Dixie Hwy,,Miami,FL,33157,3441,MIAMI DADE,Other,25.61438,-80.346519,,,-8944133.58209208,2951398.11496888
861371,Union Pharmacy & Medical Supplies,6456 W Flagler St,,Miami,FL,33144,3009,MIAMI DADE,Convenience Store,25.770515,-80.301338,,,-8939104.05617855,2970685.8936504675
861447,AMY SUPERMARKET,908-910 E 25th St,,Hialeah,FL,33013,3404,MIAMI DADE,Convenience Store,25.845118,-80.262436,,,-8934773.505347708,2979910.7558965413
861965,BONE ISLAND FISH MARKET,19200 SW 106th Ave,Unit 10,Cutler Bay,FL,33157,7617,MIAMI DADE,Specialty Store,25.588358,-80.364189,,,-8946100.597494397,2948186.0008525252
865408,Dollar Tree 621,9360 Miller Rd,,Miami,FL,33165,    ,MIAMI DADE,Other,25.716166,-80.346413,,,-8944121.782226056,2963969.1444136105
865458,Sam's Club 6217,8425 NW 13TH TERR,,MIAMI,FL,33126,1509,MIAMI DADE,Super Store,25.785162,-80.33271,,,-8942596.371243717,2972496.5766497776
866298,Sedano's 37,14524 SW 8th St,,Miami,FL,33184,3132,MIAMI DADE,Supermarket,25.760824,-80.429573,,,-8953379.111080425,2969488.001274559
866338,Naranja Food Store,27801 S Dixie Hwy,,Homestead,FL,33032,8129,MIAMI DADE,Convenience Store,25.50848,-80.43721,,,-8954229.258031612,2938330.347016451
872746,Walgreens 3943,200 SW 13th St,,Miami,FL,33130,4220,MIAMI DADE,Other,25.761433,-80.19828,,,-8927631.692096377,2969563.276122499
876027,Fundacion Supermarket & Carniceria,5646 SW 102nd Ave,,Miami,FL,33173,2838,MIAMI DADE,Grocery Store,25.715094,-80.359146,,,-8945539.213302325,2963836.6916211
876412,K-J Mini Market 1,407 SW 12th Ave,Ste H,Miami,FL,33130,2439,MIAMI DADE,Convenience Store,25.769529,-80.21447,,,-8929433.954652319,2970564.010955823
880057,7-ELEVEN 30030,9695 SW 88th St,,Miami,FL,33176,1942,MIAMI DADE,Convenience Store,25.68763,-80.349525,,,-8944468.208481405,2960443.7369198166
883528,MASAYITA MINI MARKET,10930 W. Flagler St,#304,Sweetwater,FL,33174,    ,MIAMI DADE,Grocery Store,25.768307,-80.373535,,,-8947140.989455352,2970412.9569320856
886835,Walgreens 03721,15255 SW 137th Ave,,Miami,FL,33177,8117,MIAMI DADE,Other,25.625177,-80.41436,,,-8951685.607666986,2952731.0846739127
886836,Walgreens 05742,14190 SW 26th St,,Miami,FL,33175,7257,MIAMI DADE,Other,25.743202,-80.424049,,,-8952764.182213282,2967310.0184191978
886837,Walgreens 06442,15195 SW 42nd St,,Miami,FL,33185,3949,MIAMI DADE,Other,25.728508,-80.438644,,,-8954388.890181411,2965494.1673110425
886838,Walgreens 06603,16690 SW 88th St,,Miami,FL,33196,1002,MIAMI DADE,Other,25.683683,-80.464012,,,-8957212.843023853,2959956.1813576696
886839,Walgreens 09401,15711 SW 152nd St,,Miami,FL,33187,5417,MIAMI DADE,Other,25.625368,-80.448471,,,-8955482.826817434,2952754.6661244906
886840,Walgreens 10356,13680 SW 88th St,,Miami,FL,33186,1567,MIAMI DADE,Other,25.685213,-80.416237,,,-8951894.554351205,2960145.173615772
892560,CIRCLE K 2702372,970 W Palm Dr,,Homestead,FL,33034,3104,MIAMI DADE,Convenience Store,25.447828,-80.49305,,,-8960445.338397508,2930851.249862494
897030,PUBLIX 1009,911 SW 1ST AVE,,MIAMI,FL,33130,    ,MIAMI DADE,Supermarket,25.7651,-80.195244,,,-8927293.726122329,2970016.5402250187
898913,Chavela Dollar Store,1774 W Flagler St,,Miami,FL,33135,2017,MIAMI DADE,Convenience Store,25.772709,-80.224236,,,-8930521.100799406,2970957.1048216694
899581,Family Dollar Store 1909,11269 SW 152nd St,,Miami,FL,33157,1101,MIAMI DADE,Other,25.627747,-80.376228,,,-8947440.772844058,2953048.3879802884
901147,PUBLIX 1151,8680 SW 24TH ST,,Miami,FL,33155,2338,MIAMI DADE,Supermarket,25.747541,-80.334953,,,-8942846.060861565,2967846.2651123847
901322,Walgreens 11481,52 E  Palm Dr,,Florida City,FL,33034,    ,MIAMI DADE,Other,25.447926,-80.476036,,,-8958551.348581152,2930863.3313612267
902643,LA Copa Nueva Supermarket,650 E 9th St,,Hialeah,FL,33010,4502,MIAMI DADE,Supermarket,25.830442,-80.267982,,,-8935390.883243648,2978095.569773766
907910,Walgreens 9788,2800 NE 8th St,,Homestead,FL,33033,5695,MIAMI DADE,Other,25.477444,-80.435478,,,-8954036.45267356,2934502.775868766
909817,CVS Pharmacy 3705,10701 NW 41st St,,Doral,FL,33178,1867,MIAMI DADE,Other,25.811787,-80.369621,,,-8946705.284968385,2975788.5699181487
909853,CVS Pharmacy 5124,11721 S Dixie Hwy,,Miami,FL,33156,4438,MIAMI DADE,Other,25.662258,-80.325447,,,-8941787.857782084,2957309.9269887772
909860,CVS Pharmacy 5154,2599 NW 14th Ave,,Miami,FL,33142,7611,MIAMI DADE,Other,25.800606,-80.219368,,,-8929979.197518226,2974406.028142448
909863,CVS Pharmacy 5243,8831 SW 136th St,,Miami,FL,33176,5816,MIAMI DADE,Other,25.645735,-80.336739,,,-8943044.877472121,2955269.4553837376
909872,CVS PHARMACY 5924,8765 S Dixie Hwy,,Miami,FL,33143,7811,MIAMI DADE,Other,25.689173,-80.307755,,,-8939818.39335097,2960634.3413201827
909889,CVS PHARMACY 7131,12650 SW 88th St,,Miami,FL,33186,1868,MIAMI DADE,Other,25.685753,-80.399742,,,-8950058.339350572,2960211.877345198
910456,Walgreens 9206,8650 SW 132nd St,,Miami,FL,33156,6507,MIAMI DADE,Other,25.647224,-80.333588,,,-8942694.109756632,2955453.324584203
910460,Walgreens 9572,11211 S Dixie Hwy,,Miami,FL,33156,4441,MIAMI DADE,Other,25.666159,-80.323631,,,-8941585.701586805,2957791.7136653033
911043,Dollar Tree 4157,2552 NE 10th Ct,,Homestead,FL,33033,4717,MIAMI DADE,Other,25.479206,-80.441261,,,-8954680.213288816,2934720.0512600583
912431,CVS PHARMACY 402,170 SE 3rd Ave,,Miami,FL,33131,2004,MIAMI DADE,Other,25.772879,-80.189003,,,-8926598.981180286,2970978.119570229
917274,Florida Baby Food Center 03,468 W 51st Pl,,Hialeah,FL,33012,3620,MIAMI DADE,Grocery Store,25.869041,-80.292465,,,-8938116.31833674,2982870.130690471
917276,Florida Baby Food Center 04,110 SW 9th Ave,,Homestead,FL,33030,6991,MIAMI DADE,Grocery Store,25.469238,-80.488518,,,-8959940.838465234,2933490.9211761393
917282,Florida Baby Food Center 05,11865 SW 26th St,Ste G3,Miami,FL,33175,2471,MIAMI DADE,Grocery Store,25.746298,-80.388191,,,-8948772.487912418,2967692.643696303
917301,Florida Nutrition Sales 09,10552 SW 8th St,,Miami,FL,33174,2612,MIAMI DADE,Grocery Store,25.760262,-80.3666,,,-8946368.9887867,2969418.536158105
917308,Florida Baby Food Center 10,530 SW 1st St,Bldge C #205,Florida City,FL,33034,2933,MIAMI DADE,Grocery Store,25.446732,-80.484077,,,-8959446.468606621,2930716.1349955862
917319,Florida Baby Food Center 12,5140 NW 22nd Ave,,Miami,FL,33142,8031,MIAMI DADE,Grocery Store,25.821783,-80.232849,,,-8931479.895573609,2977024.6957485266
917414,Fontainebleau Food Corp/Sabor Tropical Supermarket,10692 Fontainebleau Blvd,,Miami,FL,33172,3117,MIAMI DADE,Super Store,25.775414,-80.368034,,,-8946528.620936498,2971291.490127886
919147,Dollar Tree 6532,15150 Miller Dr,,Miami,FL,33185,4073,MIAMI DADE,Other,25.713598,-80.43856,,,-8954379.539344184,2963651.8527786606
919948,LA MIA BAKERY,2969 NW 17th Ave,,Miami,FL,33142,6631,MIAMI DADE,Convenience Store,25.803988,-80.223595,,,-8930449.745005807,2974824.2020456414
920963,Dollar Tree 4225,596 W 49th St,,Hialeah,FL,33012,3605,MIAMI DADE,Other,25.866535,-80.294823,,,-8938378.80969603,2982560.099962495
922113,Presidente Supermarket 23,2199 NW 36th St,,Miami,FL,33142,5454,MIAMI DADE,Supermarket,25.809381,-80.231705,,,-8931352.546076141,2975491.054607245
923811,Costco Wholesale 1023,13450 SW 120th St,,Miami,FL,33186,7393,MIAMI DADE,Super Store,25.656334,-80.411789,,,-8951399.405256156,2956578.3231164617
923962,Sedano's 38,8601 Bird Rd,,Miami,FL,33155,3215,MIAMI DADE,Supermarket,25.733257,-80.333725,,,-8942709.360526871,2966081.0133822933
924002,Moreno Mexican Shop,439 W Palm Dr,,Homestead,FL,33034,3345,MIAMI DADE,Convenience Store,25.447702,-80.482819,,,-8959306.428687204,2930835.71652143
927239,CVS PHARMACY 113,2780 SE 8th St,,Homestead,FL,33033,5616,MIAMI DADE,Other,25.462605,-80.452713,,,-8955955.04409738,2932673.078353568
929703,Walgreens 3317,4200 SW 8th St,,Coral Gables,FL,33134,2619,MIAMI DADE,Other,25.764378,-80.263565,,,-8934899.185052816,2969927.2954087555
929827,Walgreens 10793,15705 SW 72nd St,,Miami,FL,33193,5069,MIAMI DADE,Other,25.699028,-80.446823,,,-8955299.372296607,2961851.772464084
929830,Walgreens 11920,12711 SW 200th St,,Miami,FL,33177,4804,MIAMI DADE,Other,25.580868,-80.397179,,,-8949773.027495667,2947261.576722788
930695,Publix 1273,18280 SW 147th Avenue,,Miami,FL,33187,    ,MIAMI DADE,Supermarket,25.597143,-80.429787,,,-8953402.933451455,2949270.32906883
930696,Publix 1247,23300 SW 112th Avenue,,Homestead,FL,33032,    ,MIAMI DADE,Supermarket,25.55076,-80.372139,,,-8946985.587446205,2943546.197280833
932416,Walgreens 07533,12630 SW 120th St,,Miami,FL,33186,9063,MIAMI DADE,Other,25.65675,-80.398422,,,-8949911.397622723,2956629.697219028
932470,Walgreens 07309,15701 SW 56th St,,Miami,FL,33185,3879,MIAMI DADE,Other,25.713545,-80.447227,,,-8955344.345370889,2963645.304386362
932549,Dollar Tree 4197,13550 SW 120th St,Ste 430,Miami,FL,33186,7398,MIAMI DADE,Other,25.656233,-80.413536,,,-8951593.880406572,2956565.8501041685
932807,Marios Supermarket ,3249 NW 22nd Ave,,Miami,FL,33142,8524,MIAMI DADE,Convenience Store,25.806337,-80.23175,,,-8931357.555453228,2975114.655697775
934960,Miri Supermarket,1574 W 39th Pl,,Hialeah,FL,33012,7011,MIAMI DADE,Grocery Store,25.857298,-80.314026,,,-8940516.477877734,2981417.397822184
942754,Glaser Organic Farms,19100 SW 137th Ave,,Miami,FL,33177,3506,MIAMI DADE,Farmers and Markets,25.589197,-80.413361,,,-8951574.399495684,2948289.5547694797
945392,Speedway 6414,10675 NW 41ST ST,,Doral,FL,33178,    ,MIAMI DADE,Convenience Store,25.812202,-80.369049,,,-8946641.610219654,2975839.8875923497
945922,Speedway 6455,8190 Bird Rd,,Miami,FL,33155,6745,MIAMI DADE,Convenience Store,25.733173,-80.326782,,,-8941936.469302293,2966070.633083882
946947,Speedway 6892,311 SE 1st Ave,,Homestead,FL,33034,5007,MIAMI DADE,Convenience Store,25.443981,-80.474464,,,-8958376.354341624,2930376.9971658858
949631,Indo Pak Curry Spices,18901 SW 106th Ave,Ste 133,Cutler Bay,FL,33157,7663,MIAMI DADE,Grocery Store,25.590199,-80.361885,,,-8945844.11738761,2948413.2279793713
952514,Dollar Tree 4377,13855 SW 88th St,,Miami,FL,33186,1303,MIAMI DADE,Other,25.685419,-80.418571,,,-8952154.374042716,2960170.6198176215
953048,Hernandez Dollar Store,3395 E 4th Ave,,Hialeah,FL,33013,3005,MIAMI DADE,Grocery Store,25.853115,-80.274429,,,-8936108.560000792,2980899.951493504
953259,CVS PHARMACY 3765,19198 S Dixie,Pkwy,Miami,FL,33157,    ,MIAMI DADE,Other,25.589472,-80.359375,,,-8945564.705465717,2948323.496914579
954863,Dollar Tree 4390,14778 N Kendall Dr,,Miami,FL,33196,1481,MIAMI DADE,Other,25.684752,-80.431328,,,-8953574.476786766,2960088.2286341544
958481,CVS PHARMACY 8000,24799 SW 112th Ave,,Homestead,FL,33032,7100,MIAMI DADE,Other,25.53718,-80.371994,,,-8946969.446120039,2941870.707201751
960134,El Criollo Supermarkets,1651 W Flagler St,,Miami,FL,33135,2119,MIAMI DADE,Grocery Store,25.773254,-80.222542,,,-8930332.525582002,2971024.4757396793
960685,CASTILLO MARKET 1,3299 NW 7th St,,Miami,FL,33125,4138,MIAMI DADE,Grocery Store,25.779167,-80.249893,,,-8933377.22497469,2971755.439187952
962720,Family Dollar 7985,22053 S Dixie Hwy,,Miami,FL,33170,2835,MIAMI DADE,Other,25.560307,-80.387344,,,-8948678.200303717,2944724.2125311987
963372,Holiday Bakery 1,5931 W 16th Ave,,Hialeah,FL,33012,6813,MIAMI DADE,Convenience Store,25.876392,-80.315178,,,-8940644.717931129,2983779.6003437885
964305,CVS PHARMACY 5197,14705 SW 42nd St,,Miami,FL,33185,3981,MIAMI DADE,Other,25.728708,-80.432144,,,-8953665.313491253,2965518.8813495543
964365,Asia Market,9525 Sw 160th St,,Miami,FL,33157,3350,MIAMI DADE,Grocery Store,25.619783,-80.346985,,,-8944185.45697479,2952065.140322739
964486,CVS PHARMACY 5198,6460 S Dixie Hwy,,South Miami,FL,33143,4648,MIAMI DADE,Other,25.696665,-80.29879,,,-8938820.414116008,2961559.8515820643
965151,Plaza Seafood Market & Fresh Fish Inc,3114 NW 17th Ave,,Miami,FL,33142,6161,MIAMI DADE,Specialty Store,25.805216,-80.223763,,,-8930468.44668026,2974976.0434239637
965483,Walgreens 12260,11700 SW 104th Street,,Miami,FL,33186,    ,MIAMI DADE,Other,25.671726,-80.384148,,,-8948322.42321114,2958479.2842686702
970259,Jomara Wholesale Inc.,2250 W 9th Ave,,Hialeah,FL,33010,2002,MIAMI DADE,Super Store,25.842113,-80.300491,,,-8939009.768569848,2979539.067198418
973126,Bee Heaven Farm,19000 SW 264th St,,Redland,FL,33031,    ,MIAMI DADE,Farmers and Markets,25.520195,-80.500687,,,-8961295.485348698,2939775.377834069
974475,El Libanes Supermarket,1966 W Flagler St,,Miami,FL,33135,1615,MIAMI DADE,Grocery Store,25.772629,-80.227654,,,-8930901.590818938,2970947.2155386466
975448,Family Dollar Store 8365,10855 SW 72nd St,,Miami,FL,33173,    ,MIAMI DADE,Other,25.701088,-80.36908,,,-8946645.061123867,2962106.2659838907
977721,Food Zone,1411 N Krome Ave,,Homestead,FL,33030,4208,MIAMI DADE,Convenience Store,25.484131,-80.47747,,,-8958710.98073095,2935327.3787633353
980151,Servi America Inc,880 N Krome Ave,,Homestead,FL,33030,4407,MIAMI DADE,Convenience Store,25.477978,-80.477509,,,-8958715.322191091,2934568.624033623
983424,Family Dollar Store 8383,28800 SW 137th Ave,,Homestead,FL,33033,    ,MIAMI DADE,Other,25.499542,-80.412483,,,-8951476.660982767,2937227.9505405864
984466,CVS PHARMACY 6732,8720 W Flagler St,,Miami,FL,33174,2404,MIAMI DADE,Other,25.76944,-80.337708,,,-8943152.746058702,2970553.009423678
991843,EL RAPIDITO,8801 SW 40th St,,Miami,FL,33165,5409,MIAMI DADE,Convenience Store,25.733149,-80.33783,,,-8943166.327036576,2966067.6672856817
992037,BP Gas Station,26790 SW 137th Ave,,Homestead,FL,33032,7764,MIAMI DADE,Convenience Store,25.51849,-80.412575,,,-8951486.90237592,2939565.0594155905
992553,DOLLAR TREE 4585,4410 W 16th Ave,Bay 28-G,Hialeah,FL,33012,    ,MIAMI DADE,Other,25.862617,-80.314812,,,-8940603.974997498,2982075.3963005478
998015,Walgreens 11880,6701 Miller Dr,,Miami,FL,33155,5721,MIAMI DADE,Other,25.718437,-80.302322,,,-8939213.59455749,2964249.7456432898
998094,Sunoco 2520 2520,1350 N Krome Ave,,Florida City,FL,33034,2430,MIAMI DADE,Convenience Store,25.459982,-80.477303,,,-8958692.390375989,2932349.677296687
998755,Dollar Tree 4551,20721 S Dixie Hwy,,Miami,FL,33189,2215,MIAMI DADE,Other,25.573645,-80.37426,,,-8947221.696086178,2946370.160821833
1000159,Race Trac 194,35426 S Dixie Hwy,,Homestead,FL,33034,5610,MIAMI DADE,Convenience Store,25.438456,-80.475151,,,-8958452.8308318,2929695.9095145334
1000163,Race Trac 567,11180F SW 184th St,,Miami,FL,33157,    ,MIAMI DADE,Convenience Store,25.597879,-80.372307,,,-8947004.28912066,2949361.1768012634
1005849,Walgreens 11938,10700 W Flagler St,,Miami,FL,33174,1422,MIAMI DADE,Other,25.768414,-80.369362,,,-8946676.45322027,2970426.183367945
1005851,Walgreens 12285,780 E 9th St,,Hialeah,FL,33010,4554,MIAMI DADE,Other,25.830482,-80.265915,,,-8935160.78585618,2978100.516827111
1005879,Dollar General 12984,5175 SW 8th St,,Miami,FL,33134,    ,MIAMI DADE,Other,25.763899,-80.279213,,,-8936641.112444747,2969868.087582237
1007084,Publix 1288,106 Ponce de Leon Blvd,,Miami,FL,33135,1034,MIAMI DADE,Supermarket,25.770626,-80.254906,,,-8933935.269582037,2970699.6147880265
1008026,Presidente Supermarket 27,495 W 29th St,,Hialeah,FL,33012,5772,MIAMI DADE,Supermarket,25.848043,-80.29187,,,-8938050.08323972,2980272.5584571464
1009558,Don Domingo Convenience Store,3101 SW 107th Ave,,Miami,FL,33165,2436,MIAMI DADE,Grocery Store,25.740223,-80.367378,,,-8946455.595350537,2966941.8622297035
1013200,Publix 1264,3251 E 2nd Ave,,Hialeah,FL,33013,    ,MIAMI DADE,Supermarket,25.851765,-80.278503,,,-8936562.075606285,2980732.9574224483
1013250,CVS PHARMACY 6002,7199 SW 117th Ave,,Miami,FL,33183,2807,MIAMI DADE,Other,25.700794,-80.382057,,,-8948089.654155891,2962069.9447946786
1017478,D Anthony & Bryan Super Colmadon,3151 NW 32nd St,,Miami,FL,33142,5710,MIAMI DADE,Convenience Store,25.805487,-80.247322,,,-8933091.02256386,2975009.5526045784
1017854,Tierra Santa Market,98 W 9th St,,Hialeah,FL,33010,4013,MIAMI DADE,Convenience Store,25.829853,-80.283424,,,-8937109.878820477,2978022.724606826
1019940,Dollar General 13179,18713 S Dixie Hwy,,Cutler Bay,FL,33157,6806,MIAMI DADE,Other,25.594585,-80.355888,,,-8945176.53440132,2948954.5881727682
1019950,Walmart NEIGHBORHOOD MARKET 5854,8400 Coral Way,,Miami,FL,33155,2334,MIAMI DADE,Super Store,25.747475,-80.330994,,,-8942405.346997514,2967838.10818263
1024506,Walgreens 12723,23201 SW 112th Ave,,Homestead,FL,33032,    ,MIAMI DADE,Other,25.551584,-80.372025,,,-8946972.897024252,2943647.8678827644
1025796,CVS PHARMACY 7133,10700 NW 74th St,,Medley,FL,33178,1504,MIAMI DADE,Other,25.840559,-80.370674,,,-8946822.50439219,2979346.8565138923
1027779,ALDI 77097,19650 S Dixie Hwy,,Cutler Bay,FL,33157,7610,MIAMI DADE,Supermarket,25.584917,-80.363808,,,-8946058.184768405,2947761.301620913
1027800,Dollar General 13299,1247 W 68th St,,Hialeah,FL,33014,4523,MIAMI DADE,Other,25.884581,-80.308823,,,-8939937.282567138,2984792.8144540554
1030115,Dollar Tree 4751,801 Hialeah Dr,,Hialeah,FL,33010,5538,MIAMI DADE,Other,25.823208,-80.264992,,,-8935058.037966179,2977200.922664401
1031106,Walgreens 11482,1820 N Canal Dr,,Homestead,FL,33035,    ,MIAMI DADE,Other,25.462467,-80.451767,,,-8955849.735859092,2932656.063558797
1034171,Publix 1389,11750 SW 104th St,,Miami,FL,33176,    ,MIAMI DADE,Supermarket,25.671511,-80.383499,,,-8948250.176861616,2958452.729392063
1036280,Ezz Grocery,31462 SW 133rd Ave,,Homestead,FL,33033,5619,MIAMI DADE,Grocery Store,25.474918,-80.408226,,,-8951002.773910461,2934191.2958161673
1036892,Family Food Of Homestead,59 SW 8th St,,Homestead,FL,33030,7262,MIAMI DADE,Convenience Store,25.46273,-80.47908,,,-8958890.205111125,2932688.4903221955
1036910,ALDI 77088,8621 Coral Way,,Miami,FL,33155,2337,MIAMI DADE,Supermarket,25.747828,-80.334023,,,-8942742.533735128,2967881.7354505365
1039133,Sabor Tropical Supermarket,8700 SW 137th Ct,,Miami,FL,33183,4443,MIAMI DADE,Super Store,25.686193,-80.417671,,,-8952054.186501002,2960266.2287556943
1039329,Dollar General 13018,580 W Palm Dr,,Homestead,FL,33034,3220,MIAMI DADE,Other,25.447872,-80.484962,,,-8959544.986355973,2930856.6742076473
1039378,CVS Pharmacy 925,3395 W 68th St,,Hialeah,FL,33018,1728,MIAMI DADE,Other,25.884148,-80.349937,,,-8944514.07211161,2984739.2381789316
1043087,Best Discount LLC,700 W 29th St,,Hialeah,FL,33012,5606,MIAMI DADE,Convenience Store,25.847958,-80.296341,,,-8938547.792683056,2980262.0444103503
1044921,Walmart 5945,400 W 49Th St,,Hialeah,FL,33012,    ,MIAMI DADE,Super Store,25.865849,-80.291641,,,-8938024.591076327,2982475.232361976
1058043,FIRST STOP MARKET,17317 Homestead Ave,,Miami,FL,33157,5335,MIAMI DADE,Convenience Store,25.607519,-80.352486,,,-8944797.825493643,2950551.136226457
1059117,EGR Discount Corp,1436 W Flagler St,,Miami,FL,33135,2209,MIAMI DADE,Convenience Store,25.773151,-80.218773,,,-8929912.962421203,2971011.7432305445
1060991,Naranja Chevron,26001 S Dixie Hwy,,Homestead,FL,33032,6613,MIAMI DADE,Convenience Store,25.525249,-80.421822,,,-8952516.273707287,2940398.826057376
1061652,Johnny Jones Meats,9891 N Kendall Dr,,Miami,FL,33176,1805,MIAMI DADE,Grocery Store,25.687527,-80.353485,,,-8944909.033664946,2960431.013577243
1062463,Family Dollar 8704,3333 Palm Ave,,Hialeah,FL,33012,5240,MIAMI DADE,Other,25.852821,-80.282494,,,-8937006.35169404,2980863.583733415
1063518,Kwik Stop 601,601 W Mowry Dr,,Homestead,FL,33030,5742,MIAMI DADE,Convenience Store,25.469847,-80.48555,,,-8959610.44221656,2933566.012578335
1064376,Publix 1386,1290 W 68th St,,Hialeah,FL,33014,4524,MIAMI DADE,Supermarket,25.884129,-80.309921,,,-8940059.511368029,2984736.887261429
1068560,CVS Pharmacy 976,1177 SW 8th St,,Miami,FL,33130,3603,MIAMI DADE,Other,25.765888,-80.214272,,,-8929411.913393142,2970113.9437741884
1069102,Speedway 6913,24435 SW 112th Ave,,Homestead,FL,33032,4507,MIAMI DADE,Convenience Store,25.540001,-80.372032,,,-8946973.67626069,2942218.744421141
1069915,Dollar Tree 5029,7097 SW 8th St,,Miami,FL,33144,4649,MIAMI DADE,Other,25.762928,-80.309555,,,-8940018.768434398,2969748.065769196
1071460,The Fresh Market 055,2640 S Bayshore Dr,,Miami,FL,33133,    ,MIAMI DADE,Supermarket,25.731129,-80.2351,,,-8931730.475747386,2965818.048083222
1073094,Presidente Supermarket 29,14778 SW 56th St,,Miami,FL,33185,4070,MIAMI DADE,Supermarket,25.713804,-80.433388,,,-8953803.7949378,2963677.305048125
1074317,Walmart 5615,11800 Hialeah Gardens Blvd,,Hialeah,FL,33018,4235,MIAMI DADE,Super Store,25.881048,-80.352371,,,-8944785.023752201,2984355.67243227
1075284,Lucky Supermarket,444 Sw 4th St,,Homestead,FL,33030,7114,MIAMI DADE,Convenience Store,25.466093,-80.484261,,,-8959466.951392928,2933103.1399364197
1076777,MB Discount,1603 NW 27th Ave,,Miami,FL,33125,2139,MIAMI DADE,Convenience Store,25.788933,-80.239494,,,-8932219.61358993,2972962.7892328114
1077055,Publix 1423,13401 S Dixie Hwy,,Pinecrest,FL,33156,6512,MIAMI DADE,Supermarket,25.645525,-80.333183,,,-8942649.025362862,2955243.5237133284
1078450,Family Dollar 8989,1999 W 4th Ave,,Hialeah,FL,33010,2407,MIAMI DADE,Other,25.839411,-80.289818,,,-8937821.65564461,2979204.8646567045
1079812,7-eleven Store 39428A,6800 W 16th Ave,,Hialeah,FL,33014,3815,MIAMI DADE,Convenience Store,25.884184,-80.315651,,,-8940697.372050274,2984743.692549976
1079968,7-eleven 10504A,10721 Sw 56th St,,Miami,FL,33165,7043,MIAMI DADE,Convenience Store,25.715542,-80.367661,,,-8946487.098766431,2963892.044881759
1082753,Downstairs,13960 SW 56th St,,Miami,FL,33175,6000,MIAMI DADE,Convenience Store,25.713802,-80.419693,,,-8952279.274511386,2963677.0579385012
1083816,Sapir Market,2201 SW 16th St,,Miami,FL,33145,2007,MIAMI DADE,Convenience Store,25.758175,-80.230469,,,-8931214.955185521,2969160.5787188564
1088514,Quick Food Mini Mart Store,113 SE 2nd St,,Miami,FL,33131,2104,MIAMI DADE,Convenience Store,25.772957,-80.191414,,,-8926867.372472588,2970987.761641409
1088727,Presidente Supermarket 31,3001 NW 17th Ave,,Miami,FL,33142,6187,MIAMI DADE,Supermarket,25.804674,-80.223648,,,-8930455.64493882,2974909.025292637
1090523,The Fresh Market 140,8760 SW 136th St,,Miami,FL,33176,5815,MIAMI DADE,Supermarket,25.644215,-80.33548,,,-8942904.726233214,2955081.7605137685
1090709,Lejune Amoco,1250 SE 8th Ave,,Hialeah,FL,33010,5616,MIAMI DADE,Convenience Store,25.81181,-80.264786,,,-8935035.106151074,2975791.4140255074
1091619,CVS 5466,1230 W 29th St,,Hialeah,FL,33012,    ,MIAMI DADE,Other,25.847963,-80.306503,,,-8939679.021348497,2980262.662883482
1091691,E & C Mini Market,2255 SW 32nd Ave,Ste F,Miami,FL,33145,3170,MIAMI DADE,Convenience Store,25.74872,-80.246338,,,-8932981.484184919,2967991.9783029226
1092134,Dollar General 14518,9377 SW 56th St,,Miami,FL,33165,6558,MIAMI DADE,Other,25.716391,-80.346214,,,-8944099.629647389,2963996.944824774
1096335,Sedano's 42,3801 W Flagler St,,Coral Gables,FL,33134,1603,MIAMI DADE,Supermarket,25.771845,-80.257469,,,-8934220.58143694,2970850.300917834
1097821,Omar Discount Supermarket,1570 W 43rd Pl,Ste 22,Hialeah,FL,33012,7646,MIAMI DADE,Convenience Store,25.861044,-80.313789,,,-8940490.095158417,2981880.8018265753
1099528,Dollar Tree 5223,4041 SW 152nd Ave,Ste 4049,Miami,FL,33185,5919,MIAMI DADE,Other,25.729937,-80.43972,,,-8954508.669953503,2965670.7500288403
1101143,Davis Grocery,21630 Sw 120th Ave,,Miami,FL,33170,2803,MIAMI DADE,Convenience Store,25.565922,-80.386703,,,-8948606.844510118,2945417.097646519
1102239,Lilly's Minimarket Inc.,1751 W Flagler St,Ste 2,Miami,FL,33135,2082,MIAMI DADE,Convenience Store,25.772806,-80.223938,,,-8930487.92759115,2970969.0955862775
1106662,Publix 1230,121 NW 22nd Ave,,Miami,FL,33125,5266,MIAMI DADE,Supermarket,25.774567,-80.230949,,,-8931268.3885411,2971186.7852954296
1108034,Black Eagle Family Food Market 2,700 NW 4th Ave,,Miami,FL,33136,3800,MIAMI DADE,Convenience Store,25.780769,-80.201332,,,-8927971.439182276,2971953.4842635603
1113395,Grand Ave Enterprises,3135 Grand Ave,,Miami,FL,33133,5103,MIAMI DADE,Convenience Store,25.728388,-80.244034,,,-8932725.004078131,2965479.3389078914
1114601,Family Dollar 10315,11291 NW 87th CT,,HIALEAH GARDENS,FL,33018,    ,MIAMI DADE,Other,25.87602,-80.339653,,,-8943369.262468293,2983733.574945241
1114791,Allapattah 80282,1650 NW 20th St,,Miami,FL,33142,7404,MIAMI DADE,Convenience Store,25.794409,-80.222878,,,-8930369.928930908,2973639.8191057905
1115847,Walmart Supercenter 5912,21151 S Dixie Hwy,,Miami,FL,33189,2724,MIAMI DADE,Super Store,25.571348,-80.376564,,,-8947478.176192963,2946086.6912228083
1117167,Nath Petroleum Inc,26929 S Dixie Hwy,,Homestead,FL,33032,7312,MIAMI DADE,Convenience Store,25.516588,-80.429245,,,-8953342.598287445,2939330.443802025
1118106,Target Store 2843,7800 SW 104th St,,Miami,FL,33156,2631,MIAMI DADE,Super Store,25.673822,-80.322342,,,-8941442.210763171,2958738.1659473963
1119483,Florida Baby Food Center 08,1685 NW 27th Ave,,Miami,FL,33125,2162,MIAMI DADE,Grocery Store,25.790461,-80.239571,,,-8932228.18519072,2973151.7016548184
1119902,Trader Joe's 770,9205 S Dixie Hwy,,Pinecrest,FL,33156,2929,MIAMI DADE,Supermarket,25.684801,-80.312721,,,-8940371.205942249,2960094.281344075
1124089,El Karmel Supermarket,2049 W 4th Ave,,Hialeah,FL,33010,2404,MIAMI DADE,Convenience Store,25.840075,-80.289848,,,-8937824.995229334,2979286.9921831163
1125019,7-eleven 22793A,5895 SW 137th Ave,,Miami,FL,33183,1105,MIAMI DADE,Convenience Store,25.712332,-80.414879,,,-8951743.382482708,2963495.433488274
1126020,Walmart Neighborhood Market 3183,1499 South Dixie Hwy,,Homestead,FL,33033,    ,MIAMI DADE,Super Store,25.484735,-80.460968,,,-8956873.986493878,2935401.862874518
1126158,Sunset 80336,9691 SW 72nd St,,Miami,FL,33173,3207,MIAMI DADE,Convenience Store,25.702084,-80.349754,,,-8944493.700644797,2962229.3139446406
1130246,ALDI 77089,1460 W 49th St,,Hialeah,FL,33012,3286,MIAMI DADE,Supermarket,25.866505,-80.312134,,,-8940305.861401154,2982556.3885410926
1130371,Walgreens 13851,9310 SW 56th St,,Miami,FL,33165,6529,MIAMI DADE,Other,25.716223,-80.345413,,,-8944010.462735262,2963976.187179466
1137280,Dollar Tree 5421,1617 SW 107th Ave,,Miami,FL,33165,7344,MIAMI DADE,Other,25.753786,-80.367981,,,-8946522.721003486,2968618.1041960185
1138114,Dollar Tree 5433,15725 SW 72nd St,Ste 170,Miami,FL,33193,5072,MIAMI DADE,Other,25.698973,-80.447456,,,-8955369.83753428,2961844.9777945424
1148779,7-eleven 36662A,1200 Brickell Bay Dr.,Ste 109,Miami,FL,33131,    ,MIAMI DADE,Convenience Store,25.761578,-80.189835,,,-8926691.598996628,2969581.1987622515
1149556,Walmart Supercenter 5671,13600 SW 288th St,,Homestead,FL,33033,1905,MIAMI DADE,Super Store,25.499554,-80.41053,,,-8951259.254017247,2937229.430543512
1152342,Hialeah Drive Supermarket,950 Hialeah Dr,,Hialeah,FL,33010,5541,MIAMI DADE,Grocery Store,25.822855,-80.262711,,,-8934804.118207678,2977157.267658846
1153152,CVS Pharmacy 10131,2393 Ludlam Rd,,Miami,FL,33155,1845,MIAMI DADE,Other,25.748262,-80.30352,,,-8939346.955307461,2967935.3736856324
1153989,Valero Food Mart 11100,11100 SW 216th St,,Miami,FL,33170,3045,MIAMI DADE,Convenience Store,25.566053,-80.371162,,,-8946876.828303698,2945433.263296971
1154854,BJ's Wholesale Club 367,7050 SW 24th St,,Miami,FL,33155,1603,MIAMI DADE,Super Store,25.747972,-80.308563,,,-8939908.339499531,2967899.5324469097
1155201,Dollar General 15345,7800 W 33 Ave Bay 5,,Hialeah,FL,33018,    ,MIAMI DADE,Other,25.892853,-80.350128,,,-8944535.334134353,2985816.3693883447
1155831,ALDI 77084,7800 W 33rd Ave,Bay 2,Hialeah,FL,33018,    ,MIAMI DADE,Supermarket,25.894138,-80.349777,,,-8944496.260993086,2985975.37825362
1156427,Family Dollar Store 11016,2090 NW 7th St,,Miami,FL,33125,3423,MIAMI DADE,Other,25.779743,-80.229362,,,-8931091.724509211,2971826.6460982184
1157891,ALDI 77061,33290 S Dixie Hwy,,Florida City,FL,33034,    ,MIAMI DADE,Supermarket,25.458874,-80.475296,,,-8958468.972157966,2932213.0692844386
1158371,7 Eleven Store 10535A,3960 Sw 8th St,,Coral Gables,FL,33134,2902,MIAMI DADE,Convenience Store,25.764482,-80.260544,,,-8934562.888871128,2969940.150584284
1158936,Family Dollar Store 10623,109 W Mowry Dr,,Homestead,FL,33030,5903,MIAMI DADE,Other,25.469849,-80.479744,,,-8958964.121253014,2933566.2591845514
1158998,CVS Pharmacy 1126,2713 SW 8th St,,Miami,FL,33135,4618,MIAMI DADE,Other,25.765198,-80.23912,,,-8932177.980100373,2970028.6538291764
1159325,De Todos Tortillas Inc.,820 N Krome Ave,,Homestead,FL,33030,4407,MIAMI DADE,Grocery Store,25.477329,-80.47747,,,-8958710.98073095,2934488.595122468
1165055,Walmart Supercenter 4161,9191 W Flagler St,,Miami,FL,33174,    ,MIAMI DADE,Super Store,25.769405,-80.344208,,,-8943876.322748857,2970548.682980714
1165409,7-Eleven Store 37013A,95 SE 9th St,,Miami,FL,33131,    ,MIAMI DADE,Convenience Store,25.765512,-80.192375,,,-8926974.350503242,2970067.466873116
1169125,Target Store 2848,10101 W Flagler St,,Miami,FL,33172,    ,MIAMI DADE,Super Store,25.768867,-80.360291,,,-8945666.674119286,2970482.179532236
1169713,CVS 10132,1201 BRICKELL AVE,,MIAMI,FL,33131,    ,MIAMI DADE,Other,25.762003,-80.191681,,,-8926897.094776632,2969633.730763494
1170596,Ikes Food Center,3374 S Douglas Rd,,Coconut Grove,FL,33133,4954,MIAMI DADE,Convenience Store,25.728161,-80.253624,,,-8933792.557994839,2965451.2885528584
1170858,Walmart Neighborhood Market 4140,6991 SW 8th St,,Miami,FL,33144,4743,MIAMI DADE,Super Store,25.762966,-80.308456,,,-8939896.428314015,2969752.7627938855
1171178,Dollar General 15373,1520 W 37th St,,Hialeah,FL,33012,4613,MIAMI DADE,Other,25.855217,-80.31295,,,-8940396.69810564,2981159.9712426714
1171789,Dollar Tree 5753,968 SW 8th St,,Miami,FL,33130,3732,MIAMI DADE,Other,25.765932,-80.210594,,,-8929002.480306005,2970119.382570105
1172444,La Plaza Lopez,2775 E 10 Ave,Unit D,Hialeah,FL,33013,    ,MIAMI DADE,Specialty Store,25.847897,-80.262009,,,-8934725.971925141,2980254.4990402493
1174687,CVS 10696,5252 W Flagler St,,Miami,FL,33134,1168,MIAMI DADE,Other,25.771032,-80.281677,,,-8936915.403670063,2970749.8021212053
1174688,CVS 10697,3949 SW 8th St,,Miami,FL,33134,    ,MIAMI DADE,Other,25.764559,-80.259773,,,-8934477.061543727,2969949.6683657304
1174691,CVS 10700,4410 W 16th Ave,,Hialeah,FL,33012,    ,MIAMI DADE,Other,25.862659,-80.314781,,,-8940600.524093283,2982080.592119839
1174693,CVS 10701,10044 W Flagler St,,Miami,FL,33174,1863,MIAMI DADE,Other,25.768682,-80.360283,,,-8945665.783563359,2970459.311315701
1174694,CVS 10702,10720 SW 72nd St,,Miami,FL,33173,2702,MIAMI DADE,Other,25.700962,-80.367477,,,-8946466.615980126,2962090.6997489585
1174695,CVS 10703,3141 W 76th St,Ste 5,Hialeah,FL,33018,3885,MIAMI DADE,Other,25.891527,-80.346687,,,-8944152.283766534,2985652.2889032667
1174698,CVS 10705,15000 SW 72nd St,,Miami,FL,33193,2301,MIAMI DADE,Other,25.699163,-80.435974,,,-8954091.667140992,2961868.4503026344
1174700,CVS 10706,14665 SW 104th St,,Miami,FL,33186,2976,MIAMI DADE,Other,25.670416,-80.431641,,,-8953609.319787385,2958317.4855310717
1174701,CVS 10707,14491 SW 42nd St,,Miami,FL,33175,7818,MIAMI DADE,Other,25.728828,-80.428673,,,-8953278.92353871,2965533.7097926144
1174706,CVS 10712,775 W 49th St,Ste 1,Hialeah,FL,33012,3645,MIAMI DADE,Other,25.866749,-80.297699,,,-8938698.964551551,2982586.574795835
1174708,CVS 10713,11402 NW 41st St,Ste 127,Doral,FL,33178,4862,MIAMI DADE,Other,25.811514,-80.382713,,,-8948162.679741852,2975754.8116425476
1174712,CVS 10715,11865 SW 26th St,,Miami,FL,33175,    ,MIAMI DADE,Other,25.746298,-80.388191,,,-8948772.487912418,2967692.643696303
1174714,CVS 10716,2399 W 52nd St,,Hialeah,FL,33016,7213,MIAMI DADE,Other,25.869858,-80.329269,,,-8942213.320875896,2982971.207572527
1174715,CVS 10717,1601 W Flagler St,,Miami,FL,33135,2140,MIAMI DADE,Other,25.773298,-80.222153,,,-8930289.222300084,2971029.914873164
1174720,CVS 10719,3915 Palm Ave,,Hialeah,FL,33012,4447,MIAMI DADE,Other,25.857821,-80.282692,,,-8937028.392953217,2981482.095363669
1174721,CVS 10720,13796 SW 152nd St,,Miami,FL,33177,1163,MIAMI DADE,Other,25.626143,-80.416351,,,-8951907.244773157,2952850.3504077215
1174723,CVS 10721,9686 SW 24th St,,Miami,FL,33165,8098,MIAMI DADE,Other,25.747164,-80.351173,,,-8944651.663002232,2967799.671801888
1174726,CVS 10722,366 E 4th Ave,,Hialeah,FL,33010,4998,MIAMI DADE,Other,25.825237,-80.273453,,,-8935999.912177779,2977451.848719068
1174731,CVS 10724,2614 NE 10th Ct,,Homestead,FL,33033,4712,MIAMI DADE,Other,25.479263,-80.440178,,,-8954559.654280286,2934727.080085815
1174733,CVS 10725,14055 SW 88th St,,Miami,FL,33186,4002,MIAMI DADE,Other,25.685308,-80.420784,,,-8952400.72407584,2960156.9085092163
1174736,CVS 10726,3105 NW 7th St,,Miami,FL,33125,4201,MIAMI DADE,Other,25.779299,-80.246498,,,-8932999.295303445,2971771.7574076825
1175520,Dollar General 15337,685 E 9th St,,Hialeah,FL,33010,4523,MIAMI DADE,Other,25.830505,-80.267715,,,-8935361.160939606,2978103.36138354
1175525,Dollar General 15588,27036 S Dixie Hwy,,Homestead,FL,33032,7315,MIAMI DADE,Other,25.515095,-80.431068,,,-8953545.53371916,2939146.2817844516
1176159,CVS 10111,5748 Bird Rd,,Miami,FL,33155,5302,MIAMI DADE,Other,25.733883,-80.287773,,,-8937594.00728594,2966158.371551482
1179409,Publix 1467,9951 W Flagler St,,Miami,FL,33174,    ,MIAMI DADE,Supermarket,25.768951,-80.357788,,,-8945388.041433828,2970492.562950427
1180650,Walmart Supercenter 4303,3200 NW 79TH ST,,Miami,FL,33147,    ,MIAMI DADE,Super Store,25.845633,-80.250954,,,-8933495.33495442,2979974.457236859
1181312,Whole Foods Market 10191,299 SE 3rd St,,Miami,FL,33139,    ,MIAMI DADE,Super Store,25.771851,-80.188965,,,-8926594.751039637,2970851.04260893
1183636,Rubys Store,11191 SW 176th St,,Miami,FL,33157,5019,MIAMI DADE,Convenience Store,25.605408,-80.372681,,,-8947045.922610214,2950290.5466583306
1184334,Dollar Tree 5773,7060 SW 24th St,,Miami,FL,33155,1603,MIAMI DADE,Other,25.747938,-80.308975,,,-8939954.203129739,2967895.3303763764
1184656,CVS Pharmacy 2379,12180 SW 8th St,,Miami,FL,33184,1635,MIAMI DADE,Other,25.760862,-80.392075,,,-8949204.85281466,2969492.698216011
1185835,Citgo 171,3080 Nw 54th St,,Miami,FL,33142,2859,MIAMI DADE,Convenience Store,25.823713,-80.246521,,,-8933001.855651734,2977263.3755190307
1189143,Publix Super Markets 1429,9420 SW 56th St,,Miami,FL,33165,6422,MIAMI DADE,Supermarket,25.716143,-80.347984,,,-8944296.665146092,2963966.302596765
1192129,Salus Pharmacy 1,4677 W Flagler St,,Coral Gables,FL,33134,1512,MIAMI DADE,Convenience Store,25.771505,-80.271469,,,-8935779.054308046,2970808.271817036
1195823,Aldi 14,16500 SW 88th St,,West Kendall,FL,33196,4943,MIAMI DADE,Supermarket,25.684713,-80.438034,,,-8954320.985292027,2960083.411172932
1195931,Stop & Shop Super Meat Market,139 N Redland Rd,Ste 1,Homestead,FL,33034,3105,MIAMI DADE,Grocery Store,25.447899,-80.493362,,,-8960480.070078637,2930860.0027840636
1196290,Frank's Fresh Fruits Mini Market,5291 SW 127th Ave,,Miami,FL,33175,5538,MIAMI DADE,Other,25.717525,-80.398552,,,-8949925.869156526,2964137.059697353
1198607,Tropical Supermarket No 3 Inc,28945 S Dixie Hwy,,Homestead,FL,33033,2407,MIAMI DADE,Super Store,25.49811,-80.447372,,,-8955360.486697054,2937051.3379194
1199087,Downstairs,5687 NW 36th St,,Miami Springs,FL,33166,5854,MIAMI DADE,Convenience Store,25.807928,-80.288757,,,-8937703.545664879,2975311.3859845437
1199383,Bora Bora Market,3296 Palm Ave,,Hialeah,FL,33012,5428,MIAMI DADE,Convenience Store,25.851929,-80.282524,,,-8937009.691278765,2980753.244007863
1199433,Pronto Latino Market,76 W 29th St,,Hialeah,FL,33012,5702,MIAMI DADE,Grocery Store,25.848242,-80.283813,,,-8937153.182102397,2980297.1737256674
1203858,El Pinolero Market,11347 W Flagler St,,Miami,FL,33174,1196,MIAMI DADE,Convenience Store,25.768379,-80.380402,,,-8947905.420398628,2970421.8569623786
1205365,7-Eleven Store 37121A,735 NW 12th Ave,,Miami,FL,33136,3611,MIAMI DADE,Convenience Store,25.780611,-80.214798,,,-8929470.467445299,2971933.951609133
1207104,Family Dollar 10782,601 SW 14th St,,Homestead,FL,33034,4660,MIAMI DADE,Other,25.434326,-80.485703,,,-8959627.47409865,2929186.809194558
1208082,Suyapa Market,3208 Nw 17th Ave,,Miami,FL,33142,6163,MIAMI DADE,Convenience Store,25.806082,-80.223763,,,-8930468.44668026,2975083.124690649
1208472,Century Supermarket 1,3395 Nw 32nd Ave,,Miami,FL,33142,5728,MIAMI DADE,Grocery Store,25.806841,-80.248276,,,-8933197.221358078,2975176.9760055766
1210274,Reyes Juice & Fruits Inc,18636 Sw 137th Avenue,,Miami,FL,33177,    ,MIAMI DADE,Specialty Store,25.593199,-80.413406,,,-8951579.408872768,2948783.5132442345
1211674,Aldi 18,15033 S Dixie Hwy,,Palmetto Bay,FL,33176,7930,MIAMI DADE,Supermarket,25.630262,-80.340309,,,-8943442.288054254,2953358.9073590413
1212171,7 Eleven 34984B,15199 S Dixie Hwy,,Miami,FL,33176,7931,MIAMI DADE,Convenience Store,25.629417,-80.340706,,,-8943486.481892098,2953254.5770570287
1212938,J Mary J Food Corp/Price Choice Foodmarket 6,1900 W 60th St,,Hialeah,FL,33012,7598,MIAMI DADE,Super Store,25.876993,-80.321594,,,-8941358.943784058,2983853.958888026
1223891,Dollar General 15499,22500 SW 112th Ave,,Miami,FL,33170,    ,MIAMI DADE,Other,25.558844,-80.372177,,,-8946989.817586854,2944543.6851978996
1224176,Publix 1492,7550 NW 104th Ave,,Doral,FL,33178,    ,MIAMI DADE,Supermarket,25.842672,-80.366501,,,-8946357.96815711,2979608.2092397315
1226107,7-Eleven 37089A,12720 Sw 200th St,,Miami,FL,33177,4818,MIAMI DADE,Convenience Store,25.580814,-80.397408,,,-8949798.51965906,2947254.912192797
1231181,Zamo Habana 2,2560 NW 7th St,,Miami,FL,33125,3151,MIAMI DADE,Grocery Store,25.779493,-80.238258,,,-8932082.02269931,2971795.740278728
1231324,Redland Chevron,1360 W Mowry Dr,,Homestead,FL,33030,5633,MIAMI DADE,Convenience Store,25.46969,-80.495331,,,-8960699.258156007,2933546.6540031377
1231665,Dinaj Quik Mart 5,777 S Homestead Blvd,,Homestead,FL,33030,7351,MIAMI DADE,Convenience Store,25.462818,-80.475082,,,-8958445.149786936,2932699.3403577125
1238614,Family Dollar 3080,30378 S Dixie Hwy,,Homestead,FL,33033,3217,MIAMI DADE,Other,25.484802,-80.46096,,,-8956873.095937952,2935410.125207925
1238616,Family Dollar 3829,901 E 10th Ave,Ste 23,Hialeah,FL,33010,3767,MIAMI DADE,Other,25.832413,-80.261497,,,-8934668.976345856,2978339.337815836
1241233,El Reino De Las Frutas,10110 W Flagler St,,Miami,FL,33174,1897,MIAMI DADE,Grocery Store,25.768646,-80.360374,,,-8945675.91363702,2970454.861288519
1241660,El Guajiro Grocery & Meat Market 1,3553 W 76th St,Unit 11,Hialeah,FL,33018,1709,MIAMI DADE,Grocery Store,25.891508,-80.355453,,,-8945128.110422827,2985649.937838822
1241761,Sol Dollar And Marine Discount Inc.,330 W 9th St,Ste 7,Hialeah,FL,33010,3865,MIAMI DADE,Convenience Store,25.829674,-80.288177,,,-8937638.98036022,2978000.586673754
1241990,7-eleven 37548A,20361 Old Cutler Rd,,Cutler Bay,FL,33189,1831,MIAMI DADE,Convenience Store,25.578144,-80.336906,,,-8943063.467827084,2946925.391959516
1242138,Dollar Tree 6228,3368 Palm Ave,,Hialeah,FL,33012,5241,MIAMI DADE,Other,25.85277,-80.282555,,,-8937013.14218298,2980857.275049541
1242172,Marathon,2445 W Flagler St,,Miami,FL,33135,1421,MIAMI DADE,Convenience Store,25.772673,-80.235542,,,-8931779.678962315,2970952.6546434844
1243102,Dollr Tree 5752,1043 W Flagler St,,Miami,FL,33130,1031,MIAMI DADE,Other,25.773619,-80.212212,,,-8929182.595242107,2971069.5958852987
1243255,Publix 1494,1500 SW 57th Ave,,West Miami,FL,33144,5722,MIAMI DADE,Supermarket,25.757267,-80.287666,,,-8937582.096100423,2969048.349489855
1244981,Meat Giant Corporation,27455 S Dixie Hwy,,Homestead,FL,33032,8231,MIAMI DADE,Grocery Store,25.512291,-80.433479,,,-8953813.925011463,2938800.413696556
1245982,Family Dollar 10795,20090 SW 127th Ave,,Miami,FL,33177,    ,MIAMI DADE,Other,25.579897,-80.397018,,,-8949755.10505765,2947141.739059219
1246983,B&b Agriculture And Nursery Corp,12690 Sw 43rd St,,Miami,FL,33175,4218,MIAMI DADE,Specialty Store,25.728184,-80.398949,,,-8949970.062994372,2965454.130656876
1247770,Spice N Curry,123 Sw 107th Ave,,Miami,FL,33174,1417,MIAMI DADE,Grocery Store,25.767534,-80.368828,,,-8946617.008612188,2970317.4055580883
1248264,Mobil,1205 W 49th St,,Hialeah,FL,33012,3220,MIAMI DADE,Convenience Store,25.867031,-80.307281,,,-8939765.627912333,2982621.4622662575
1249198,Family Dollar 11560,90 E 5th Ave,,Hialeah,FL,33010,5043,MIAMI DADE,Other,25.825428,-80.271477,,,-8935779.944863971,2977475.469875198
1251914,Mercadito Catracho,765 W Flagler St,,Miami,FL,33130,1219,MIAMI DADE,Convenience Store,25.773758,-80.20726,,,-8928631.3411237,2971086.7786621773
1252270,Beez Kwik Stop Corp.,20090 SW 177th Ave,,Miami,FL,33187,3499,MIAMI DADE,Convenience Store,25.57892,-80.478958,,,-8958876.624133252,2947021.1618763516
1253312,Farm Stores 104,15000 SW 56th St,,Miami,FL,33185,4159,MIAMI DADE,Convenience Store,25.713684,-80.437134,,,-8954220.797750313,2963662.4784780303
1253357,Farm Stores 2406,12075 S Dixie Hwy,,Miami,FL,33156,5234,MIAMI DADE,Convenience Store,25.658348,-80.327263,,,-8941990.013977366,2956827.044596387
1253358,Farm Stores 106,20191 Old Cutler Rd,,Cutler Bay,FL,33189,1922,MIAMI DADE,Convenience Store,25.579218,-80.334,,,-8942739.973386839,2947057.9396640486
1253370,Farm Stores 1202,960 Sw 87th Ave,,Miami,FL,33174,3254,MIAMI DADE,Convenience Store,25.76042,-80.336182,,,-8942982.87251575,2969438.065463668
1254562,Fresh Florida Fisheries,2238 SW 57th Ave,,Miami,FL,33155,2235,MIAMI DADE,Other,25.749607,-80.287682,,,-8937583.877212277,2968101.6040229537
1254628,Dollar Tree 6478,13911 S Dixie Hwy,,Miami,FL,33176,7234,MIAMI DADE,Other,25.640549,-80.335556,,,-8942913.186514514,2954629.07995823
1256502,CVS 10464,3750 NW 87th Ave,Ste B,Doral,FL,33178,    ,MIAMI DADE,Other,25.80942,-80.337494,,,-8943128.92368767,2975495.8771264507
1258589,The Garden's Market,10900 Sw 196 St,,Cutler Bay,FL,33157,    ,MIAMI DADE,Convenience Store,25.584757,-80.368195,,,-8946546.543374514,2947741.5542060304
1260147,Flowers Bakery Outlet 67,10745 Quail Roost Dr,,Cutler Bay,FL,33157,6738,MIAMI DADE,Specialty Store,25.595892,-80.365555,,,-8946252.659918822,2949115.913893268
1260301,Tuty Supermarket Dollar Plus,2150 W 76th St,,Hialeah,FL,33016,1882,MIAMI DADE,Convenience Store,25.891483,-80.327065,,,-8941967.972718189,2985646.844333548
1261582,El Curro Viandero,7379 NW 31st St,,Miami,FL,33122,1240,MIAMI DADE,Specialty Store,25.803246,-80.316521,,,-8940794.220007263,2974732.455004756
1261678,VSMD Food Corporation/ Price Choice Food Market,1490 NW 3rd Ave,,Miami,FL,33136,1838,MIAMI DADE,Supermarket,25.78931,-80.200012,,,-8927824.49745443,2973009.3989431774
1264887,Family Dollar 11536,24785 SW 112th Ave,safasfdasf,Princeton,FL,33032,7100,MIAMI DADE,Other,25.537317,-80.372002,,,-8946970.336675964,2941887.6092100674
1265532,7-eleven 35002C,133 NE 2nd Ave,,Miami,FL,33132,2904,MIAMI DADE,Convenience Store,25.775761,-80.190285,,,-8926741.692767484,2971334.3859480377
1266289,Family Dollar 11529,1808 NW 17th St,,Miami,FL,33125,1402,MIAMI DADE,Other,25.790966,-80.225456,,,-8930656.910578173,2973214.1372509953
1267743,ALDI 77015,12010 SW 8th St,,Miami,FL,33184,1634,MIAMI DADE,Supermarket,25.760864,-80.390739,,,-8949056.129974958,2969492.945423497
1268749,7-Eleven 37613H,25 S Homestead Blvd,,Homestead,FL,33030,7421,MIAMI DADE,Convenience Store,25.469257,-80.471909,,,-8958091.93304265,2933493.2639235
1270507,Exprezo,1781 NE 8th St,,Homestead,FL,33033,4603,MIAMI DADE,Convenience Store,25.477667,-80.453186,,,-8956007.698216526,2934530.2742241467
1271688,Family Dollar 11366,4635 NW 27th Ave,,Miami,FL,33142,3509,MIAMI DADE,Other,25.816872,-80.24041,,,-8932321.582243497,2976417.3783940226
1274168,Miami Springs Sunoco,325 N Royal Poinciana Blvd,,Miami Springs,FL,33166,4428,MIAMI DADE,Convenience Store,25.824883,-80.2855,,,-8937340.978083365,2977408.069294864
1274252,Four Star Poultry & Provision,2180 Nw 13th Ave,,Miami,FL,33142,7790,MIAMI DADE,Specialty Store,25.79727,-80.217293,,,-8929748.209574828,2973993.553688159
1274549,CVS Pharmacy 10699,8740 Bird Rd,,Miami,FL,33165,5470,MIAMI DADE,Other,25.732967,-80.336929,,,-8943066.028175373,2966045.176668824
1274556,CVS Pharmacy 3443,5695 SW 8th St,,Miami,FL,33144,    ,MIAMI DADE,Other,25.763615,-80.287941,,,-8937612.708960392,2969832.9832634605
1276099,Downstairs,10 SW 14th Ave,,Homestead,FL,33030,6836,MIAMI DADE,Convenience Store,25.46921,-80.493629,,,-8960509.792382678,2933487.468707019
1276582,Dollar Tree 7163,26600 S Dixie Hwy,,Naranja,FL,33032,    ,MIAMI DADE,Other,25.519875,-80.426369,,,-8953022.443431921,2939735.904354747
1277208,Premium Market,2331 SW 32nd Ave,,Miami,FL,33145,3141,MIAMI DADE,Grocery Store,25.747831,-80.2463,,,-8932977.25404427,2967882.1062210747
1278449,Costco 1229,7795 W Flagler St,,Miami,FL,33144,    ,MIAMI DADE,Super Store,25.769915,-80.323845,,,-8941609.523957834,2970611.725561512
1278708,El Ranchito Minimarket,10150 W Flagler St,,Miami,FL,33174,1830,MIAMI DADE,Convenience Store,25.768139,-80.359215,,,-8945546.89434719,2970392.1902157273
1281416,Sabor Tropical Supermarket,1410 N Krome Ave,,Homestead,FL,33030,4209,MIAMI DADE,Super Store,25.48381,-80.477524,,,-8958716.991983453,2935287.793816814
1281598,Rivera Supermarket,1598 Palm Ave,,Hialeah,FL,33010,3032,MIAMI DADE,Grocery Store,25.836109,-80.281876,,,-8936937.55624873,2978796.4602180677
1282770,Little Havana Market,1470 SW 6th St,,Miami,FL,33135,3809,MIAMI DADE,Convenience Store,25.767427,-80.219292,,,-8929970.737236924,2970304.179220291
1283721,The Fresh Market 221,3580 NW 83rd Ave,,Doral,FL,33122,1134,MIAMI DADE,Supermarket,25.799572,-80.33223,,,-8942542.937888134,2974278.1796030514
1285170,CVS Pharmacy 10644,9701 Sunset Dr,,Miami,FL,33173,4615,MIAMI DADE,Other,25.701715,-80.350243,,,-8944548.135875795,2962183.7267788867
1287481,South Miami,6130 SW 72nd St,,South Miami,FL,33143,5093,MIAMI DADE,Farmers and Markets,25.704142,-80.29232,,,-8938100.177010575,2962483.5669081453
1289039,I & J Supermarket,2300 Nw 28th St,,Miami,FL,33142,6543,MIAMI DADE,Grocery Store,25.801823,-80.234062,,,-8931614.92611594,2974556.505076701
1289650,DOLLARTREE 2116,32957 S Dixie Hwy,,Homestead,FL,33034,5641,MIAMI DADE,Other,25.461193,-80.475105,,,-8958447.710135223,2932498.985867829
1290383,Dollar Tree 5960,7801 NW 95th St,Ste 1,Hialeah Gardens,FL,33016,    ,MIAMI DADE,Other,25.859795,-80.324348,,,-8941665.517661704,2981726.290957764
1292412,Stop N Shop 122,12210 SW 8th St,,Miami,FL,33184,1552,MIAMI DADE,Convenience Store,25.760857,-80.394379,,,-8949461.332921445,2969492.0801973124
1293597,Agabe Foods,19772 SW 177th Ave,,Miami,FL,33187,2633,MIAMI DADE,Other,25.581491,-80.478432,,,-8958818.070081092,2947338.4658696004
1298829,DOLLAR GENERAL 19066,3105 NW 62nd St,,Miami,FL,33147,7635,MIAMI DADE,Other,25.831102,-80.247581,,,-8933119.854311975,2978177.196367739
1298832,DOLLAR GENERAL 19071,16403 SW 312th St,,Homestead,FL,33033,    ,MIAMI DADE,Other,25.477442,-80.456894,,,-8956420.470888387,2934502.529246976
1301062,New Way Food Center,78 NW 8th St,,Homestead,FL,33030,4405,MIAMI DADE,Convenience Store,25.477097,-80.479019,,,-8958883.414622188,2934459.987049478
1302625,Guerrero Market 1,240 SW 8th Ave,,Miami,FL,33130,1218,MIAMI DADE,Grocery Store,25.771013,-80.207901,,,-8928702.6969173,2970747.4534490746
1303620,Miami Food Store,1801 NW 17th Ave,,Miami,FL,33125,2330,MIAMI DADE,Convenience Store,25.792246,-80.22316,,,-8930401.321027312,2973372.3910424244
1303937,CVS Pharmacy CVS03121,10660 SW 40th St,,Miami,FL,33165,3613,MIAMI DADE,Other,25.732235,-80.367203,,,-8946436.11443965,2965954.7202498675
1304535,Oriental Mart,15355 S Dixie Hwy,,Miami,FL,33157,1827,MIAMI DADE,Other,25.627703,-80.341507,,,-8943575.648804225,2953042.9554926953
1305793,Hialeah Market & Cafe,240 E 1st Ave,,Hialeah,FL,33010,4963,MIAMI DADE,Convenience Store,25.824059,-80.279427,,,-8936664.934815777,2977306.165153407
1306348,Sunoco  Homestead,26400 Sw 177th Ave,,Homestead,FL,33031,2256,MIAMI DADE,Convenience Store,25.520716,-80.477921,,,-8958761.185821297,2939839.6458177688
1306625,Kwik Stop,6201 NW 24th Ave,,Miami,FL,33147,7717,MIAMI DADE,Convenience Store,25.831621,-80.236809,,,-8931920.72075715,2978241.3848726978
1307507,7-eleven 37572A,13795 SW 88th St,,Miami,FL,33186,1312,MIAMI DADE,Convenience Store,25.685455,-80.417732,,,-8952060.976989942,2960175.0667312006
1308459,Whole Foods Market 10682,7930 SW 104th St,,Miami,FL,33156,3632,MIAMI DADE,Super Store,25.673769,-80.323479,,,-8941568.781024203,2958731.6197419767
1310108,Publix 1571,8455 NW 53rd Ter,,Miami,FL,33166,4517,MIAMI DADE,Supermarket,25.821602,-80.335022,,,-8942853.74190643,2977002.3119903137
1312008,Farm Store,1800 SW 3rd Ave,,Miami,FL,33129,1417,MIAMI DADE,Convenience Store,25.760748,-80.201035,,,-8927938.377293512,2969478.607396169
1312242,747 Supermarket,4675 NW 7th St,,Miami,FL,33126,2308,MIAMI DADE,Grocery Store,25.779106,-80.271545,,,-8935787.514589345,2971747.8981986023
1312392,Palm Dr Grocery Store,333 W Palm Dr,,Homestead,FL,33034,3343,MIAMI DADE,Convenience Store,25.447676,-80.481194,,,-8959125.534514666,2930832.5112308543
1312540,Usa Grocery Store Llc,17585 Homestead Ave,,Miami,FL,33157,5337,MIAMI DADE,Convenience Store,25.605402,-80.353516,,,-8944912.48456916,2950289.8060029238
1313598,7 Eleven Store 37565A,3199 NW 62nd St,,Miami,FL,33147,7635,MIAMI DADE,Convenience Store,25.83135,-80.248489,,,-8933220.932409616,2978207.868296459
1314350,Racetrac Petroleum Inc. 2453,11201 SW 216th St,,Miami,FL,33170,2963,MIAMI DADE,Convenience Store,25.566376,-80.372902,,,-8947070.524217678,2945473.1221900447
1315765,Dollar Tree 6431,3631 W Flagler St,,Miami,FL,33135,1029,MIAMI DADE,Other,25.771902,-80.254028,,,-8933837.53106912,2970857.3469847552
1316265,Walmart Neighborhood Market 3935,14325 SW 268th,,Naranja,FL,33032,    ,MIAMI DADE,Super Store,25.518042,-80.42289,,,-8952635.162923453,2939509.797359066
1318489,Walgreens 15994,801 SW 8th St,,Miami,FL,33130,3703,MIAMI DADE,Other,25.766024,-80.207603,,,-8928669.523709042,2970130.7546044495
1319759,Los Laureles Supermarket,1910 SW 1st St,,Miami,FL,33135,1640,MIAMI DADE,Convenience Store,25.771519,-80.227066,,,-8930836.134958351,2970810.002424692
1321023,South Miami Market,5940 SW 68th St,,South Miami,FL,33143,3524,MIAMI DADE,Convenience Store,25.707848,-80.290321,,,-8937877.64934848,2962941.4309985465
1322985,7 Eleven 37750J,13695 SW 288th St,,Homestead,FL,33033,1900,MIAMI DADE,Convenience Store,25.499697,-80.411995,,,-8951422.337071262,2937247.0672564427
1323732,Festival Food Supermarket Inc,14870 N Kendall Dr,,Miami,FL,33196,1482,MIAMI DADE,Super Store,25.684717,-80.432877,,,-8953746.910678007,2960083.9052714477
1329710,Tropical Supermarket Corp. 19,500 SW 8th St,,Miami,FL,33130,3414,MIAMI DADE,Supermarket,25.766052,-80.202484,,,-8928099.67923567,2970134.2156601273
1330448,Farm Stores 1204,9451 SW 56th St,,Miami,FL,33165,6421,MIAMI DADE,Convenience Store,25.716311,-80.347412,,,-8944232.99039736,2963987.060228114
1331989,Presidente Supermarket 44,240 NE 8th St,,Homestead,FL,33030,4710,MIAMI DADE,Supermarket,25.477083,-80.472534,,,-8958161.507724395,2934458.2607020126
1332335,Minimercado Y Dollar Store Corp.,955 SW 27th Ave,,Miami,FL,33135,4603,MIAMI DADE,Convenience Store,25.763851,-80.238693,,,-8932130.446677804,2969862.15445204
1338164,La Ranchera Meat Market #4. 4,29351 SW 152nd Ave,,Homestead,FL,33033,2848,MIAMI DADE,Grocery Store,25.494417,-80.436714,,,-8954174.043564178,2936595.8794708685
1341748,Milam's Markets 7,11701 S Dixie Hwy,,Miami,FL,33156,4438,MIAMI DADE,Super Store,25.662661,-80.325256,,,-8941766.595759341,2957359.698119988
1341836,Dollar Tree 7689,3301 Coral Way,Unit 103,Miami,FL,33145,2261,MIAMI DADE,Other,25.750137,-80.249054,,,-8933283.827921914,2968167.1079442105
1342254,Farm Stores 0111 111,7601 W 32nd Ave,,Hialeah,FL,33018,5213,MIAMI DADE,Other,25.892302,-80.347649,,,-8944259.373116678,2985748.1879071402
1342374,Miami Meat & Produce Wholesale,4840 NW 27th Ave,,Miami,FL,33142,3531,MIAMI DADE,Grocery Store,25.819136,-80.24073,,,-8932357.20448055,2976697.3521516253
1342894,Meat Supermarket & More,9160 NW 122nd St,,Hialeah,FL,33018,1730,MIAMI DADE,Grocery Store,25.884075,-80.346733,,,-8944157.404463109,2984730.205708483
1344161,CVS Pharmacy 932,12701 SW 42nd St,,Miami,FL,33175,3423,MIAMI DADE,Other,25.729757,-80.399689,,,-8950052.439417558,2965648.5071623917
1346657,ALDI 77098,13801 SW 120th St,,Miami,FL,33186,6444,MIAMI DADE,Supermarket,25.656273,-80.418015,,,-8952092.480405835,2956570.789909753
1350950,Family Dollar 12252,1055 W Flagler St,,Miami,FL,33130,1031,MIAMI DADE,Other,25.7736,-80.212669,,,-8929233.468249401,2971067.247161966
1351391,Race Trac #2520 2520,3310 NE 8th St,,Homestead,FL,33033,5696,MIAMI DADE,Convenience Store,25.477619,-80.427673,,,-8953167.604047917,2934524.355291328
1353294,Wild Fork Foods 9013,1180 S Dixie Hwy,,Coral Gables,FL,33146,2918,MIAMI DADE,Specialty Store,25.715302,-80.275726,,,-8936252.941380352,2963862.3913233415
1353918,Walmart Neighborhood Market 5719,14720 SW 26th St,,Miami,FL,33185,5830,MIAMI DADE,Super Store,25.742865,-80.432602,,,-8953716.297818039,2967268.3702100264
1356127,109 Fish Market,10910 W Flagler St,Ste 105,Miami,FL,33174,1218,MIAMI DADE,Grocery Store,25.76832,-80.373726,,,-8947162.251478093,2970414.563881598
1356892,7-eleven 38257A,13698 SW 152nd St,,Miami,FL,33177,1113,MIAMI DADE,Convenience Store,25.626177,-80.41423,,,-8951671.136133185,2952854.5481840405
1356949,Meat Club Market Llc,5900 NW 97th Ave,Unit 26,Doral,FL,33178,1643,MIAMI DADE,Super Store,25.827572,-80.354004,,,-8944966.808480669,2977740.6230594437
1360256,9th Avenue Food Mart,906 Nw 4 St.,Ste 2,Homestead,FL,33030,    ,MIAMI DADE,Convenience Store,25.473381,-80.488754,,,-8959967.109865062,2934001.7721607983
1361866,WAWA Store 5243,1001 SW 184 St.,,Cutler Bay,FL,33157,    ,MIAMI DADE,Convenience Store,25.598927,-80.341812,,,-8943609.601248916,2949490.537037265
1361869,WAWA Store 5245,11990 SW 137th Ter,,Miami,FL,33186,6042,MIAMI DADE,Convenience Store,25.640104,-80.388039,,,-8948755.567349818,2954574.131955429
1365004,South Dade Fish Market,22157 S Dixie Hwy,,Miami,FL,33170,2840,MIAMI DADE,Specialty Store,25.559412,-80.388184,,,-8948771.70867598,2944613.7734701466
1366097,J & A Foods Llc/Bravo Supermarket N/A,12630 Sw 8th St,,Miami,FL,33184,1424,MIAMI DADE,Supermarket,25.760799,-80.400032,,,-8950090.6220029,2969484.9111823207
1367381,Franjo Market,18450 Sw 97th Ave,,Cutler Bay,FL,33157,7023,MIAMI DADE,Convenience Store,25.598213,-80.348145,,,-8944314.58758411,2949402.4040816547
1367646,Marchantes Dollar Store,2401 W 72nd St,Suites 2 & 3,Hialeah,FL,33016,1702,MIAMI DADE,Convenience Store,25.888134,-80.33223,,,-8942542.937888134,2985232.4442893863
1367668,Kwik Stop 2008 Stop & Shop,805 NE 2nd Ave,2,Homestead,FL,33030,4301,MIAMI DADE,Convenience Store,25.477444,-80.473122,,,-8958226.963584982,2934502.775868766
1368410,Farmstores 1203,99 N Royal Poinciana Blvd,,Miami Springs,FL,33166,4423,MIAMI DADE,Convenience Store,25.822292,-80.282516,,,-8937008.80072284,2977087.642522712
1370720,Dollar Tree 7864,120 NE 8th St,,Homestead,FL,33030,4608,MIAMI DADE,Other,25.477089,-80.4748,,,-8958413.757690532,2934459.0005651866
1371750,Dollar Tree 7861,9825 E Hibiscus St,,Palmetto Bay,FL,33157,5406,MIAMI DADE,Other,25.604025,-80.35051,,,-8944577.858179836,2950119.8265699926
1373880,786 Grocery Store,11510 SW 147th Ave,Unit 7,Miami,FL,33196,2457,MIAMI DADE,Grocery Store,25.660027,-80.432297,,,-8953682.345373346,2957034.398037209
1374470,La Barata Supermarket,5961 W 16th Ave,,Hialeah,FL,33012,6813,MIAMI DADE,Grocery Store,25.876711,-80.314705,,,-8940592.063811984,2983819.0684757303
1376261,Mr. Mart Chevron 1,14801 Bethune Dr.,,Miami,FL,33176,    ,MIAMI DADE,Convenience Store,25.630735,-80.380524,,,-8947919.001376504,2953417.3079568665
1377951,Bangladesh Food Market N/A,744 SW 8th Ave,,Homestead,FL,33030,6952,MIAMI DADE,Convenience Store,25.462475,-80.487602,,,-8959838.869811667,2932657.049923179
1378309,Flagler Food Corp./ Food Star.,10751 W Flagler St,,Miami,FL,33174,1421,MIAMI DADE,Super Store,25.76861,-80.370201,,,-8946769.850273045,2970450.411262687
1378463,Presidente Supermarket 30,3322 NE 7th St,,Homestead,FL,33033,6066,MIAMI DADE,Supermarket,25.476782,-80.427078,,,-8953101.368950894,2934421.1442801002
1378971,CVS Pharmacy 11087,802 E 25th St,,Hialeah,FL,33013,3402,MIAMI DADE,Other,25.845135,-80.265877,,,-8935156.55571553,2979912.858654804
1380347,Kwick Stop,764 NW 29th St,,Miami,FL,33127,3804,MIAMI DADE,Grocery Store,25.803467,-80.208748,,,-8928796.984525999,2974759.7812196664
1381500,Sedano's 43,1170 W 49th St,,Hialeah,FL,33012,3323,MIAMI DADE,Supermarket,25.866489,-80.306534,,,-8939682.472252712,2982554.4091167296
1382029,Mas Por Menos Supermarket And Cafeteria,15260 SW 280th St,Ste 108,Homestead,FL,33032,8186,MIAMI DADE,Grocery Store,25.506107,-80.437996,,,-8954316.755151376,2938037.6575627066
1384699,ALDI 83,5875 NW 105th Ct,Ste 100,Doral,FL,33178,6689,MIAMI DADE,Supermarket,25.828182,-80.367928,,,-8946516.821070476,2977816.063975402
1385416,Bravo Supermarket,32955 S Dixie Hwy,,Homestead,FL,33034,5641,MIAMI DADE,Super Store,25.461477,-80.473564,,,-8958276.166799912,2932534.0014727926
1385474,Wild Fork Foods 9015,11333 S Dixie Hwy,,Pinecrest,FL,33156,4442,MIAMI DADE,Specialty Store,25.665302,-80.323997,,,-8941626.444520434,2957685.869919599
1386552,Fuel Life 2,4770 NW 17th Ave,,Miami,FL,33142,4180,MIAMI DADE,Convenience Store,25.819065,-80.224594,,,-8930560.95317711,2976688.571974576
1388112,Lima's Store ,13378 SW 288th St,,Homestead,FL,33033,1927,MIAMI DADE,Grocery Store,25.499178,-80.406837,,,-8950848.151137749,2937183.0571887116
1389460,Wild Fork Foods 9018,15703 SW 88th St,,Miami,FL,33196,1001,MIAMI DADE,Specialty Store,25.684813,-80.446304,,,-8955241.597480888,2960095.763640761
1390051,CVS Pharmacy 03250,13675 SW 88th Street,,Miami,FL,33183,    ,MIAMI DADE,Other,25.685505,-80.416061,,,-8951874.962120825,2960181.243002286
1395486,Dollar Tree 8073,8651 SW 24th St,,Miami,FL,33155,2337,MIAMI DADE,Other,25.747816,-80.334473,,,-8942792.627505984,2967880.252368479
1396598,Wawa Store 5357,3300 NW 87th Ave,,Doral,FL,33172,1208,MIAMI DADE,Convenience Store,25.805855,-80.337387,,,-8943117.012502158,2975055.055968849
1396763,Flagler Fresh Market Llc,1863 W Flagler St,,Miami,FL,33135,1939,MIAMI DADE,Convenience Store,25.772919,-80.226151,,,-8930734.277624276,2970983.064221325
1397763,7-Eleven Store 37579H,10698 SW 24th St,,Miami,FL,33165,7917,MIAMI DADE,Convenience Store,25.746372,-80.3675,,,-8946469.176328415,2967701.7892545173
1398411,Target Store T3350,1906 Ponce de Leon Blvd,,Coral Gables,FL,33134,4413,MIAMI DADE,Super Store,25.754841,-80.259216,,,-8934415.056587355,2968748.49895292
1398521,Mini Market Latino Llc,305 SW 12th Ave,,Miami,FL,33130,2011,MIAMI DADE,Convenience Store,25.770473,-80.214493,,,-8929436.515000608,2970680.701872036
1398721,Havana Vape & Smoke,1961 W 60th St,,Hialeah,FL,33012,7504,MIAMI DADE,Convenience Store,25.877798,-80.322433,,,-8941452.340836834,2983953.557863693
1400563,7-Eleven Store 38187H,3298 NW 79th St,,Miami,FL,33147,4600,MIAMI DADE,Convenience Store,25.84557,-80.251915,,,-8933602.312985072,2979966.664630824
1402903,Ernesto's Seafood Inc,2800 NW 112th Ave,,Doral,FL,33172,1809,MIAMI DADE,Specialty Store,25.799543,-80.378136,,,-8947653.170432491,2974274.5939250863
1403538,Four Star Of Homestead Llc,719 SW 8th Ave,,Homestead,FL,33030,6951,MIAMI DADE,Convenience Store,25.462961,-80.487381,,,-8959814.268204203,2932716.9716823553
1404966,Don P Food Group 6906 Inc /Bravo Supermarket,11247 Sw 152nd St,,Miami,FL,33157,1101,MIAMI DADE,Supermarket,25.627779,-80.375641,,,-8947375.428302962,2953052.338881612
1406410,Dollar Tree 7603,1555 W 29th St,,Hialeah,FL,33012,5516,MIAMI DADE,Other,25.848064,-80.313286,,,-8940434.101454549,2980275.1560463416
1406608,Mas Barata Supermarket,4215 W 16th Ave,,Hialeah,FL,33012,7631,MIAMI DADE,Grocery Store,25.860006,-80.314133,,,-8940528.389063248,2981752.393159665
1411434,Dollar Tree 8466,24495 SW 112th Ave,,Homestead,FL,33032,4507,MIAMI DADE,Other,25.53957,-80.372002,,,-8946970.336675964,2942165.569824747
1413879,Tobacco 305,710 Palm Ave,,Hialeah,FL,33010,4318,MIAMI DADE,Convenience Store,25.828245,-80.281616,,,-8936908.613181124,2977823.8554364117
1415146,7-eleven #35022B,1099 SW 1st Ave,,Miami,FL,33130,4133,MIAMI DADE,Convenience Store,25.763689,-80.19503,,,-8927269.903751299,2969842.130155333
1416850,7-Eleven Store 38188H,4596 NW 22nd Ave,,Miami,FL,33142,4709,MIAMI DADE,Convenience Store,25.816587,-80.232697,,,-8931462.975011008,2976382.134726966
1417411,Riviera Supermarket,1710 NW 17th Ave,,Miami,FL,33125,2329,MIAMI DADE,Grocery Store,25.791309,-80.223419,,,-8930430.15277543,2973256.544154102
1417560,Murphy Express 8883,17700 S Dixie Hwy,,Miami,FL,33157,5494,MIAMI DADE,Convenience Store,25.605255,-80.351372,,,-8944673.815580899,2950271.659957046
1417661,Hanna & Tiger's Asian Mart,115 SW 107th Ave,,Miami,FL,33174,1400,MIAMI DADE,Convenience Store,25.767879,-80.36805,,,-8946530.40204835,2970360.0513078854
1419406,Publix Super Markets Inc 1561,1420 NW North River Dr,,Miami,FL,33125,2888,MIAMI DADE,Supermarket,25.78562,-80.219406,,,-8929983.427658875,2972553.1988668377
1421486,ALDI 77069,12955 N Kendall Dr,,Miami,FL,33186,1747,MIAMI DADE,Supermarket,25.685955,-80.402519,,,-8950367.473576503,2960236.829558728
1421808,Downstairs,10700 SW 186th St,,Cutler Bay,FL,33157,6708,MIAMI DADE,Convenience Store,25.595886,-80.365013,,,-8946192.32475481,2949115.1732967966
1421979,Downstairs,22295 S Dixie Hwy,,Miami,FL,33170,2810,MIAMI DADE,Convenience Store,25.560053,-80.387085,,,-8948649.3685556,2944692.869965217
1422905,Wild Fork Foods 9016,10015 NW 41st St,,Doral,FL,33178,2977,MIAMI DADE,Specialty Store,25.812164,-80.359207,,,-8945546.003791265,2975835.188617115
1423054,In-N-Out Market Place Inc,1395 SW 8th St,,Homestead,FL,33030,6826,MIAMI DADE,Convenience Store,25.462681,-80.493279,,,-8960470.830560902,2932682.4488285845
1423731,Dollar Queen Discount Stores Llc NONE,1037 W 29th St,,Hialeah,FL,33012,5061,MIAMI DADE,Convenience Store,25.848276,-80.303146,,,-8939305.321817903,2980301.379353579
1424173,Dollar Tree 8334,2905 NW 27th Ave,,Miami,FL,33142,6540,MIAMI DADE,Other,25.802773,-80.239799,,,-8932253.566034622,2974673.969657217
1425327,Aldi 77043,11300 SW 248th St,,Homestead,FL,33032,4807,MIAMI DADE,Supermarket,25.537046,-80.374702,,,-8947270.899301108,2941854.175329085
1425595,Gaby Grocery Discount,1090 E 17th St,,Hialeah,FL,33010,3318,MIAMI DADE,Convenience Store,25.83798,-80.260231,,,-8934528.04587051,2979027.8715094067
1425800,On The Run 80276,8800 Coral Way,,Miami,FL,33165,2008,MIAMI DADE,Convenience Store,25.747459,-80.337967,,,-8943181.577806816,2967836.130745795
1426604,Indian Prem,255 E Flagler St,Ste 71- 72,Miami,FL,33131,1312,MIAMI DADE,Grocery Store,25.774437,-80.188896,,,-8926587.069994772,2971170.7149622766
1427523,L & A Market,10115 W Okeechobee Rd,,Hialeah,FL,33016,2106,MIAMI DADE,Convenience Store,25.865652,-80.337326,,,-8943110.222013218,2982450.860853461
1429602,Dollar General 22793,115 SE 2nd St,,Miami,FL,33131,2104,MIAMI DADE,Other,25.773232,-80.190109,,,-8926722.100537105,2971021.7561736936
1431225,Su Hogar Mini Market 1,241 NW 8th Ave,,Miami,FL,33128,1411,MIAMI DADE,Convenience Store,25.77643,-80.207558,,,-8928664.514331957,2971417.0874654744
1431716,JR Stop N Go,10595 SW 109th Ct,,Miami,FL,33176,3308,MIAMI DADE,Convenience Store,25.671364,-80.372658,,,-8947043.362261925,2958434.5732946936
1433409,APlus 40326H,1101 N Flagler Ave,,Homestead,FL,33030,4963,MIAMI DADE,Convenience Store,25.481228,-80.464073,,,-8957219.633512793,2934969.39164286
1433422,Family Dollar 12317,5978 SW 64th St,,South Miami,FL,33143,3500,MIAMI DADE,Other,25.711342,-80.291481,,,-8938006.779957801,2963373.116245425
1434162,Dollar General 22782,2300 Salzedo St,,Coral Gables,FL,33134,5154,MIAMI DADE,Other,25.750605,-80.262299,,,-8934758.254577471,2968224.949385587
1436593,Kwik Stop 2020,11741 Quail Roost Dr,,Miami,FL,33177,3954,MIAMI DADE,Convenience Store,25.590994,-80.381218,,,-8947996.257103117,2948511.3526702547
1437377,Futuro Supermarket,13660 SW 56th St,,Miami,FL,33175,6019,MIAMI DADE,Grocery Store,25.714172,-80.414246,,,-8951672.917245036,2963722.7732896656
1437743,Romazi Corporation/Aries Supermarket 2,5945 W 25th Ct,,Hialeah,FL,33016,4423,MIAMI DADE,Supermarket,25.876335,-80.333672,,,-8942703.460593859,2983772.5480555766
1439176,Ruby Market Corp,490 E 4th Ave,Ste A,Hialeah,FL,33010,3607,MIAMI DADE,Convenience Store,25.826431,-80.273521,,,-8936007.481903153,2977599.5124881454
1440154,Chevron,5100 NW 7th St,,Miami,FL,33126,3325,MIAMI DADE,Convenience Store,25.778111,-80.278374,,,-8936547.715391973,2971624.8940837365
1447606,Frank's Fresh Fruits Mini Market Ii Corp.,6480 SW 8th St,,West Miami,FL,33144,4814,MIAMI DADE,Other,25.762936,-80.301552,,,-8939127.878549578,2969749.0546163744
1447963,Axel Minimarket,1160 SW 6th St,,Miami,FL,33130,3104,MIAMI DADE,Convenience Store,25.767578,-80.214218,,,-8929405.90214064,2970322.8444294254
1449849,DOLLARTREE 708,19173 South Dixie Hwy.,,Miami,FL,33157,    ,MIAMI DADE,Other,25.589546,-80.35746,,,-8945351.52864085,2948332.630450582
1450529,Publix Super Markets Inc.1614 1614,3 Miami Central,,Miami,FL,33136,    ,MIAMI DADE,Supermarket,25.780218,-80.197533,,,-8927548.536436755,2971885.3673346867
1452651,Cardenas Distributor Inc,18615 SW 107th Ave,,Cutler Bay,FL,33157,6728,MIAMI DADE,Grocery Store,25.594952,-80.363541,,,-8946028.462464362,2948999.887565866
1452875,Asian-mart,744 SW 8th St,,Miami,FL,33130,3311,MIAMI DADE,Other,25.765753,-80.206688,,,-8928567.666374967,2970097.256572024
1453025,100 Fuegos Minimarket,2116 Palm Ave,,Hialeah,FL,33010,2242,MIAMI DADE,Grocery Store,25.841091,-80.282509,,,-8937008.021486403,2979412.6580856326
1453926,Racetrac 2591,12800 S.W. 152nd St,,Miami,FL,33177,    ,MIAMI DADE,Convenience Store,25.626207,-80.398071,,,-8949872.324481456,2952858.252105314
1455156,The Corner Food Mart,1200 NW 29th St,,Miami,FL,33142,6618,MIAMI DADE,Grocery Store,25.802975,-80.215759,,,-8929577.445475953,2974698.9464578396
1456922,Lena Bakery,1700 NW 17th Ave,,Miami,FL,33125,2329,MIAMI DADE,Grocery Store,25.791145,-80.223228,,,-8930408.890752688,2973236.267951889
1457839,7-Eleven Store 38379H,236 SW 12th Avenue,,Miami,FL,33130,    ,MIAMI DADE,Convenience Store,25.770788,-80.214821,,,-8929473.027793588,2970719.640255063
1459812,Farm Stores 2413 2413,10265 Marlin Rd,,Cutler Bay,FL,33157,7718,MIAMI DADE,Convenience Store,25.587908,-80.35743,,,-8945348.189056125,2948130.4597182986
1460444,Medina Market,9724 SW 168th St,,Miami,FL,33157,4316,MIAMI DADE,Grocery Store,25.613426,-80.349792,,,-8944497.930785445,2951280.3423865754
1464276,7-Eleven Store 37165H,13690 SW 268th St,,Homestead,FL,33032,7722,MIAMI DADE,Convenience Store,25.517727,-80.412056,,,-8951429.1275602,2939470.9413490756
1464416,A1 Groceries Inc,24735 S Dixie Hwy,,Homestead,FL,33032,3825,MIAMI DADE,Grocery Store,25.537094,-80.40995,,,-8951194.688712588,2941860.097191798
1464525,South Dixie Meat And Provisions Llc,24727 S Dixie Hwy,,Homestead,FL,33032,3825,MIAMI DADE,Other,25.537094,-80.40995,,,-8951194.688712588,2941860.097191798
1465399,Los Latinos Market Corp,1390 E 4th Ave,,Hialeah,FL,33010,3526,MIAMI DADE,Convenience Store,25.83445,-80.274025,,,-8936063.586926512,2978591.272828411
1468742,Aguas Claras Minimarket,2175 W Flagler St,,Miami,FL,33135,1638,MIAMI DADE,Convenience Store,25.772779,-80.230377,,,-8931204.713792369,2970965.7579497835
1469932,Express Food Market,12364 SW 216th St,,Miami,FL,33170,2825,MIAMI DADE,Convenience Store,25.56592,-80.392014,,,-8949198.06232572,2945416.8508428326
1470151,Mid Flagler Circle K,4690 W Flagler St,,Coral Gables,FL,33134,1513,MIAMI DADE,Convenience Store,25.771282,-80.27137,,,-8935768.033678457,2970780.7057369
1470397,Quik Way,29319 SW 152nd Ave,,Homestead,FL,33033,2848,MIAMI DADE,Convenience Store,25.494743,-80.436722,,,-8954174.934120106,2936636.0845544627
1471200,Trader Joe's 781,211 S Dixie Hwy,,Coral Gables,FL,33133,4824,MIAMI DADE,Supermarket,25.729273,-80.258163,,,-8934297.837163549,2965588.6987329526
1471805,Familia Meat Market,18904 SW 114th Ave,,Miami,FL,33157,7519,MIAMI DADE,Other,25.590862,-80.377159,,,-8947544.411289988,2948495.0602236036
1472218,Exprezo #124,29421 SW 152nd Ave,,Homestead,FL,33033,2847,MIAMI DADE,Convenience Store,25.493483,-80.436211,,,-8954118.04986031,2936480.6912770458
1474373,Walmart 6397,15601 SW 127th Ave,,Miami,FL,33177,1406,MIAMI DADE,Super Store,25.622503,-80.397385,,,-8949795.95931077,2952400.9483248084
1474570,Sprouts Farmers Market 638,12690 SW 88th St,,Miami,FL,33186,1868,MIAMI DADE,Supermarket,25.684229,-80.40023,,,-8950112.663262077,2960023.62537517
1474583,El Faro Supermarket,4338 NW 7th St,,Miami,FL,33126,3516,MIAMI DADE,Grocery Store,25.778473,-80.266731,,,-8935251.622560665,2971669.6452101595
1474762,E&J Brothers Group Llc 1306,7420 SW 57th Ave,,South Miami,FL,33143,5314,MIAMI DADE,Convenience Store,25.70212,-80.285706,,,-8937363.90989847,2962233.761480572
1477827,Latin Store Corp,433 NW 12th Ave,,Miami,FL,33128,1020,MIAMI DADE,Convenience Store,25.778126,-80.214561,,,-8929444.084725982,2971626.7484094673
1478178,Food Fare,21530 SW 109th Ave,,Cutler Bay,FL,33189,2902,MIAMI DADE,Convenience Store,25.56702,-80.368256,,,-8946553.333863454,2945552.5934927273
1479791,Vision Market,3911 E 4th Ave,,Hialeah,FL,33013,2705,MIAMI DADE,Grocery Store,25.858093,-80.274384,,,-8936103.550623707,2981515.7431465657
1483762,7-Eleven Store 37594,8695 SW 40th St,,Miami,FL,33155,3215,MIAMI DADE,Convenience Store,25.733521,-80.335518,,,-8942908.956373861,2966113.637225056
1486481,Murphy USA 5738,33517 S Dixie Hwy,,Florida City,FL,33034,    ,MIAMI DADE,Convenience Store,25.456163,-80.473923,,,-8958316.130497105,2931878.828810424
1488336,C&C Food Spot,711 Sw 8th St,Apt A,Homestead,FL,33030,6905,MIAMI DADE,Convenience Store,25.462782,-80.487122,,,-8959785.436456086,2932694.9017058606
1494270,Sprouts Farmers Market 641,2631 NE 10th Ct,,Homestead,FL,33033,4718,MIAMI DADE,Supermarket,25.480455,-80.440872,,,-8954636.910006898,2934874.069626518
1495945,Marathon,18398 S Dixie Hwy,,Miami,FL,33157,5527,MIAMI DADE,Convenience Store,25.598873,-80.354469,,,-8945018.572043886,2949483.871501222
1495979,Carniceria Los Paisas & Deli Market ,9945 SW 142nd Ave,,Miami,FL,33186,6844,MIAMI DADE,Other,25.675032,-80.421829,,,-8952517.052943721,2958887.6178440973
1496527,Caraf Market 6151,6151 NW 32nd Ave,,Miami,FL,33142,2109,MIAMI DADE,Convenience Store,25.830692,-80.248894,,,-8933266.016803388,2978126.4888845985
1498712,DOLLARTREE 9034,10600 NW 19th St,,Doral,FL,33172,2542,MIAMI DADE,Other,25.790665,-80.367592,,,-8946479.417721568,2973176.923130963
1499892,Cosi Minimarket,1642 NW 17th Ave,,Miami,FL,33125,2327,MIAMI DADE,Convenience Store,25.79031,-80.223366,,,-8930424.252842415,2973133.0328450296
1499982,The Heat Food Market No. 2 Inc.,5201 NW 27th Ave,,Miami,FL,33142,3538,MIAMI DADE,Convenience Store,25.822346,-80.240364,,,-8932316.46154692,2977094.320585357
1500762,Wawa Store 5378,7878 NW 103rd St,,Hialeah,FL,33016,2418,MIAMI DADE,Convenience Store,25.866449,-80.325378,,,-8941780.17673722,2982549.4605569947
1500870,Five Seasons Trading Inc n/a,55 1/2 Sw 8th St,,Homestead,FL,33030,7262,MIAMI DADE,Convenience Store,25.462692,-80.4786,,,-8958836.771755546,2932683.80508204
1501203,Lima Service Of Miami Corp,2140 W Flagler St,Ste 104,Miami,FL,33135,1641,MIAMI DADE,Other,25.772306,-80.23008,,,-8931171.651903603,2970907.287626242
1501655,Lucy St Meat Market,989 W Lucy St,,Homestead,FL,33034,1872,MIAMI DADE,Grocery Store,25.462055,-80.492973,,,-8960436.76679672,2932605.2658818094
1504035,Farm Store 2407,9601 SW 160th St,,Miami,FL,33157,3352,MIAMI DADE,Convenience Store,25.620417,-80.348152,,,-8944315.366820546,2952143.412534021
1506524,Zulia Market Discount,10940 W Flagler St,Ste 402,Miami,FL,33174,1217,MIAMI DADE,Convenience Store,25.768295,-80.373764,,,-8947166.481618742,2970411.4735942273
1506710,On The Run 80265,10550 NW 112th Ave,,Medley,FL,33178,1059,MIAMI DADE,Convenience Store,25.868914,-80.379318,,,-8947784.75007061,2982854.418679771
1506715,Circle K 80266,4941 SW 8th St,,Coral Gables,FL,33134,2438,MIAMI DADE,Convenience Store,25.764292,-80.276451,,,-8936333.648011176,2969916.665175961
1507028,La Familia Market,1505 W Okeechobee Rd,,Hialeah,FL,33010,2833,MIAMI DADE,Convenience Store,25.835749,-80.297226,,,-8938646.310432406,2978751.934681173
1507554,A-Ok Fish Market,227 South Krome Ave,,Homestead,FL,33030,    ,MIAMI DADE,Other,25.467306,-80.477264,,,-8958688.048915846,2933252.7026921045
1509449,Loteria Dollar Discount,1665 W 68th St,Ste 106,Hialeah,FL,33014,4400,MIAMI DADE,Convenience Store,25.884968,-80.316429,,,-8940783.97861411,2984840.699189549
1509566,Paella Campesina Llc,912 SW 74th Ave,,Miami,FL,33144,4526,MIAMI DADE,Other,25.761482,-80.31601,,,-8940737.335747467,2969569.332736243
1510243,Publix Super Markets Inc. 1465,20951 Old Cutler Rd,,Cutler Bay,FL,33189,2469,MIAMI DADE,Supermarket,25.570881,-80.346962,,,-8944182.896626502,2946029.0600626837
1510288,CVS Pharmacy CVS11413,3349 Pan American Dr,,Miami,FL,33133,5510,MIAMI DADE,Other,25.729469,-80.235641,,,-8931790.699591903,2965612.918646118
1511257,Asian Spices,13913 SW 66th St,,Miami,FL,33183,2203,MIAMI DADE,Other,25.705936,-80.420433,,,-8952361.650934575,2962705.207917433
1511825,Racetrac 2576,19995 SW 177th Ave,,Miami,FL,33187,    ,MIAMI DADE,Convenience Store,25.5798,-80.478088,,,-8958779.77617626,2947129.767687947
1512709,Sami's Discount Store 1,5838 W 20th Ave,,Hialeah,FL,33016,2603,MIAMI DADE,Convenience Store,25.876045,-80.324158,,,-8941644.36695845,2983736.6680454398
1513918,Santa Fe Market,7250 W 24th Ave,Ste 25,Hialeah,FL,33016,1701,MIAMI DADE,Convenience Store,25.888332,-80.332649,,,-8942589.580754777,2985256.944174041
1514516,La Esquina Tropical,1060 SW 8th St,,Miami,FL,33130,3602,MIAMI DADE,Convenience Store,25.765728,-80.212593,,,-8929225.0079681,2970094.166351482
1516727,Portofino Supermarket,2900 W 12th Ave,Ste 1,Hialeah,FL,33012,4861,MIAMI DADE,Grocery Store,25.84845,-80.30687,,,-8939719.875601618,2980322.9022918115
1517856,DOLLARTREE 9077,3700 W 18th Ave,,Hialeah,FL,33012,7069,MIAMI DADE,Other,25.855425,-80.319214,,,-8941094.003395969,2981185.7013264773
1518198,Ocean 2 Fish Fresh Seafood Market,11780 SW 88th St,,Miami,FL,33186,2102,MIAMI DADE,Specialty Store,25.685965,-80.386246,,,-8948555.971502824,2960238.064817922
1518300,Azteca Supermarket,212 W Mowry Dr,,Homestead,FL,33030,5802,MIAMI DADE,Supermarket,25.469536,-80.482155,,,-8959232.512545317,2933527.665361569
1519504,Latin Cafe & Mini Market Inc.,1164 SW 17th Ave,,Miami,FL,33135,5399,MIAMI DADE,Convenience Store,25.7619,-80.222679,,,-8930347.776352242,2969620.9994612234
1519739,El Gallego Supermarket,15138 SW 56th St,,Miami,FL,33185,4182,MIAMI DADE,Grocery Store,25.713608,-80.438583,,,-8954382.099692471,2963653.088324705
1521571,Target Store T3424,2551 NE 9th Ct,,Homestead,FL,33033,4724,MIAMI DADE,Super Store,25.478704,-80.442436,,,-8954811.013690498,2934658.1484122043
1521581,La Finca Farmer Market Corp,15390 SW 184th St,,Miami,FL,33187,1823,MIAMI DADE,Farmers and Markets,25.59354,-80.441383,,,-8954693.794266693,2948825.6029237537
1524327,Murphy Express 8976,2355 NE 8th St,,Homestead,FL,33033,5352,MIAMI DADE,Convenience Store,25.477522,-80.443848,,,-8954968.1968115,2934512.3941218005
1526120,Shahib Llc,177 SW 4th St,,Homestead,FL,33030,7029,MIAMI DADE,Convenience Store,25.466303,-80.481247,,,-8959131.434447676,2933129.032803496
1526352,Beijing Mart 2,9501 SW 72nd St,,Miami,FL,33173,3247,MIAMI DADE,Other,25.702232,-80.348717,,,-8944378.262332842,2962247.598267628
1527565,Milam's Market 8,3050 Sw 37th Ave,Ste 103,Miami,FL,33133,4380,MIAMI DADE,Super Store,25.734587,-80.254051,,,-8933840.091417408,2966245.369084665
1528213,El Globo Discount,1901 W 60th St,,Hialeah,FL,33012,7504,MIAMI DADE,Convenience Store,25.877077,-80.321327,,,-8941329.221480016,2983864.3517928957
1528757,Orion Gas Station,2390 W 76 St,,Hialeah,FL,33016,    ,MIAMI DADE,Convenience Store,25.891163,-80.331612,,,-8942474.142442824,2985607.247523918
1529447,King's Market & Smoke Shop,1539 NW 3rd Ave,,Miami,FL,33136,1807,MIAMI DADE,Convenience Store,25.790125,-80.199829,,,-8927804.125987614,2973110.160494583
1529567,Valentino's Family Stores Llc,11190 W Flagler St,,Miami,FL,33174,1224,MIAMI DADE,Convenience Store,25.767988,-80.376747,,,-8947498.547659779,2970373.5249183704
1532991,Hanna & Tiger Asian Market Killian,10832 Sw 104th St,,Miami,FL,33176,    ,MIAMI DADE,Other,25.671886,-80.370979,,,-8946856.456836883,2958499.0460683936
1536714,Rubio's Farm La Esperanza NAFMNP,29220 SW 177th Ave,,Homestead,FL,33030,1929,MIAMI DADE,Specialty Store,25.495045,-80.478088,,,-8958779.77617626,2936673.3298519393
1537634,Ruby Market II Corp,3401 W Flagler St,,Miami,FL,33135,1025,MIAMI DADE,Convenience Store,25.772184,-80.250977,,,-8933497.89530271,2970892.206523518
1538538,Wawa Store 5360,11200 SW 248th St,,Homestead,FL,33032,4806,MIAMI DADE,Convenience Store,25.536385,-80.372742,,,-8947052.713099152,2941772.626585714
1539094,Verdyfrut Don Chicho Llc,1900 W 54th St,Apt 205,Hialeah,FL,33012,2155,MIAMI DADE,Other,25.87084,-80.320847,,,-8941275.788124437,2983092.6987032774
1539716,Murphy USA 7786,9203 NW 77th Ave,,Hialeah Gardens,FL,33016,2506,MIAMI DADE,Convenience Store,25.857397,-80.323395,,,-8941559.430186978,2981429.644562377
1541262,7-eleven 30025C,6720 SW 56th St,,Miami,FL,33155,5722,MIAMI DADE,Convenience Store,25.718292,-80.303123,,,-8939302.761469616,2964231.8295085984
1541278,Circle K 2709007,1500 N Krome Ave,,Homestead,FL,33030,3233,MIAMI DADE,Convenience Store,25.484758,-80.477829,,,-8958750.944428144,2935404.6991974087
1541281,Circle K 2709009,16 N Krome Ave,,Florida City,FL,33034,3408,MIAMI DADE,Convenience Store,25.448301,-80.477486,,,-8958712.761842802,2930909.561676771
1543126,Open Sea Connection,1350 W Mowry Dr,,Homestead,FL,33030,5633,MIAMI DADE,Specialty Store,25.469145,-80.492805,,,-8960418.065122265,2933479.4540496594
1545407,ALDI 77071,3750 S Dixie Hwy,,Miami,FL,33133,4490,MIAMI DADE,Supermarket,25.731339,-80.254311,,,-8933869.034485014,2965843.9983968195
1546621,Wawa Store 5392,11590 NW South River Dr,,Miami,FL,33178,    ,MIAMI DADE,Convenience Store,25.878222,-80.356789,,,-8945276.833262527,2984006.0177213214
1546622,Wawa Store 5359,2901 W 16th Ave,,Hialeah,FL,33012,4605,MIAMI DADE,Convenience Store,25.848339,-80.313805,,,-8940491.876270268,2980309.1721379007
1547617,Publix 1803,13001 SW 112th St,,Miami,FL,33186,4601,MIAMI DADE,Supermarket,25.664808,-80.40657,,,-8950818.428833706,2957624.858817893
1548894,Primos Market,3101 NW 54th St,,Miami,FL,33142,2831,MIAMI DADE,Convenience Store,25.82398,-80.247047,,,-8933060.409703892,2977296.395254773
1550272,La Colmena Mini Market,2028 NW 21st Ave,,Miami,FL,33142,7320,MIAMI DADE,Convenience Store,25.795187,-80.229782,,,-8931138.478695346,2973736.010328167
1550663,Rancho Yenny,23655 SW 177th Ave,,Homestead,FL,33031,1229,MIAMI DADE,Specialty Store,25.545397,-80.476944,,,-8958652.426678794,2942884.491740322
1550851,Kent Kwik 950,77 W Okeechobee Rd,,Hialeah,FL,33010,4721,MIAMI DADE,Convenience Store,25.82502,-80.283119,,,-8937075.926375786,2977425.0121638454
1550852,Kent Kwik 951,8001 SW 67th Ave,,Miami,FL,33143,7701,MIAMI DADE,Convenience Store,25.696272,-80.300766,,,-8939040.381429814,2961511.3016121597
1550854,Kent Kwik 952,18400 SW 177th Ave,,Miami,FL,33187,2019,MIAMI DADE,Convenience Store,25.593544,-80.478973,,,-8958878.293925611,2948826.096645048
1550866,Kent Kwik 953,24790 SW 177th Ave,,Homestead,FL,33031,1232,MIAMI DADE,Convenience Store,25.535851,-80.478134,,,-8958784.896872835,2941706.7463860163
1552261,Murphy Express 8999,11600 NW South River Dr,,Medley,FL,33178,1119,MIAMI DADE,Convenience Store,25.878674,-80.357651,,,-8945372.79066359,2984061.9421165604
1552579,Dolphin Food Market,2352 NW 46th St,,Miami,FL,33142,4634,MIAMI DADE,Convenience Store,25.816465,-80.235802,,,-8931808.622029923,2976367.0479901475
1553618,Nicolas Dollar Market I,2801 NW 22nd Ave,,Miami,FL,33142,5983,MIAMI DADE,Convenience Store,25.802071,-80.231544,,,-8931334.623638123,2974587.1694237413
1556915,Eden's Sons Supermarket,8074 NW 103rd St,Ste 14,Hialeah Gardens,FL,33016,2256,MIAMI DADE,Convenience Store,25.868662,-80.329018,,,-8942185.379683707,2982823.2421416095
1556991,Kwik Stop Food Store,1451 NW 17th Ave,,Miami,FL,33125,2347,MIAMI DADE,Convenience Store,25.788324,-80.222717,,,-8930352.00649289,2972887.496936787
1557367,Extra Supermarket,12890 SW 8th St,,Miami,FL,33184,1309,MIAMI DADE,Super Store,25.76082,-80.404884,,,-8950630.744172229,2969487.506859758
1558352,Martinez Food Wholesale,18901 S Dixie Hwy,,Cutler Bay,FL,33157,7710,MIAMI DADE,Super Store,25.590456,-80.355766,,,-8945162.953423446,2948444.9487200696
1559928,Convenience Store Tikal ,1914 NW 20th St,,Miami,FL,33142,7306,MIAMI DADE,Grocery Store,25.794374,-80.227646,,,-8930900.70026301,2973635.4917520117
1560023,Ja Discount Inc,1569 NW 27th Ave,,Miami,FL,33125,2135,MIAMI DADE,Convenience Store,25.788609,-80.239288,,,-8932196.681774827,2972922.732199599
1560186,Farm Store 1,8753 SW 157th Ave,,Miami,FL,33193,1278,MIAMI DADE,Convenience Store,25.685347,-80.44558,,,-8955161.002169553,2960161.7259944975
1560236,Ciclon Market Inc,4461 Palm Ave,Ste A,Hialeah,FL,33012,4018,MIAMI DADE,Convenience Store,25.863012,-80.282639,,,-8937022.493020207,2982124.26181685
1562116,DOLLARTREE 9053,8301 W Flagler St,,Miami,FL,33144,2071,MIAMI DADE,Other,25.769817,-80.330246,,,-8942322.080018401,2970599.6114759403
1562546,Farm Store 115,501 Hialeah Dr,,Hialeah,FL,33010,5348,MIAMI DADE,Convenience Store,25.823282,-80.271172,,,-8935745.99241928,2977210.0741551556
1562655,Farm Store 803,4295 E 4th Ave,,Hialeah,FL,33013,2305,MIAMI DADE,Convenience Store,25.86146,-80.274368,,,-8936101.769511854,2981932.264576079
1563800,Target Store T3420,3825 NW 7th St,,Miami,FL,33126,5502,MIAMI DADE,Super Store,25.779989,-80.258774,,,-8934365.853372425,2971857.057488173
1564844,Edelyn Fuel,2225 NW 27th Ave,,Miami,FL,33142,7130,MIAMI DADE,Convenience Store,25.797462,-80.239563,,,-8932227.294634795,2974017.292910253
1565166,Wawa Store 5406,7870 W Flagler St,,Miami,FL,33144,2304,MIAMI DADE,Convenience Store,25.769531,-80.324142,,,-8941642.585846597,2970564.2581813615
1567184,La Familia Market,2412 NW 27th Ave,,Miami,FL,33142,7234,MIAMI DADE,Convenience Store,25.799355,-80.240227,,,-8932301.210776681,2974251.3488616217
1567645,7-eleven 37587A,8890 Howard Dr,,Miami,FL,33176,5817,MIAMI DADE,Convenience Store,25.64642,-80.337959,,,-8943180.68725089,2955354.0423401115
1570910,Villa Verde Farmer's Market Llc 1,26390 SW 147th Ave,,Homestead,FL,33032,6520,MIAMI DADE,Farmers and Markets,25.522188,-80.429375,,,-8953357.069821246,2940021.225966602
1573690,J H Meat Corp./Bravo Supermarket,13659 SW 26th St,,Miami,FL,33175,6378,MIAMI DADE,Super Store,25.744373,-80.415413,,,-8951802.827090792,2967454.737595516
1574938,Valentine Grocery,636 SW 6th Ave,,Homestead,FL,33030,7096,MIAMI DADE,Convenience Store,25.46353,-80.485649,,,-8959621.462846149,2932787.127300557
1576232,DOLLARTREE 9248,2750 W 68th St,Ste 135,Hialeah,FL,33016,5449,MIAMI DADE,Other,25.883001,-80.338516,,,-8943242.692207262,2984597.3176790834
1576383,Fresco Y Mas 242,1201 E 10th Ave,,Hialeah,FL,33010,3700,MIAMI DADE,Super Store,25.833893,-80.260864,,,-8934598.511108182,2978522.382951405
1576387,Fresco Y Mas Store 243,541 W 49th St,,Hialeah,FL,33012,3604,MIAMI DADE,Super Store,25.868292,-80.293312,,,-8938210.605945442,2982777.4671862163
1576416,Fresco Y Mas Store 235,3401 NW 18th Ave,,Miami,FL,33142,5401,MIAMI DADE,Super Store,25.808123,-80.224449,,,-8930544.811850946,2975335.498300733
1576418,Fresco Y Mas Store 237,12254 SW 8th St,,Miami,FL,33184,1553,MIAMI DADE,Super Store,25.75964,-80.394188,,,-8949440.070898706,2969341.655220374
1576419,Fresco Y Mas Store 239,14537 SW 42nd St,,Miami,FL,33175,7814,MIAMI DADE,Super Store,25.728823,-80.429825,,,-8953407.163592104,2965533.091940522
1576420,Fresco Y Mas Store 252,1525 Coral Way,,Miami,FL,33145,2849,MIAMI DADE,Super Store,25.751295,-80.219498,,,-8929993.669052027,2968310.228849457
1576422,Fresco Y Mas 270,2750 W 68th St,Ste 201,Hialeah,FL,33016,    ,MIAMI DADE,Super Store,25.883001,-80.338516,,,-8943242.692207262,2984597.3176790834
1576429,Fresco Y Mas 283,8855 Coral Way,,Miami,FL,33165,2010,MIAMI DADE,Super Store,25.747698,-80.338539,,,-8943245.25255555,2967865.668736227
1576430,Fresco Y Mas 286,948 SW 67th Ave,,Miami,FL,33144,4761,MIAMI DADE,Super Store,25.76092,-80.305115,,,-8939524.509895274,2969499.8672348065
1576432,Fresco Y Mas 287,14655 SW 104th St,,Miami,FL,33186,2976,MIAMI DADE,Super Store,25.671091,-80.431396,,,-8953582.046512142,2958400.854887555
1576434,Fresco Y Mas 292,1630 W 49th St,,Hialeah,FL,33012,2931,MIAMI DADE,Super Store,25.864754,-80.316307,,,-8940770.397636233,2982339.7668775576
1576437,Fresco Y Mas 353,9565 W Flagler St,,Miami,FL,33174,2012,MIAMI DADE,Super Store,25.770105,-80.351425,,,-8944679.715513913,2970635.212082446
1576438,Fresco Y Mas Store 359,7480 SW 117th Ave,,Miami,FL,33183,3806,MIAMI DADE,Super Store,25.698734,-80.383308,,,-8948228.914838873,2961815.451903345
1576439,Fresco Y Mas Store 361,15050 SW 72nd St,,Miami,FL,33193,2301,MIAMI DADE,Super Store,25.699121,-80.436394,,,-8954138.421327127,2961863.261639727
1576440,Fresco Y Mas Store 366,3701 NW 7th St,,Miami,FL,33126,5501,MIAMI DADE,Super Store,25.779989,-80.258774,,,-8934365.853372425,2971857.057488173
1576444,Fresco Y Mas Store 384,12107 SW 152nd St,,Miami,FL,33177,1599,MIAMI DADE,Super Store,25.627695,-80.388641,,,-8948822.581683274,2953041.9677678943
1576446,Fresco Y Mas Store 385,27359 S Dixie Hwy,,Homestead,FL,33032,8210,MIAMI DADE,Super Store,25.512074,-80.431442,,,-8953587.167208718,2938773.647494432
1576447,Fresco Y Mas Store 387,18801 SW 117th Ave,,Miami,FL,33177,3250,MIAMI DADE,Super Store,25.593214,-80.380806,,,-8947950.39347291,2948785.3646938903
1576450,Fresco Y Mas Store 388,18300 SW 137th Ave,,Miami,FL,33177,6482,MIAMI DADE,Super Store,25.597958,-80.414856,,,-8951740.82213442,2949370.928153593
1577412,Sprouts Farmers Market 656,2750 SW 27th Ter,Ste 102,Miami,FL,33133,3064,MIAMI DADE,Supermarket,25.740973,-80.238213,,,-8932077.013322225,2967034.549222814
1577588,DOLLARTREE 8096,821 SW 67th Ave.,,Miami,FL,33144,    ,MIAMI DADE,Other,25.7623,-80.303535,,,-8939348.625099821,2969670.4414736363
1579552,Latin Dollar Store,535 NW 12th Ave,,Miami,FL,33136,3607,MIAMI DADE,Convenience Store,25.779058,-80.214523,,,-8929439.854585331,2971741.9643080714
1582263,Farm Store 1007,11291 NW 87th Ct,,Hialeah,FL,33018,4502,MIAMI DADE,Convenience Store,25.875563,-80.340103,,,-8943419.356239151,2983677.033188984
1583535,Miami Lobster ,546 W 28th St,,Hialeah,FL,33010,1326,MIAMI DADE,Specialty Store,25.847036,-80.293182,,,-8938196.13441164,2980147.998411804
1583952,Supermarket Mayabeque,2000 Palm Ave,,Hialeah,FL,33010,2620,MIAMI DADE,Convenience Store,25.840155,-80.28231,,,-8936985.868907733,2979296.8870969294
1584779,Publix Super Markets Inc. 1229,1220 E. Palm Dr.,,Homestead,FL,33035,    ,MIAMI DADE,Supermarket,25.450632,-80.455902,,,-8956310.04195352,2931196.932547549
1585160,The Heights Marketplace,14660 Lincoln Blvd,,Miami,FL,33176,7430,MIAMI DADE,Convenience Store,25.632456,-80.376038,,,-8947419.622140806,2953629.7991876043
1588085,Target Store T3322,2750 SW 27th Ter,Ste 101,Miami,FL,33133,3064,MIAMI DADE,Super Store,25.740973,-80.238213,,,-8932077.013322225,2967034.549222814
1588156,La Laundry & Cafe,119 SW 16th Ave,,Miami,FL,33135,2115,MIAMI DADE,Convenience Store,25.771908,-80.221024,,,-8930163.542594979,2970858.0886762072
1588350,CVS Pharmacy 10732,14663 SW 104 STREET,,MIAMI,FL,33186,    ,MIAMI DADE,Other,25.670471,-80.43074,,,-8953509.02092618,2958324.2785720825
1588586,Quick Stop Market,3101 NW 46th St,,Miami,FL,33142,4452,MIAMI DADE,Convenience Store,25.816517,-80.24675,,,-8933027.347815126,2976373.478400661
1589422,Queen Supermarket,3601 Grand Ave,,Miami,FL,33133,4921,MIAMI DADE,Convenience Store,25.72794,-80.251472,,,-8933552.998450654,2965423.9796683486
1590678,Plantabaja Market And Cafe,8050 SW 72nd Ave,Ste 100,Miami,FL,33143,    ,MIAMI DADE,Grocery Store,25.695253,-80.309387,,,-8940000.066759944,2961385.418339888
1590799,Angies Discount,424 SW 12th Ave,Ste 100,Miami,FL,33130,2451,MIAMI DADE,Convenience Store,25.769062,-80.214851,,,-8929476.367378311,2970506.283907169
1591002,Quick and Easy,1875 W 4th Ave,,Hialeah,FL,33010,2406,MIAMI DADE,Convenience Store,25.838543,-80.28952,,,-8937788.482436355,2979097.5058744773
1591671,DOLLARTREE 9270,15043 S Dixie Hwy,,Miami,FL,33176,7930,MIAMI DADE,Other,25.629986,-80.339821,,,-8943387.964142747,2953324.8301614653
1594975,New York Deli & Grocery,4002 NW 17th Ave,,Miami,FL,33142,4852,MIAMI DADE,Convenience Store,25.812904,-80.224297,,,-8930527.891288346,2975926.6952481125
1596248,Aly Mart,11865 SW 26th St,,Miami,FL,33175,2400,MIAMI DADE,Convenience Store,25.747063,-80.389732,,,-8948944.03124773,2967787.189269016
1596731,CVS Pharmacy 11509,2120 SW 32nd Ave,,Miami,FL,33145,2214,MIAMI DADE,Other,25.751144,-80.24707,,,-8933062.970052179,2968291.566199803
1596964,A Food Store,4105 E 4th Ave,Bay B and C,Hialeah,FL,33013,2316,MIAMI DADE,Convenience Store,25.860107,-80.274414,,,-8936106.89020843,2981764.8875950747
1597244,Food Shop Elen,8901 Sw 157th Ave,Unit 24,Miami,FL,33196,1158,MIAMI DADE,Convenience Store,25.683123,-80.445549,,,-8955157.551265338,2959887.008327468
1599261,Silvia Y Lizeth Mini Market Inc,1805 W Flagler St,,Miami,FL,33135,1914,MIAMI DADE,Convenience Store,25.77294,-80.225052,,,-8930611.937503895,2970985.660163816
1599794,Nuevo Colon Supermarket Corp,405 E Okeechobee Rd,,Hialeah,FL,33010,5350,MIAMI DADE,Convenience Store,25.817154,-80.272438,,,-8935886.922894623,2976452.251158589
1601399,Market El Triunfo,1275 NW 1st St,,Miami,FL,33125,5742,MIAMI DADE,Convenience Store,25.774532,-80.21553,,,-8929551.95331256,2971182.458665543
1602551,Westar 27th Avenue,1600 SW 27th Ave,,Miami,FL,33145,2045,MIAMI DADE,Convenience Store,25.757366,-80.239014,,,-8932166.18023435,2969060.5858949474
1602563,Westar Calle 8,8590 SW 8th St,,Miami,FL,33144,4053,MIAMI DADE,Convenience Store,25.761589,-80.334785,,,-8942827.359187111,2969582.558411678
1603226,El Pirata Farm,19511 Sw 168th St.,,Miami,FL,33187,    ,MIAMI DADE,Specialty Store,25.608784,-80.508659,,,-8962182.924329301,2950707.294662417
1605047,Zona Rosa,1308 W Flagler St,,Miami,FL,33135,2320,MIAMI DADE,Convenience Store,25.773193,-80.216576,,,-8929668.393499931,2971016.935126139
1605050,5th Avenue Food Market,712 NW 5th Ave,,Miami,FL,33136,3208,MIAMI DADE,Convenience Store,25.780993,-80.203346,,,-8928195.636636734,2971981.176172654
1606795,Bien Barato,5788 W Flagler St,,Miami,FL,33144,3444,MIAMI DADE,Grocery Store,25.770517,-80.289574,,,-8937794.493688857,2970686.140878059
1606898,La Guera Mexican Market,22141 S Dixie Hwy,,Miami,FL,33170,2840,MIAMI DADE,Grocery Store,25.561411,-80.386215,,,-8948552.52059861,2944860.4424090195
1607394,ALDI 77070,7797 W Flagler St,,Miami,FL,33144,2301,MIAMI DADE,Supermarket,25.772991,-80.32238,,,-8941446.44090382,2970991.964597497
1607418,WKQ Investments LLC,3496 NW 7th St,,Miami,FL,33125,4014,MIAMI DADE,Convenience Store,25.778828,-80.252403,,,-8933656.63689658,2971713.531115923
1607422,Neighborhood Supermarket,17 W 17 St Suite 2,,Hialeah,FL,33010,    ,MIAMI DADE,Convenience Store,25.837309,-80.282249,,,-8936979.078418795,2978944.8796527213
1607891,Rossy Super Market Llc 1,3445 NW 27th Ave,,Miami,FL,33142,5206,MIAMI DADE,Convenience Store,25.808027,-80.239944,,,-8932269.707360785,2975323.6276170327
1610316,Las Cubanitas Super Market Inc 00,987 SW 4th St,,Miami,FL,33130,2211,MIAMI DADE,Convenience Store,25.769859,-80.211021,,,-8929050.013728574,2970604.803225675
1612103,7-eleven Store #34986b 34986B,11680 SW 72nd St,,Miami,FL,33173,2691,MIAMI DADE,Convenience Store,25.700207,-80.380791,,,-8947948.723680547,2961997.4262260483
1612291,Valero,17250 S Dixie Hwy,,Palmetto Bay,FL,33157,4351,MIAMI DADE,Convenience Store,25.609282,-80.349571,,,-8944473.329177981,2950768.770926899
1613021,Westar,3201 NW 36th St,,Miami,FL,33142,5035,MIAMI DADE,Convenience Store,25.809063,-80.248703,,,-8933244.754780646,2975451.7325868066
1613715,Pulperia Buen Por Venir Inc,2837 NW 7th St,,Miami,FL,33125,4303,MIAMI DADE,Convenience Store,25.779749,-80.241409,,,-8932432.790414799,2971827.387838686
1613739,Max Supermarket,7461 SW 8th St,,Miami,FL,33144,4547,MIAMI DADE,Convenience Store,25.762941,-80.317169,,,-8940866.355037298,2969749.672645895
1615636,Key Food,10927 SW 40th St,,Miami,FL,33165,4412,MIAMI DADE,Super Store,25.732948,-80.372581,,,-8947034.790661134,2966042.8287492697
1615836,Mango Tree Supermarket Homestead,625 Washington Ave,,Homestead,FL,33030,6037,MIAMI DADE,Super Store,25.475817,-80.475945,,,-8958541.218507491,2934302.1503977054
1615892,Las Americas Mini Market 1,675 SW 3rd St,,Miami,FL,33130,2311,MIAMI DADE,Convenience Store,25.771061,-80.205795,,,-8928468.258069687,2970753.3869372876
1615921,Exitos Supermarket,1515 NW 27th Ave,,Miami,FL,33125,2135,MIAMI DADE,Grocery Store,25.788609,-80.239288,,,-8932196.681774827,2972922.732199599
1616324,7-eleven Store #34566b 34566B,812 SW 8th St,,Miami,FL,33130,3704,MIAMI DADE,Convenience Store,25.765615,-80.207634,,,-8928672.974613257,2970080.1985627585
1617374,Target Store T3383,249 NW 6th Street,,Miami,FL,33136,    ,MIAMI DADE,Super Store,25.779829,-80.199127,,,-8927725.979705079,2971837.2777151777
1619856,Kwik Stop,1582 NE 8th St,,Homestead,FL,33033,4721,MIAMI DADE,Convenience Store,25.476986,-80.455261,,,-8956238.686159922,2934446.2995858015
1620614,DOLLARTREE 10319,10201 Hammocks Town Center,,Miami,FL,33196,    ,MIAMI DADE,Other,25.672052,-80.442421,,,-8954809.343898136,2958519.5489636413
1621031,Westar Mart,21100 S Dixie Hwy,,Miami,FL,33189,2725,MIAMI DADE,Convenience Store,25.57122,-80.377151,,,-8947543.520734059,2946070.895079471
1621684,ALDI 77055,249 NW 6th Street,Unit #601,Miami,FL,33136,    ,MIAMI DADE,Supermarket,25.779833,-80.199005,,,-8927712.3987272,2971837.772209178
1622065,Julito's Market,1810 SW 3rd St,,Miami,FL,33135,1904,MIAMI DADE,Grocery Store,25.769583,-80.22506,,,-8930612.82805982,2970570.6860467647
1622288,Murphy USA 8583,398 W 9th St,,Hialeah,FL,33010,3825,MIAMI DADE,Convenience Store,25.829428,-80.28904,,,-8937735.049080774,2977970.162529847
1623096,Meat Place Plus,11512 Quail Roost Dr,Ste 506,Miami,FL,33157,6548,MIAMI DADE,Grocery Store,25.590683,-80.379364,,,-8947789.870767184,2948472.966707242
1623291,Caribb Spice,601 W Palm Dr,Unit 113,Homestead,FL,33034,3448,MIAMI DADE,Convenience Store,25.447519,-80.485863,,,-8959645.285217177,2930813.156221693
1623805,Fatty's Market NO,1670 Palm Ave,,Hialeah,FL,33010,3034,MIAMI DADE,Convenience Store,25.836773,-80.282173,,,-8936970.618137496,2978878.5854525724
1625154,Tu Market Express,4725 NW 79th Ave,,Doral,FL,33166,5403,MIAMI DADE,Grocery Store,25.81698,-80.324638,,,-8941697.800314032,2976430.733911067
1626056,Maltez Discount Mini Mart,2490 NW 20th St,,Miami,FL,33142,7143,MIAMI DADE,Convenience Store,25.794062,-80.237419,,,-8931988.625646535,2973596.9165405068
1626588,7-eleven Store #29325b 29325B,4741 NW 79th Ave,,Doral,FL,33166,5403,MIAMI DADE,Convenience Store,25.81698,-80.324638,,,-8941697.800314032,2976430.733911067
1627268,Nwg Mini Mart,1665 SW 67th Ave,,Miami,FL,33155,1827,MIAMI DADE,Convenience Store,25.754848,-80.303429,,,-8939336.825233798,2968749.36413527
1627809,Los Hermanos Mini Market,501 NW 12th Ave,,Miami,FL,33136,3607,MIAMI DADE,Convenience Store,25.778467,-80.214622,,,-8929450.87521492,2971668.903477668
1628379,Dollar Y Mas,1870 W 60th St,Ste B,Hialeah,FL,33012,7665,MIAMI DADE,Grocery Store,25.876871,-80.321075,,,-8941301.168968335,2983838.8644441143
1628731,La Bodeguita De Chaachaa No,8074 Nw 103rd St,Ste 14,Hialeah Gardens,FL,33016,2256,MIAMI DADE,Convenience Store,25.868809,-80.329178,,,-8942203.190802233,2982841.428447457
1628800,Zona Market,1171 W 37th St,,Hialeah,FL,33012,4941,MIAMI DADE,Convenience Store,25.855524,-80.305809,,,-8939601.765621886,2981197.947872651
1630295,Publix Super Markets Inc. 1657,13005 SW 89th Pl,,Miami,FL,33176,5812,MIAMI DADE,Supermarket,25.648575,-80.338997,,,-8943296.236882333,2955620.154836558
1632301,Murphy USA 7890,7362 NW 72nd Ave,,Miami,FL,33166,2431,MIAMI DADE,Convenience Store,25.840284,-80.314774,,,-8940599.744856847,2979312.842659544
1632413,Farm Stores,4741 SW 8th St,,Coral Gables,FL,33134,2546,MIAMI DADE,Convenience Store,25.764339,-80.272369,,,-8935879.241849758,2969922.4747208366
1633004,Union Pharmacy And Medical Supplies Ii,2501 SW 67th Ave,,Miami,FL,33155,2968,MIAMI DADE,Convenience Store,25.74707,-80.303246,,,-8939316.453766983,2967788.054394714
1637515,Quick Stop Corp,3381 NW 7th St,,Miami,FL,33125,4103,MIAMI DADE,Grocery Store,25.779312,-80.251007,,,-8933501.234887434,2971773.3645060644
1637531,CVS Pharmacy 10698,1243 SW 8th St,,Miami,FL,33135,4099,MIAMI DADE,Other,25.76609,-80.215355,,,-8929532.472401671,2970138.9128084267
1640336,Fuel Hub Travel Center,27200 SW 177th Ave,,Homestead,FL,33031,3301,MIAMI DADE,Convenience Store,25.513403,-80.478317,,,-8958805.268339653,2938937.5758233024
1640675,Mini Market Los Chicanos,1518 W Flagler St,,Miami,FL,33135,2118,MIAMI DADE,Convenience Store,25.773209,-80.220108,,,-8930061.57394141,2971018.91299161
1640921,Presidente Supermarket No. 61 Inc. ,3750 W 18th Ave,,Hialeah,FL,33012,7028,MIAMI DADE,Supermarket,25.856243,-80.319328,,,-8941106.693817921,2981286.8902682
1642271,Meats And Carnes,8205 Nw 12th St,Ste 7,Doral,FL,33126,1850,MIAMI DADE,Specialty Store,25.783085,-80.329399,,,-8942227.792409698,2972239.8013484348
1646007,La Esquina Cubana,400 NW 47th Ave,,Miami,FL,33126,2120,MIAMI DADE,Convenience Store,25.775686,-80.272179,,,-8935858.091146508,2971325.1145065427
1650086,Costco 1229,7795 W Flagler St,,Miami,FL,33144,2359,MIAMI DADE,Super Store,25.774887,-80.321892,,,-8941392.116992315,2971226.3431135877
