Record ID,Store Name,Store Street Address,Additonal Address,City,State,Zip Code,Zip4,County,Store Type,Latitude,Longitude,Incentive Program,Grantee Name,x,y
1403077,Sunrise Food Market,1214 N Howard Ave,,Tampa,FL,33607,5322,HILLSBOROUGH,Grocery Store,27.953684,-82.482994,,,-9181964.89118464,3243135.655636094
1633448,Whole Foods Market 10839,9560 Glades Rd,Unit 120,Boca Raton,FL,33434,4013,PALM BEACH,Super Store,26.366241,-80.195885,,,-8927365.081915926,3044512.6256893734
1634609,Aldi 82187,3157 W 23rd St,,Panama City,FL,32405,1828,BAY,Supermarket,30.188742,-85.70311,,,-9540426.56459991,3527834.011935969
1634571,The Fresh Market 701,840 A1a N,Ste 210,Ponte Vedra Beach,FL,32082,3272,ST JOHNS,Supermarket,30.196104,-81.382301,,,-9059436.30690492,3528782.1722025317
1620852,Country Fried Chicken Mart LLC,1205 N Martin Luther King Jr Ave,,Clearwater,FL,33755,3225,PINELLAS,Convenience Store,27.978113,-82.791672,,,-9216326.768963726,3246214.619831619
1630332,Easy Market Express,14111 Belcher Rd S,,Largo,FL,33771,4578,PINELLAS,Convenience Store,27.901329,-82.745262,,,-9211160.43139601,3236539.3199641793
1606185,Fiesta Food Market #3,4101 N State Road 7,,Lauderdale Lakes,FL,33319,4826,BROWARD,Convenience Store,26.176939,-80.204269,,,-8928298.384526737,3021012.151596265
884721,Sams Food And Gas,5801 N Australian Ave,,Mangonia Park,FL,33407,2327,PALM BEACH,Convenience Store,26.763439,-80.071861,,,-8913558.79338978,3093947.5387532907
1630264,Fresh Meats,9551 Baymeadows Rd,Ste 18,Jacksonville,FL,32256,7938,DUVAL,Specialty Store,30.221941,-81.559601,,,-9079173.252622565,3532110.309712947
1624963,Quickstop 31,1136 Beck Ave,,Panama City,FL,32401,1468,BAY,Convenience Store,30.169479,-85.701111,,,-9540204.036937816,3525353.4437432443
1621040,The Produce Spot,2401 W Atlantic Blvd,,Pompano Beach,FL,33069,2634,BROWARD,Specialty Store,26.232338,-80.155731,,,-8922895.159082614,3027885.5726003135
1634572,Publix Super Markets Inc. 2041,4112 E Johnson Ave,,Haines City,FL,33844,9233,POLK,Supermarket,28.115664,-81.588432,,,-9082382.704861626,3263564.21559817
1603037,O&P Family Store n/A,2302 N Davis St,,Jacksonville,FL,32209,5112,DUVAL,Convenience Store,30.351709,-81.667244,,,-9091156.016570026,3548839.3424646254
1634689,Aldi 82206,312 E Nine Mile Rd,,Pensacola,FL,32514,2737,ESCAMBIA,Supermarket,30.533451,-87.261696,,,-9713927.564477438,3572305.952339857
1633594,Store 435,3008 US Highway 98 W,,Santa Rosa Beach,FL,32459,4052,WALTON,Convenience Store,30.374638,-86.228523,,,-9598915.272216078,3551797.5367502524
1633391,BJ's Wholesale Club 238,13085 Cortez Blvd,,Brooksville,FL,34613,7800,HERNANDO,Super Store,28.536032,-82.510582,,,-9185035.973296644,3316724.8017711183
1630926,Rico Y Barato,5791 54th Ave N,,Kenneth City,FL,33709,2005,PINELLAS,Convenience Store,27.821306,-82.711632,,,-9207416.756920632,3226463.1875053165
881110,Aarian Inc 32662A,5101 S Orange Blossom Trl,,Kissimmee,FL,34758,2031,OSCEOLA,Convenience Store,28.256714,-81.486893,,,-9071079.435085969,3281378.274636849
1630492,Cuban Sisters,212 S Sudduth Pl,,Panama City,FL,32404,6741,BAY,Convenience Store,30.143394,-85.592674,,,-9528132.885314668,3521995.153784647
727060,Friendly Meat And Grocery,1703 N 17th St,,Fort Pierce,FL,34950,2145,ST LUCIE,Convenience Store,27.464764,-80.341911,,,-8943620.621878505,3181658.8374317726
463340,Fernandez Food Market,1407 Washington Ave,,Miami Beach,FL,33139,4109,MIAMI DADE,Grocery Store,25.785599,-80.131561,,,-8920204.56699014,2972550.6026468617
888926,Ice House Food Mart,701 S Park Ave,,Titusville,FL,32780,4014,BREVARD,Convenience Store,28.607574,-80.818192,,,-8996639.980273016,3325793.183166544
1628108,Om Mini Mart,4949 14th St W,Ste 3,Bradenton,FL,34207,2571,MANATEE,Convenience Store,27.453043,-82.574944,,,-9192200.71836308,3180188.405462262
1628512,Quick King Food Store # 2,7000 NE Jacksonville Rd,,Ocala,FL,34479,1334,MARION,Convenience Store,29.259911,-82.114281,,,-9140919.94777578,3408768.656085271
1415701,Old Crossroads,600 6th St,,Daytona Beach,FL,32117,3347,VOLUSIA,Convenience Store,29.232513,-81.045029,,,-9021891.35960609,3405273.1460564104
1633635,Store 317,1409 N Highway 231,Unit A,Panama City,FL,32405,5252,BAY,Convenience Store,30.190466,-85.640564,,,-9533463.975728756,3528056.041480498
1624720,Tapatia Supermarket 6,4601 Broadway,,West Palm Beach,FL,33407,2901,PALM BEACH,Super Store,26.753347,-80.056618,,,-8911861.95039162,3092689.368806061
1635029,7-Eleven Inc. 37252H,2100 45th St,,West Palm Beach,FL,33407,2016,PALM BEACH,Convenience Store,26.757679,-80.087471,,,-8915296.490641063,3093229.4256899534
1625121,Carlton Shell ,1349 State Road 60 E,,Lake Wales,FL,33853,4343,POLK,Convenience Store,27.894524,-81.55838,,,-9079037.331524307,3235682.175722221
1306625,Kwik Stop,6201 NW 24th Ave,,Miami,FL,33147,7717,MIAMI DADE,Convenience Store,25.831621,-80.236809,,,-8931920.72075715,2978241.3848726978
1630352,Mobil,9455 NW 17th Ave,,Miami,FL,33147,3107,MIAMI DADE,Convenience Store,25.860796,-80.225471,,,-8930658.580370536,2981850.122196699
1627972,Sham Farms,3050 Alafaya Trl,Ste 1032,Oviedo,FL,32765,5050,SEMINOLE,Supermarket,28.625105,-81.207352,,,-9039961.073310126,3328016.2850036486
1623989,Harmony Natural Market,4441 Gunn Hwy,,Tampa,FL,33618,8731,HILLSBOROUGH,Convenience Store,28.047335,-82.516861,,,-9185734.948379336,3254942.962011176
1628379,Dollar Y Mas,1870 W 60th St,Ste B,Hialeah,FL,33012,7665,MIAMI DADE,Grocery Store,25.876871,-80.321075,,,-8941301.168968335,2983838.8644441143
1417296,Winter Garden Farmer's Market NAFMNP,300 W Plant St,,Winter Garden,FL,34787,3009,ORANGE,Farmers and Markets,28.564642,-81.589645,,,-9082517.73540396,3320350.5525726546
1621260,The Corner Store,2001 Rio de Janeiro Ave,Ste A,Punta Gorda,FL,33983,8622,CHARLOTTE,Convenience Store,27.00198,-82.017845,,,-9130184.741361637,3123719.1261173813
1626588,7-eleven Store #29325b 29325B,4741 NW 79th Ave,,Doral,FL,33166,5403,MIAMI DADE,Convenience Store,25.81698,-80.324638,,,-8941697.800314032,2976430.733911067
1633593,Store 434,201 Highway 98 E,US,Destin,FL,32541,2313,OKALOOSA,Convenience Store,30.394648,-86.506882,,,-9629902.054353805,3554379.7020703796
1633602,Store 436,53 Highway 98 E,US,Destin,FL,32541,2309,OKALOOSA,Convenience Store,30.395485,-86.510773,,,-9630335.19849248,3554487.723207575
1637531,CVS Pharmacy 10698,1243 SW 8th St,,Miami,FL,33135,4099,MIAMI DADE,Other,25.76609,-80.215355,,,-8929532.472401671,2970138.9128084267
1632967,La Economica Supermarket,1081 9th St,Suite B,Winter Garden,FL,34787,4027,ORANGE,Other,28.551891,-81.574745,,,-9080859.074991139,3318734.4942069096
1631604,Mcdaniel's Grocery 290,8166 Highway 90,,Sneads,FL,32460,2402,JACKSON,Super Store,30.710367,-84.912117,,,-9452373.626618868,3595191.6345133004
1628279,Quik Trip Mobil,8520 N Carl G Rose Hwy,,Hernando,FL,34442,2135,CITRUS,Convenience Store,28.987661,-82.351379,,,-9167313.576403882,3374075.6504212623
1299175,Us Beverage,3315 US Highway 19,,Holiday,FL,34691,1847,PASCO,Convenience Store,28.207043,-82.739792,,,-9210551.51378137,3275102.3414018834
494344,Food Point,900 Old Federal Hwy,,Hallandale Beach,FL,33009,7150,BROWARD,Convenience Store,25.975977,-80.147484,,,-8921977.10724204,2996105.896163109
1633823,Cuban Bodega,3473 E Highway 98,,Panama City,FL,32401,5607,BAY,Convenience Store,30.149513,-85.615425,,,-9530665.515049705,3522782.8592196438
517323,Naumis Drive Thru 0,1040 S State Road 7,,Hollywood,FL,33023,6732,BROWARD,Convenience Store,26.001278,-80.207588,,,-8928667.85391668,2999239.2301033763
1635013,Martine Products Gs,10204 NW 7th Ave,,Miami,FL,33150,1306,MIAMI DADE,Grocery Store,25.868374,-80.210022,,,-8928938.80555727,2982787.6118936967
1342906,Medical Food Mart,2534 SE 17th St,,Ocala,FL,34471,5523,MARION,Convenience Store,29.170908,-82.101952,,,-9139547.48977379,3397416.8294710624
1627268,Nwg Mini Mart,1665 SW 67th Ave,,Miami,FL,33155,1827,MIAMI DADE,Convenience Store,25.754848,-80.303429,,,-8939336.825233798,2968749.36413527
1633004,Union Pharmacy And Medical Supplies Ii,2501 SW 67th Ave,,Miami,FL,33155,2968,MIAMI DADE,Convenience Store,25.74707,-80.303246,,,-8939316.453766983,2967788.054394714
1632410,Vietnam Oriental Food,622 Cassat Ave,Ste 4,Jacksonville,FL,32205,4415,DUVAL,Grocery Store,30.316364,-81.731255,,,-9098281.688495195,3544280.650329523
1565076,S & J Cornerstore Llc,1065 W 4th St,,Jacksonville,FL,32209,6446,DUVAL,Convenience Store,30.341778,-81.670097,,,-9091473.611077258,3547558.305612698
1638452,ALDI 74178,2261 Edgewood Ave W,,Jacksonville,FL,32209,2554,DUVAL,Supermarket,30.379879,-81.697952,,,-9094574.415493306,3552473.803908459
1640592,DOLLARTREE 10666,11500 Ridge Rd,,New Port Richey,FL,34654,6400,PASCO,Other,28.272442,-82.625237,,,-9197799.309513547,3283366.117548422
1625354,Chevron,4051 Stirling Rd,,Davie,FL,33314,7526,BROWARD,Convenience Store,26.047384,-80.20179,,,-8928022.423509061,3004950.8393277973
1633729,Citgo Food Mart,702 W Mlk Blvd,,Tampa,FL,33603,3104,HILLSBOROUGH,Convenience Store,27.981241,-82.467979,,,-9180293.429030377,3246608.9147283724
1631262,7 Eleven Store 40333B,3130 Gulf to Bay Blvd,,Clearwater,FL,33759,4505,PINELLAS,Convenience Store,27.961048,-82.707237,,,-9206927.507758597,3244063.7206294597
1631968,Farm Store Drive Thru,125 W Linebaugh Ave,,Tampa,FL,33612,7933,HILLSBOROUGH,Convenience Store,28.040274,-82.460526,,,-9179463.764865495,3254052.369162081
1630775,The Corner Grocery,1514 Bertha St,,Key West,FL,33040,5373,MONROE,Convenience Store,24.554178,-81.779381,,,-9103639.05030911,2821083.9904055507
1611729,La Placita Minimarket Inc.,3950 Lake Worth Rd,,Lake Worth,FL,33461,4054,PALM BEACH,Convenience Store,26.617432,-80.104698,,,-8917214.19150896,3075755.701114537
1640921,Presidente Supermarket No. 61 Inc. ,3750 W 18th Ave,,Hialeah,FL,33012,7028,MIAMI DADE,Supermarket,25.856243,-80.319328,,,-8941106.693817921,2981286.8902682
1634641,Darrens Discount Of Fort Mccoy,11398 E Highway 316,,Fort MC Coy,FL,32134,8114,MARION,Grocery Store,29.364151,-81.969177,,,-9124767.044383712,3422076.445353182
1632786,Sun N Lake Shell,6229 US Highway 27 N,,Sebring,FL,33870,1224,HIGHLANDS,Convenience Store,27.538277,-81.504211,,,-9073007.266027527,3190884.8168020193
1635845,Shell Food Mart,1901 N State Road 7,,Lauderdale Lakes,FL,33313,7052,BROWARD,Convenience Store,26.150965,-80.203308,,,-8928191.406496085,3017790.6511853174
1366608,JL Food Mart,10045 San Jose Blvd,,Jacksonville,FL,32257,5835,DUVAL,Grocery Store,30.194832,-81.622475,,,-9086172.354286702,3528618.3448248883
1621876,Gilray Mobil,6017 W Linebaugh Ave,,Tampa,FL,33625,5644,HILLSBOROUGH,Convenience Store,28.040873,-82.542732,,,-9188614.894925648,3254127.9178226846
1436065,Sebring Raceway 0994,5100 US Highway 27 S,,Sebring,FL,33870,5657,HIGHLANDS,Convenience Store,27.452576,-81.420265,,,-9063662.440053394,3180129.8222543527
1627389,Beach Food Store,625 N Beach St,,Daytona Beach,FL,32114,2252,VOLUSIA,Convenience Store,29.224438,-81.024475,,,-9019603.298792323,3404243.0944949393
1641319,Total Supermarket,5400 NW 2nd Ave,,Miami,FL,33127,1710,MIAMI DADE,Supermarket,25.825403,-80.20034,,,-8927861.01024741,2977472.378098669
1637771,7-eleven Store #42362a 42362A,2308 Ocoee Apopka Rd,,Ocoee,FL,34761,    ,ORANGE,Convenience Store,28.603247,-81.552864,,,-9078423.293213092,3325244.534441858
1631608,Mei's Market,6740 Stirling Rd,,Hollywood,FL,33024,1844,BROWARD,Supermarket,26.045452,-80.2239,,,-8930483.6974505,3004711.4581895554
1151469,Kwik Stop,12615 NW 17th Ave,,Miami,FL,33167,2247,MIAMI DADE,Convenience Store,25.889898,-80.226768,,,-8930802.961750096,2985450.717436734
885668,Causeway Marathon 1,2829 US Highway 301 S,,Riverview,FL,33578,0058,HILLSBOROUGH,Convenience Store,27.922195,-82.350334,,,-9167197.247536004,3239167.8958941125
1625154,Tu Market Express,4725 NW 79th Ave,,Doral,FL,33166,5403,MIAMI DADE,Grocery Store,25.81698,-80.324638,,,-8941697.800314032,2976430.733911067
1365014,Tim Millers Fresh Seafood,18029 Highway 231,,Fountain,FL,32438,5116,BAY,Other,30.475088,-85.421806,,,-9509111.946561802,3564765.324165849
1628907,Red Dot 9176262353,3006 N Davis Hwy,,Pensacola,FL,32503,3557,ESCAMBIA,Convenience Store,30.443779,-87.214783,,,-9708705.233205853,3560721.9954501432
1615892,Las Americas Mini Market 1,675 SW 3rd St,,Miami,FL,33130,2311,MIAMI DADE,Convenience Store,25.771061,-80.205795,,,-8928468.258069687,2970753.3869372876
1635767,Dollar General 31428,600 Seabreeze Blvd,,Daytona Beach,FL,32118,3921,VOLUSIA,Other,29.234951,-81.013084,,,-9018335.2584727,3405584.1546796695
1623521,Gary's Choice Meats,2341 S Ridgewood Ave,,Edgewater,FL,32141,4228,VOLUSIA,Grocery Store,28.963886,-80.889816,,,-9004613.127481593,3371050.3344236356
1624517,Eliane Caribbean Market Inc,2201 Seacrest Blvd,Unit D,Delray Beach,FL,33444,4257,PALM BEACH,Other,26.485916,-80.071007,,,-8913463.726544643,3059389.259398048
1632686,Young Family Farmacy,10302 McIntosh Rd,,Dover,FL,33527,3726,HILLSBOROUGH,Farmers and Markets,28.045498,-82.249985,,,-9156026.44795439,3254711.258457216
1366187,Super Discount,1943 NW US Highway 19,,Crystal River,FL,34428,6167,CITRUS,Convenience Store,28.91404,-82.608307,,,-9195914.670534417,3364709.7957310323
1632037,Asian Market 365,1365 SW Gatlin Blvd,,Port Saint Lucie,FL,34953,4102,ST LUCIE,Grocery Store,27.263397,-80.390625,,,-8949043.439553007,3156418.44127912
1452652,Chevron,7100 W McNab Rd,,North Lauderdale,FL,33068,5457,BROWARD,Convenience Store,26.207977,-80.220757,,,-8930133.820290938,3024862.670895344
1631788,7-eleven Store #33107b 33107B,8705 US Highway 301 N,,Parrish,FL,34219,8674,MANATEE,Convenience Store,27.542591,-82.476563,,,-9181248.995539347,3191426.421111369
1634919,Las Brisas Minimarket,9125 Old Memorial Hwy,Ste 001,Tampa,FL,33615,3756,HILLSBOROUGH,Convenience Store,28.002924,-82.587753,,,-9193626.609720653,3249342.4441556386
1620392,Sa Express Daytona,1379 Beville Rd,,Daytona Beach,FL,32119,1529,VOLUSIA,Convenience Store,29.170942,-81.038147,,,-9021125.25887045,3397421.1640962986
1627827,Super Star Discount,5659 Johnson St,,Hollywood,FL,33021,5631,BROWARD,Convenience Store,26.018064,-80.201057,,,-8927940.82632231,3001318.4192814827
1620154,7-Eleven Store #42138A 42138A,2220 International Gold Pkwy,,St. Augustine,FL,32095,    ,ST JOHNS,Convenience Store,29.988876,-81.452087,,,-9067204.848889418,3502120.0371501157
1338407,Beaver Quick Mart,5605 W Beaver St,,Jacksonville,FL,32254,2858,DUVAL,Convenience Store,30.325788,-81.743813,,,-9099679.638660576,3545495.9687340553
1623415,Hallandale Texaco,126 N Federal Hwy,,Hallandale Beach,FL,33009,4353,BROWARD,Convenience Store,25.987423,-80.142059,,,-8921373.199004488,2997523.3115403624
1641098,Sprouts Farmers Market 647,2222 N Congress Ave,,Boynton Beach,FL,33426,8604,PALM BEACH,Supermarket,26.547485,-80.089012,,,-8915468.033976376,3067048.8453877256
1625343,Joe International Market,1659 Saint Johns Bluff Rd S,,Jacksonville,FL,32246,8743,DUVAL,Other,30.323145,-81.522621,,,-9075056.65785303,3545155.115835863
1634722,Goco 3,5703 W Jackson St,,Pensacola,FL,32506,4629,ESCAMBIA,Convenience Store,30.416594,-87.292236,,,-9717327.261726264,3557212.30437229
1631306,Food Mart,4252 S Orange Blossom Trl,,Orlando,FL,32839,1239,ORANGE,Convenience Store,28.500198,-81.39743,,,-9061120.45948113,3312184.9404404904
1632273,7-Eleven Store #42157A 42157A,5513 Orange Ave,,Fort Pierce,FL,34947,1310,ST LUCIE,Convenience Store,27.446993,-80.381958,,,-8948078.633526303,3179429.477330262
243111,Food Max,1400 18th Ave S,,Saint Petersburg,FL,33705,2502,PINELLAS,Convenience Store,27.751747,-82.653473,,,-9200942.526655586,3217710.66658722
243350,DOLLAR GENERAL 4701,10354 Roosevelt Blvd N,,Saint Petersburg,FL,33716,    ,PINELLAS,Other,27.866444,-82.64257,,,-9199728.810247468,3232145.8446122953
243781,PUBLIX 0698,601 WELDON BLVD,,LAKE MARY,FL,32746,    ,SEMINOLE,Supermarket,28.737141,-81.305428,,,-9050878.843689168,3342232.3251770623
243888,PUBLIX  0714,4870 Biscayne Blvd,,Miami,FL,33137,3215,MIAMI DADE,Supermarket,25.820196,-80.187569,,,-8926439.349030487,2976828.4371110373
244238,PUBLIX 0770,8301 Champions Gate Blvd,,Champions Gate,FL,33896,8389,OSCEOLA,Supermarket,28.261683,-81.619804,,,-9085875.019926794,3282006.26884046
250991,Handy Food Stores 85,1400 County Road 78,,Labelle,FL,33935,    ,HENDRY,Convenience Store,26.769299,-81.457489,,,-9067806.196778681,3094678.15642127
251071,Handy Food Stores 67,1502 Gulf City Rd,,Ruskin,FL,33570,2729,HILLSBOROUGH,Convenience Store,27.700684,-82.456871,,,-9179056.892126648,3211289.032549958
251229,CVS PHARMACY 0453,15050 N Cleveland Ave,,North Fort Myers,FL,33903,2773,LEE,Other,26.682713,-81.901512,,,-9117234.611039184,3083886.5497188186
251379,Tom Thumb 900110,180 Highway 331 S,,Defuniak Springs,FL,32433,    ,WALTON,Convenience Store,30.719536,-86.121719,,,-9587025.905321393,3596378.869406947
251592,PUBLIX  571,11750 SE Federal Hwy,,Hobe Sound,FL,33455,5303,MARTIN,Supermarket,27.061253,-80.13752,,,-8920867.919835776,3131126.5885198824
251776,Peanuts Country Store,9595 Atlantic Ave,,Delray Beach,FL,33446,9738,PALM BEACH,Convenience Store,26.454218,-80.196983,,,-8927487.310716817,3055447.4207005342
251813,DOLLAR GENERAL  2704,5170 S Conway Rd,,Orlando,FL,32812,1252,ORANGE,Other,28.480783,-81.330925,,,-9053717.156745924,3309725.869966507
1635986,Silou Mart,437 Martin Luther King Blvd NE,,Winter Haven,FL,33881,2547,POLK,Grocery Store,28.044188,-81.721962,,,-9097247.196467252,3254546.0286178263
254914,Walmart Supercenter 1224,2650 Creighton Rd,,Pensacola,FL,32504,7382,ESCAMBIA,Super Store,30.495211,-87.192146,,,-9706185.293892764,3567364.7490219637
255031,Walmart Supercenter 1083,6830 Normandy Blvd,,Jacksonville,FL,32205,1902,DUVAL,Super Store,30.302183,-81.761261,,,-9101621.941135937,3542452.089776501
255217,WINN DIXIE  743,4849 Golden Gate Pkwy,,Naples,FL,34116,6951,COLLIER,Supermarket,26.180868,-81.70607,,,-9095478.107119566,3021499.5196670447
255331,LAWHON'S,9491 Bayshore Rd,,N Ft Myers,FL,33917,3724,LEE,Grocery Store,26.715012,-81.802063,,,-9106163.998999285,3087911.1608172175
253266,PUBLIX 0433,14444 BEACH BLVD,STE 6,JACKSONVILLE,FL,32250,    ,DUVAL,Supermarket,30.287813,-81.43618,,,-9065434.089749368,3540599.428510763
253270,CVS Pharmacy 3638,10623 Gibsonton Dr,,Riverview,FL,33578,5404,HILLSBOROUGH,Other,27.856993,-82.327362,,,-9164640.0161935,3230955.81339268
253654,CVS Pharmacy 3953,611 Manatee Ave,,Holmes Beach,FL,34217,1920,MANATEE,Other,27.497065,-82.708138,,,-9207027.8066198,3185711.8969961167
253665,PUBLIX  659,2015 Edgewater Dr,,Orlando,FL,32804,5311,ORANGE,Supermarket,28.570171,-81.389389,,,-9060225.33945566,3321051.357423358
1628810,Argent Fresh Market,2039 NE 163rd St,,North Miami Beach,FL,33162,4901,MIAMI DADE,Other,25.926165,-80.159164,,,-8923277.318894507,2989939.032719852
254264,CIRCLE K 2708815,3032 N Roosevelt Blvd,,Key West,FL,33040,4016,MONROE,Convenience Store,24.567837,-81.769569,,,-9102546.783465449,2822755.7670258996
254294,Walmart Supercenter 3484,2951 S Blue Angel Pkwy,,Pensacola,FL,32506,6906,ESCAMBIA,Super Store,30.361147,-87.359161,,,-9724777.318647604,3550056.9059042544
254313,PUBLIX  0398,15151 N Dale Mabry Hwy,,Tampa,FL,33618,1818,HILLSBOROUGH,Supermarket,28.087282,-82.503899,,,-9184292.025139673,3259982.516261778
244734,CIRCLE K 2707105,4347 NE Highway 17,,Arcadia,FL,34266,5681,DESOTO,Convenience Store,27.258144,-81.841728,,,-9110579.4866016,3155760.6160376626
244835,CIRCLE K 2707321,7695 SR 60 E,,ALTURAS,FL,33830,    ,POLK,Convenience Store,27.916119,-81.718376,,,-9096848.004773268,3238402.4248211877
245078,DOLLAR GENERAL 0614,2028 S Jefferson St,,Perry,FL,32348,5617,TAYLOR,Other,30.100323,-83.583015,,,-9304418.668766547,3516451.958941771
245316,KWIK STOP 814,6100 Washington St,,Hollywood,FL,33023,1369,BROWARD,Convenience Store,26.002594,-80.209602,,,-8928892.051371137,2999402.2250240888
245372,Circle K 2722234,1701 N Volusia Ave,,Orange City,FL,32763,2825,VOLUSIA,Convenience Store,28.963629,-81.298874,,,-9050149.255746508,3371017.635540953
252153,CVS Pharmacy 5204,955 W 23rd St,,Panama City,FL,32405,3928,BAY,Other,30.18977,-85.675232,,,-9537323.199835576,3527966.4049552605
252211,Walgreens 03131,1920 Aloma Ave,,Winter Park,FL,32792,3207,ORANGE,Other,28.600412,-81.327209,,,-9053303.493518135,3324885.0784390275
252577,Publix 1450,1660 Taylor Rd,,Port Orange,FL,32128,6753,VOLUSIA,Supermarket,29.104656,-81.032486,,,-9020495.07923307,3388973.1540354267
253106,Food Bazaar International,202 W Hillsboro Blvd,,Deerfield Bch,FL,33441,3312,BROWARD,Super Store,26.318569,-80.104897,,,-8917236.344087627,3038590.878157306
1626917,Lynn's Country Store,1437 Fl GA Hwy,,Havana,FL,32333,4541,GADSDEN,Convenience Store,30.572294,-84.395393,,,-9394852.174058205,3577327.0644722506
1632413,Farm Stores,4741 SW 8th St,,Coral Gables,FL,33134,2546,MIAMI DADE,Convenience Store,25.764339,-80.272369,,,-8935879.241849758,2969922.4747208366
250051,Walmart STORE  1845,4700 S Flamingo Rd,,Cooper City,FL,33330,2300,BROWARD,Super Store,26.062426,-80.313286,,,-8940434.101454549,3006814.727439084
250302,CVS Pharmacy 3961,2 S Federal Hwy,,Deerfield Beach,FL,33441,4127,BROWARD,Other,26.317472,-80.090691,,,-8915654.939401418,3038454.6390925664
250764,CIRCLE K 2707418,1805 Elkcam Blvd,,Deltona,FL,32725,3997,VOLUSIA,Convenience Store,28.917492,-81.221901,,,-9041580.660581678,3365148.8007000596
250854,CVS Pharmacy 1277,6690 Eagle Nest Ln,,Miami Lakes,FL,33014,2264,MIAMI DADE,Other,25.914749,-80.308617,,,-8939914.350752033,2988526.067614159
1638315,Dollar General 30706,7769 Lund Rd,,Milton,FL,32570,6246,SANTA ROSA,Other,30.675753,-86.994804,,,-9684217.28294064,3590710.7067895257
1633943,Pc Fireworks Plus,18844 Highway 231,,Fountain,FL,32438,2820,BAY,Convenience Store,30.4904,-85.416588,,,-9508531.081458842,3566743.2305199937
1613949,Lillian Food Mart,7014 Lillian Hwy,,Pensacola,FL,32506,4438,ESCAMBIA,Convenience Store,30.420877,-87.306198,,,-9718881.50445672,3557765.191716168
1638444,ALDI 74227,252 Harbor Village Ln,,Apollo Beach,FL,33572,3424,HILLSBOROUGH,Supermarket,27.751974,-82.41256,,,-9174124.214170106,3217739.220608849
1631514,Florida Mobil,101 W Bearss Ave,,Tampa,FL,33613,1219,HILLSBOROUGH,Convenience Store,28.088446,-82.460014,,,-9179406.76928621,3260129.38996227
1627503,Happy Dave's Of Summerfield LLC,16644 US Highway 441,,Summerfield,FL,34491,8684,MARION,Convenience Store,28.980221,-81.986549,,,-9126700.886577772,3373128.8521913085
255578,Walmart 973,5100 OKEECHOBEE RD,,FORT PIERCE,FL,34947,    ,ST LUCIE,Super Store,27.421408,-80.377937,,,-8947631.017853824,3176220.4867356485
1635312,Turkey Town Farm LLC,47333 Turkey Town Ln,,Hilliard,FL,32046,3008,NASSAU,Farmers and Markets,30.715246,-81.817528,,,-9107885.554924402,3595823.370821408
1630613,Large Food Store Inc,257 E 21st St,,Jacksonville,FL,32206,2143,DUVAL,Convenience Store,30.357464,-81.649437,,,-9089173.750397472,3549581.76095302
255674,CIRCLE K 2707495,3414 Tampa Rd,,Palm Harbor,FL,34684,3530,PINELLAS,Convenience Store,28.067373,-82.721596,,,-9208525.944326896,3257470.642011749
1564757,Dollar Tree 9719,1415 Garden St,,Titusville,FL,32796,3314,BREVARD,Other,28.614882,-80.819565,,,-8996792.821933875,3326719.863759708
255845,WINN DIXIE 2206,15912 E STATE RD #40,,SILVER SPRINGS,FL,34488,5144,MARION,Supermarket,29.182579,-81.889542,,,-9115902.11673439,3398904.837691956
255920,CIRCLE K 2707447,15831 US Highway 19,,Hudson,FL,34667,3602,PASCO,Convenience Store,28.38759,-82.67131,,,-9202928.132412866,3297928.4894480505
242756,CIRCLE K 2707506,2301 S 35th St,,Fort Pierce,FL,34981,5511,ST LUCIE,Convenience Store,27.424999,-80.360497,,,-8945689.605934387,3176670.8419152945
243019,PUBLIX  0751,9201 Oakhurst Rd,,Seminole,FL,33776,2158,PINELLAS,Supermarket,27.857063,-82.830544,,,-9220653.98020984,3230964.6271246397
243076,PUBLIX 0215,4711 Babcock St NE,,Palm Bay,FL,32905,2805,BREVARD,Supermarket,28.03237,-80.621758,,,-8974773.04741853,3253055.519384337
1561188,Quik Stop,6695 N Carl G Rose Hwy,,Hernando,FL,34442,2122,CITRUS,Convenience Store,28.960682,-82.37661,,,-9170122.278476087,3370642.6856729817
1565165,Wawa Store 5375,1503 E Oak St,,Arcadia,FL,34266,8520,DESOTO,Convenience Store,27.210032,-81.841881,,,-9110596.51848369,3149737.0675723534
270103,GATE PETROLEUM 1145,277 Blanding Blvd,,Orange Park,FL,32073,3358,CLAY,Convenience Store,30.172607,-81.746193,,,-9099944.579048665,3525756.2149647744
270424,PUBLIX 0767,7037 Ridge Rd,,Port Richey,FL,34668,6849,PASCO,Supermarket,28.280645,-82.698151,,,-9205916.058865247,3284403.001245559
270497,Baggs Produce,2485 S Sanford Ave,,Sanford,FL,32771,4449,SEMINOLE,Other,28.78701,-81.264763,,,-9046352.036596058,3348565.009802437
270764,Circle K 2721181,553 N Main St,,Williston,FL,32696,2140,LEVY,Convenience Store,29.394167,-82.448685,,,-9178145.630775012,3425910.959192269
246834,PUBLIX  0140,120 Carillon Pkwy,,St Petersburg,FL,33716,1201,PINELLAS,Supermarket,27.89267,-82.662674,,,-9201966.777290374,3235448.658917573
245647,CVS Pharmacy 4629,6025 SE US Highway 301,,Hawthorne,FL,32640,7316,ALACHUA,Other,29.59815,-82.086731,,,-9137853.095804423,3451999.6516487105
246945,PUBLIX 0044,7805 Bird Rd,,Miami,FL,33155,3547,MIAMI DADE,Supermarket,25.73324,-80.321289,,,-8941324.991339365,2966078.9126070226
234807,Walgreens 3128,5709 Gunn Hwy,,Tampa,FL,33625,4104,HILLSBOROUGH,Other,28.061577,-82.542458,,,-9188584.39338517,3256739.461063355
234824,Food Giant 600,9511 N Century Blvd,,Century,FL,32535,    ,ESCAMBIA,Supermarket,30.996843,-87.259865,,,-9713723.738489795,3632339.1536252685
247122,PUBLIX 1376,4115 NW 16th Blvd,,Gainesville,FL,32605,3505,ALACHUA,Supermarket,29.673023,-82.386696,,,-9171245.04686023,3461588.8607300296
234847,CVS Pharmacy 5148,1904 W Lumsden Rd,,Brandon,FL,33511,8817,HILLSBOROUGH,Other,27.923388,-82.31546,,,-9163315.091614079,3239318.1983444938
267157,PUBLIX  0553,1339 W Palmetto Park Rd,,Boca Raton,FL,33486,3303,PALM BEACH,Supermarket,26.351112,-80.112259,,,-8918055.878178846,3042633.0586816445
267196,CVS Pharmacy 4099,1390 S Jefferson St,,Monticello,FL,32344,1636,JEFFERSON,Other,30.532934,-83.870255,,,-9336394.079302007,3572239.134925683
267329,WINN DIXIE  640,1296 County Road 1,,Dunedin,FL,34698,4610,PINELLAS,Supermarket,28.021847,-82.763603,,,-9213202.142176649,3251728.4758420466
267447,TARGET STORE T-1795,1771 Dunlawton Ave,,Port Orange,FL,32127,4757,VOLUSIA,Super Store,29.109297,-81.026482,,,-9019826.717010347,3389564.4623456146
267558,CVS Pharmacy 4357,283 SW Baya Dr,,Lake City,FL,32025,5227,COLUMBIA,Other,30.183973,-82.640274,,,-9199473.220696606,3527219.844884619
267602,Dollar General 7351,3570 W Burleigh Blvd,,Tavares,FL,32778,5802,LAKE,Other,28.816364,-81.763634,,,-9101886.102287589,3352293.9843269726
267658,MAGEE FIELD GROCERY,2422 N Davis Hwy,,Pensacola,FL,32503,3831,ESCAMBIA,Grocery Store,30.438316,-87.213921,,,-9708609.275804788,3560016.6219873917
272357,PUBLIX 0153,110 Watercolor Way,,Santa Rosa Beach,FL,32459,7354,WALTON,Supermarket,30.328163,-86.126389,,,-9587545.767343398,3545802.267019999
235314,PUBLIX 0814,2595 N Atlantic Ave,,Daytona Beach,FL,32118,3203,VOLUSIA,Supermarket,29.263229,-81.026268,,,-9019802.894639317,3409192.038943259
236187,Publix 1283,5858 Atlantic Blvd,,Jacksonville,FL,32207,2223,DUVAL,Supermarket,30.313635,-81.601189,,,-9083802.807605676,3543928.740499677
247312,JONES FISH HOUSE,12147 US HIGHWAY 441,,CANAL POINT,FL,33438,    ,PALM BEACH,Specialty Store,26.855915,-80.635857,,,-8976342.540919224,3105481.73658124
245854,PUBLIX 0328,20425 Old Cutler Rd,,Cutler Bay,FL,33189,1833,MIAMI DADE,Supermarket,25.5776,-80.338058,,,-8943191.707880478,2946858.254656033
247353,PUBLIX  1107,11950 W Forest Hill Blvd,,Wellington,FL,33414,6248,PALM BEACH,Supermarket,26.652765,-80.234024,,,-8931610.69597529,3080155.903194165
247410,DOLLAR GENERAL 2966,827 E Semoran Blvd,,Apopka,FL,32703,5516,ORANGE,Other,28.673159,-81.494072,,,-9071878.597710373,3334111.905695862
271447,Winn-Dixie 0655,6033 State Road 54,,New Port Richey,FL,34653,6002,PASCO,Supermarket,28.217167,-82.71476,,,-9207764.964287832,3276381.2723240056
271513,CVS Pharmacy 3433,14411 Palm Beach Blvd,,Fort Myers,FL,33905,2334,LEE,Other,26.709534,-81.722206,,,-9097274.358423006,3087228.495246396
271897,Walgreens 11939,8450 Coral Way,,Miami,FL,33155,2334,MIAMI DADE,Other,25.747473,-80.331238,,,-8942432.508953268,2967837.86100301
268176,CVS Pharmacy 3652,7621 North State Rd 7,,Parkland,FL,33428,6654,PALM BEACH,Other,26.325432,-80.202911,,,-8928147.21265824,3039443.239899295
268184,PUBLIX 669,1700 NE Miami Gardens Dr,,North Miami Beach,FL,33179,5301,MIAMI DADE,Supermarket,25.945822,-80.167068,,,-8924157.188149735,2992372.3120754953
269075,Walgreens 3172,7512 Lem Turner Rd,,Jacksonville,FL,32208,3353,DUVAL,Other,30.388071,-81.677345,,,-9092280.45474653,3553530.9230264896
268211,PUBLIX  0891,30535 US Highway 19 N,,Palm Harbor,FL,34684,4415,PINELLAS,Supermarket,28.049522,-82.738441,,,-9210401.121149309,3255218.8167488137
269079,CVS PHARMACY 4076,2901 CLINT MOORE RD,,BOCA RATON,FL,33496,    ,PALM BEACH,Other,26.408037,-80.14518,,,-8921720.627135253,3049706.4743563915
248491,PUBLIX  0893,1850 N Courtenay Pkwy,,Merritt Island,FL,32953,2629,BREVARD,Supermarket,28.389246,-80.703308,,,-8983851.151892722,3298138.033281473
248782,Winn-Dixie 0551,4512 E Highway 20,,Niceville,FL,32578,9755,OKALOOSA,Supermarket,30.486397,-86.420143,,,-9620246.313041884,3566226.1185087957
248784,CVS Pharmacy 5190,430 State Road 13,,Jacksonville,FL,32259,2835,ST JOHNS,Other,30.119806,-81.625626,,,-9086523.12200219,3518959.102205415
248940,CIRCLE K 2707112,12850 Morris Bridge Rd,,Thonotosassa,FL,33592,2432,HILLSBOROUGH,Convenience Store,28.080229,-82.328949,,,-9164816.68022539,3259092.6016805614
248957,PUBLIX  0410,7101 Radio Rd,,Naples,FL,34104,6706,COLLIER,Supermarket,26.154409,-81.721626,,,-9097209.793118346,3018217.7619857527
248958,Walmart Supercenter 943,1239 State Road 436,Ste 101,Casselberry,FL,32707,6447,SEMINOLE,Super Store,28.635803,-81.320892,,,-9052600.288294796,3329373.0781684895
269192,Walmart 925,11720 Martin Luther King Blvd,,Seffner,FL,33584,4923,HILLSBOROUGH,Super Store,27.981661,-82.301514,,,-9161762.629995476,3246661.8580086506
246307,DOLLAR GENERAL  1499,1633 Sun City Center Plz,,Sun City Ctr,FL,33573,5303,HILLSBOROUGH,Other,27.714165,-82.35508,,,-9167725.569839308,3212984.0980352075
247740,PUBLIX 0144,40932 US Highway 19 N,,Tarpon Springs,FL,34689,5446,PINELLAS,Supermarket,28.144232,-82.740501,,,-9210630.439300343,3267170.344861831
268333,PUBLIX  0831,19221 Dale Mabry Hwy N,,Lutz,FL,33548,5067,HILLSBOROUGH,Supermarket,28.158035,-82.483063,,,-9181972.572229505,3268913.0376146715
246589,PUBLIX  0118,3551 US Highway 441 S,,Okeechobee,FL,34974,6247,OKEECHOBEE,Supermarket,27.210541,-80.829964,,,-8997950.433318635,3149800.779970664
268427,CVS Pharmacy 2898,813 W Bearss Ave,,Tampa,FL,33613,1233,HILLSBOROUGH,Other,28.088228,-82.467552,,,-9180245.895607809,3260101.8825672767
247856,PUBLIX  0850,601 S Andrews Ave,,Ft Lauderdale,FL,33301,2833,BROWARD,Supermarket,26.114269,-80.14328,,,-8921509.120102746,3013240.5455254894
246604,FLOWERS BAKERY 103,6141 Mobile Hwy,,Pensacola,FL,32526,1211,ESCAMBIA,Specialty Store,30.463419,-87.302261,,,-9718443.239621466,3563258.2061258233
246677,WINN DIXIE  630,1010 53rd Ave E,,Bradenton,FL,34203,4804,MANATEE,Supermarket,27.447634,-82.55397,,,-9189865.903363183,3179509.8841079352
269467,Ryan's Meat Market and Deli,7925 38th Ave N,Ste 1,Saint Petersburg,FL,33710,1138,PINELLAS,Specialty Store,27.806417,-82.74807,,,-9211473.016526157,3224589.2523414646
268602,Presidente Supermarket 5,450 NE 125th St,,North Miami,FL,33161,4754,MIAMI DADE,Supermarket,25.890116,-80.189537,,,-8926658.42578837,2985477.6924625663
247954,DOLLAR GENERAL  4465,158 N Highway 71,,Wewahitchka,FL,32465,4034,GULF,Other,30.11445,-85.19976,,,-9484393.898909118,3518269.823377093
269626,CIRCLE K 2705176,4815 Kerry Forest Pkwy,,Tallahassee,FL,32309,2273,LEON,Convenience Store,30.536772,-84.215195,,,-9374792.624456238,3572735.169005958
234226,CVS Pharmacy 3919,2077 N Military Trl,,West Palm Beach,FL,33409,3191,PALM BEACH,Other,26.707644,-80.111176,,,-8917935.319170319,3086992.972028873
246779,Walmart Supercenter 2740,19910 Bruce B Downs Blvd,,Tampa,FL,33647,2446,HILLSBOROUGH,Super Store,28.15431,-82.353546,,,-9167554.805740431,3268442.7169586997
234482,7-Eleven 26850H,800 County Road 1,,Palm Harbor,FL,34683,    ,PINELLAS,Convenience Store,28.055996,-82.763687,,,-9213211.493013876,3256035.4402043168
234709,SMITH'S GROCERY & DELI INC,829 SR 17 & KOKOMO RD,,LAKE HAMILTON,FL,33851,    ,POLK,Convenience Store,28.043261,-81.621712,,,-9086087.417515228,3254429.1076496537
287745,WINN DIXIE 494,17184 Front Beach Rd,,Panama City Beach,FL,32413,2365,BAY,Supermarket,30.223974,-85.892616,,,-9561522.276022183,3532372.2233215347
1315839,Sams Food Mart,1103 N 13th St,,Fort Pierce,FL,34950,3218,ST LUCIE,Convenience Store,27.45981,-80.337135,,,-8943088.959990477,3181037.3253148026
287872,Dollar General 23873,400 N Navy Blvd,,Pensacola,FL,32507,2086,ESCAMBIA,Other,30.394106,-87.277946,,,-9715736.506202828,3554309.753392858
287915,Circle K 2722548,11735 SW State Road 231,,Brooker,FL,32622,3069,BRADFORD,Convenience Store,29.887823,-82.336823,,,-9165693.209895896,3489138.670338118
287928,MOSQUITO CREEK GROCERY,5500 State Road 70 E,,Okeechobee,FL,34972,7967,OKEECHOBEE,Grocery Store,27.254034,-80.768524,,,-8991110.963804295,3155245.9486233974
288775,WALGREEN 04618,12001 Southern Blvd,,Loxahatchee,FL,33470,4994,PALM BEACH,Other,26.681877,-80.247711,,,-8933134.325845778,3083782.3952331203
288526,WINN-DIXIE 0250,17101 Miramar Pkwy,,Miramar,FL,33027,4565,BROWARD,Supermarket,25.978699,-80.374489,,,-8947247.188249568,2996442.9625198157
288538,Circle K 2726051,2652 SE State Road 21,,Melrose,FL,32666,5301,BRADFORD,Convenience Store,29.755117,-82.057083,,,-9134552.695541386,3472111.0947480244
288597,PUBLIX 0012,600 N University Dr,,Pembroke Pines,FL,33024,6731,BROWARD,Supermarket,26.01519,-80.248505,,,-8933222.713521468,3000962.411672893
288724,Sedano's 9,4040 E 4th Ave,,Hialeah,FL,33013,2302,MIAMI DADE,Supermarket,25.858931,-80.274681,,,-8936136.612512473,2981619.4084937996
288736,MILTON'S COUNTRY STORE INC.,12049 N US Highway 441,,Lake City,FL,32055,5205,SUWANNEE,Convenience Store,30.360117,-82.618256,,,-9197022.18814832,3549924.023488669
288766,PUBLIX  0027,13900 CR 455,,Clermont,FL,34711,9052,LAKE,Supermarket,28.547663,-81.68232,,,-9092834.269213226,3318198.6818119227
283429,PUBLIX  0674,18409 Miramar Pkwy,,Miramar,FL,33029,5802,BROWARD,Supermarket,25.978708,-80.392342,,,-8949234.5751187,2996444.0770063843
236286,Greer's 5,3873 Scotts Plaza Dr,,Jay,FL,32565,4001,SANTA ROSA,Grocery Store,30.950644,-87.151924,,,-9701707.801334077,3626340.984741176
288849,Flowers Bakery Outlet 30,4990 S Orange Blossom Trl,,Kissimmee,FL,34758,2039,OSCEOLA,Specialty Store,28.255138,-81.483635,,,-9070716.756184965,3281179.1020706696
1597766,Dollar General 30037,29 NE 300th St,,Cross City,FL,32628,    ,DIXIE,Other,29.610334,-83.084297,,,-9248901.634957107,3453559.607532481
237487,WINN DIXIE 123,5647 Roosevelt Blvd,,Jacksonville,FL,32244,2301,DUVAL,Supermarket,30.245487,-81.697098,,,-9094479.348648168,3535144.0984704397
237488,GATE PETROLEUM 1445,506 NW 13th St,,Gainesville,FL,32601,4907,ALACHUA,Convenience Store,29.656073,-82.339294,,,-9165968.280357646,3459417.3990557115
285369,CVS Pharmacy 3959,8641 NW 186th St,,Hialeah,FL,33015,2553,MIAMI DADE,Other,25.94245,-80.34153,,,-8943578.209152514,2991954.8737503467
285605,CVS Pharmacy 5120,860 Avenida Central,,Lady Lake,FL,32159,7701,LAKE,Other,28.93659,-81.942039,,,-9121746.056042563,3367577.8356343624
283643,PUBLIX  628,243 Bayshore Blvd,,Tampa,FL,33606,2328,HILLSBOROUGH,Supermarket,27.942371,-82.459663,,,-9179367.696144942,3241710.0321632465
286890,PUBLIX 0610,5032 Capital Cir SW,Ste 1,Tallahassee,FL,32305,7886,LEON,Supermarket,30.375883,-84.291779,,,-9383317.916339152,3551958.180788116
237848,Kwik Stop 20,2711 SE Morningside Blvd,,Port Saint Lucie,FL,34952,5705,ST LUCIE,Convenience Store,27.259544,-80.310036,,,-8940072.313109469,3155935.9328818433
238008,PUBLIX  0084,2551 S le Jeune Rd,,Coral Gables,FL,33134,5805,MIAMI DADE,Supermarket,25.748051,-80.262611,,,-8934792.9862586,2967909.2960860305
283759,Tom Thumb 900059,159 S John Sims Pkwy,,Valparaiso,FL,32580,1270,OKALOOSA,Convenience Store,30.506832,-86.494034,,,-9628471.82153609,3568866.1575763747
239795,CVS PHARMACY 0104,1 S Missouri Ave,,Clearwater,FL,33756,5760,PINELLAS,Other,27.965193,-82.787628,,,-9215876.592942957,3244586.131613382
289087,CVS Pharmacy 710,1708 N Monroe St,,Tallahassee,FL,32303,5535,LEON,Other,30.463377,-84.28231,,,-9382263.832080828,3563252.7819119086
287017,CIRCLE K 2707334,10704 US Highway 98 N,,Lakeland,FL,33809,1016,POLK,Convenience Store,28.193127,-82.001038,,,-9128313.794679876,3273344.577638997
283918,Sedano's 18,12175 SW 26th St,,Miami,FL,33175,2467,MIAMI DADE,Supermarket,25.744488,-80.39183,,,-8949177.579539413,2967468.950059514
1588842,Hilltop Marathon,13851 7th St,,Dade City,FL,33525,4915,PASCO,Convenience Store,28.359394,-82.189476,,,-9149290.616885979,3294361.1787468405
283940,Apna Bazar,9404 S Orange Blossom Trl,,Orlando,FL,32837,8321,ORANGE,Supermarket,28.42408,-81.404755,,,-9061935.87475119,3302546.5518900994
286083,Circle K 2721651,2595 Emerson Dr SE,,Palm Bay,FL,32909,5248,BREVARD,Convenience Store,27.967819,-80.648598,,,-8977760.862551423,3244917.107314415
239930,CIRCLE K 2707456,1498 Good Homes Rd,,Orlando,FL,32818,5759,ORANGE,Convenience Store,28.562599,-81.504982,,,-9073093.093354927,3320091.610123284
226079,CITY DISCOUNT FOOD MART,8925 N Boulevard,,Tampa,FL,33604,1208,HILLSBOROUGH,Convenience Store,28.032593,-82.467781,,,-9180271.3877712,3253083.64306426
226091,CIRCLE K 2708616,2885 Howland Blvd,,Deltona,FL,32725,9620,VOLUSIA,Convenience Store,28.944048,-81.225777,,,-9042012.134927992,3368526.524677314
286147,WINN DIXIE 0262,15450 NW 77th Ct,,Miami Lakes,FL,33016,5822,MIAMI DADE,Supermarket,25.914015,-80.327225,,,-8941985.783836715,2988435.224678859
240028,El Noa Noa Supermarket,4215 N Armenia Ave,,Tampa,FL,33607,6458,HILLSBOROUGH,Grocery Store,27.978874,-82.484703,,,-9182155.136194404,3246310.5453826943
240052,CVS Pharmacy 1812,20019 Cortez Blvd,,Brooksville,FL,34601,3835,HERNANDO,Other,28.540178,-82.402885,,,-9173047.19809668,3317250.1641268684
286259,CVS Pharmacy 3119,131 N Congress Ave,,Boynton Beach,FL,33426,4209,PALM BEACH,Other,26.526075,-80.090599,,,-8915644.698008265,3064384.8356446982
286268,PUBLIX 0873,3100 Little Rd,,Trinity,FL,34655,1864,PASCO,Supermarket,28.203949,-82.666115,,,-9202349.827658195,3274711.5109550436
286271,CIRCLE K 2705941,3431 Southern Trce,,The Villages,FL,32162,7622,SUMTER,Convenience Store,28.927759,-82.008591,,,-9129154.590793839,3366454.5834793393
240186,Walgreens 3782,5701 NW 183rd St,,Hialeah,FL,33015,6022,MIAMI DADE,Other,25.939407,-80.294601,,,-8938354.096769076,2991578.1743942294
226300,D & D GROCERY,3519 Nichols Rd,,Lithia,FL,33547,4225,HILLSBOROUGH,Convenience Store,27.876253,-82.060234,,,-9134903.463256873,3233381.063489693
226328,CVS Pharmacy 3273,5555 N University Dr,,Lauderhill,FL,33351,5023,BROWARD,Other,26.193151,-80.25222,,,-8933636.265429765,3023023.255597193
287592,7DAYS FOOD STORE,2002 NW 1st Ave,,Ocala,FL,34475,9124,MARION,Convenience Store,29.20759,-82.136856,,,-9143432.985280436,3402094.2155456473
238636,Flowers Bakery Outlet 11,13200 Metro Pkwy # 50011,,Fort Myers,FL,33966,4703,LEE,Specialty Store,26.550261,-81.852852,,,-9111817.804617185,3067394.294743287
226528,PUBLIX 0705,857 W Bay Dr,,Largo,FL,33770,3221,PINELLAS,Supermarket,27.916733,-82.797951,,,-9217025.744046416,3238479.7762642703
226532,Winn Dixie 0236,941 W State Road 84,,Fort Lauderdale,FL,33315,2431,BROWARD,Supermarket,26.092592,-80.153336,,,-8922628.548902163,3010553.3859388903
286572,Sedano's 20,6430 NW 186th St,,Hialeah,FL,33015,6006,MIAMI DADE,Supermarket,25.942204,-80.304794,,,-8939488.776338732,2991924.420532489
240460,CVS PHARMACY 4062,407 E Base St,,Madison,FL,32340,2769,MADISON,Other,30.469482,-83.409866,,,-9285143.810255181,3564041.2546885726
238731,Walgreens 5297,42 Blanding Blvd,,Orange Park,FL,32073,2619,CLAY,Other,30.186529,-81.739494,,,-9099198.84977984,3527549.0110302162
238948,CVS Pharmacy 5183,660 E Highway 98,,Panama City,FL,32401,3612,BAY,Other,30.157639,-85.650833,,,-9534607.115579711,3523829.0034533725
239305,Walmart Neighborhood Market 5255,6216 Elliot Dr,,Tampa,FL,33615,2650,HILLSBOROUGH,Super Store,28.00577,-82.598083,,,-9194776.540060546,3249701.274119419
239460,CIRCLE K 2705932,1001 S Main St,,Wildwood,FL,34785,9425,SUMTER,Convenience Store,28.847082,-82.04557,,,-9133271.074243883,3356197.3596462207
229906,PUBLIX 0139,4655 GULF BOULEVARD,,ST PTRSBURG BCH,FL,33706,    ,PINELLAS,Supermarket,27.721693,-82.740097,,,-9210585.466226064,3213930.740117705
229956,WALGREEN 06016,101 N Main St,,Belle Glade,FL,33430,2601,PALM BEACH,Other,26.686527,-80.667686,,,-8979885.728991684,3084361.7331042453
230052,Broward Meat & Fish Company,3388 N State Road 7,,Lauderdale Lakes,FL,33319,5618,BROWARD,Super Store,26.168495,-80.203072,,,-8928165.135096258,3019964.7813788536
230090,Walmart 1362,15017 Emerald Coast Pkwy,,Destin,FL,32541,3358,OKALOOSA,Super Store,30.38954,-86.449623,,,-9623528.011630472,3553720.4963607504
230164,Winn-Dixie 0086,111 S Magnolia Dr Ste 39,,Tallahassee,FL,32301,2958,LEON,Supermarket,30.440821,-84.261726,,,-9379972.431682339,3560340.058509514
230278,Winn-Dixie 2266,7800 S US Highway 17/92,Ste 160,Fern Park,FL,32730,2259,SEMINOLE,Supermarket,28.65296,-81.350288,,,-9055872.636046154,3331549.3345303405
230553,CVS Pharmacy 3258,14988 Tamiami Trl,,North Port,FL,34287,    ,SARASOTA,Other,27.038185,-82.220383,,,-9152731.168387927,3128243.2707948647
230802,QUALITY POULTRY & SEAFOOD,1221 NW 40th Ave,,Lauderhill,FL,33313,5801,BROWARD,Grocery Store,26.141214,-80.202766,,,-8928131.071332073,3016581.4403898763
227750,Presco Food Store,4129 US Highway 17 N,,Bowling Green,FL,33834,9805,HARDEE,Convenience Store,27.63081,-81.825546,,,-9108778.114601584,3202506.611471259
262512,PUBLIX  0261,8250 Mills Dr,,Kendall,FL,33183,4805,MIAMI DADE,Supermarket,25.690786,-80.385864,,,-8948513.44745734,2960833.5953519032
258374,DOLLAR GENERAL 9377,4335 N Highway 231,,Panama City,FL,32404,9750,BAY,Other,30.226099,-85.589401,,,-9527768.536621299,3532645.995177712
226737,CVS Pharmacy 628,600 NE 128th St,,North Miami,FL,33161,4829,MIAMI DADE,Other,25.892998,-80.186325,,,-8926300.867583942,2985834.311936298
228724,PUBLIX 0103,11782 E Dr Martin Luther King Jr Blvd,,Seffner,FL,33584,4923,HILLSBOROUGH,Supermarket,27.981609,-82.298828,,,-9161463.625843206,3246655.3031151462
258434,WINN DIXIE  0129,3905 A1A S,,St Augustine,FL,32080,6933,ST JOHNS,Supermarket,29.82493,-81.271591,,,-9047112.126079196,3481066.018667307
259497,Walmart 817,4444 W VINE ST,,KISSIMMEE,FL,34746,    ,OSCEOLA,Super Store,28.301769,-81.458893,,,-9067962.489343757,3287073.5056776274
258519,CIRCLE K 2702382,92720 OVERSEAS HWY,,TAVERNIER,FL,33070,    ,MONROE,Convenience Store,25.017834,-80.511696,,,-8962521.00162284,2877935.2884381306
258619,Walmart S/C 5220,8220 N Dale Mabry Hwy,,Tampa,FL,33614,2686,HILLSBOROUGH,Super Store,28.022684,-82.50502,,,-9184416.81428885,3251834.0242095664
258701,CVS PHARMACY 3675,1 E Nine Mile Rd,,Pensacola,FL,32534,3136,ESCAMBIA,Other,30.533083,-87.273033,,,-9715189.59354456,3572258.3917455166
258710,Gordon Food Service Store MP128,2535 N Federal Hwy,,Ft Lauderdale,FL,33305,1620,BROWARD,Supermarket,26.158798,-80.117149,,,-8918600.230488827,3018762.0860945624
258832,CUMBERLAND FARMS 9568,2692 N Military Trl,,West Palm Beach,FL,33409,2911,PALM BEACH,Convenience Store,26.716879,-80.110611,,,-8917872.42365802,3088143.832911753
258882,WINN DIXIE 2333,5270 BABCOCK ST,,PALM BAY,FL,32905,    ,BREVARD,Supermarket,28.017305,-80.622253,,,-8974828.150566472,3251155.7294742716
259096,PUBLIX  0890,11109 Winthrop Market St,,Riverview,FL,33578,4252,HILLSBOROUGH,Supermarket,27.891773,-82.317932,,,-9163590.273395319,3235335.680539982
228751,WALGREENS  5870,14004 Walsingham Rd,,Largo,FL,33774,3232,PINELLAS,Other,27.880323,-82.832794,,,-9220904.449064126,3233893.619599924
228764,CVS Pharmacy 3445,11264 Beach Blvd,,Jacksonville,FL,32246,3802,DUVAL,Other,30.286753,-81.528358,,,-9075695.29777171,3540462.7780951764
259590,PUBLIX  0811,8585 Collier Blvd,,Naples,FL,34114,3548,COLLIER,Supermarket,26.112375,-81.687256,,,-9093383.742219782,3013005.738548824
259938,CVS Pharmacy 1127,6780 SW 40th St,,Miami,FL,33155,3753,MIAMI DADE,Other,25.733238,-80.304489,,,-8939454.823894039,2966078.6654570107
260103,CVS PHARMACY 5172,900 E Main St,,Lake Butler,FL,32054,1641,UNION,Other,30.023552,-82.32708,,,-9164608.624097096,3506577.592885033
262660,Walmart S/C  960,11012 N Williams St,,Dunnellon,FL,34432,8319,MARION,Super Store,29.06382,-82.453926,,,-9178729.056226261,3383771.4012330323
227904,Walgreens 2545,1480 NE Miami Gardens Dr,,N Miami Beach,FL,33179,4829,MIAMI DADE,Other,25.944832,-80.171196,,,-8924616.71500773,2992249.753320622
227927,Walmart Neighborhood Market 5221,8885 N Florida Ave,,Tampa,FL,33604,1415,HILLSBOROUGH,Super Store,28.031729,-82.459457,,,-9179344.764329838,3252974.67989348
226897,WALGREEN 04398,1477 Main St,,Dunedin,FL,34698,6243,PINELLAS,Other,28.019463,-82.764,,,-9213246.336014492,3251427.8503413135
262707,WINN DIXIE 2230,190 MALABAR ROAD SW,,PALM BAY,FL,32907,    ,BREVARD,Supermarket,27.999073,-80.674965,,,-8980696.023565168,3248856.9166622036
228991,CIRCLE K 2705168,813 LAKE BRADFORD RD,,TALLAHASSEE,FL,32304,    ,LEON,Convenience Store,30.433157,-84.302231,,,-9384481.427656922,3559350.536779118
227073,CUMBERLAND FARMS 9748,1498 SE Lennard Rd,,Port Saint Lucie,FL,34952,7842,ST LUCIE,Convenience Store,27.293152,-80.284805,,,-8937263.611037266,3160145.2017961508
227142,CVS Pharmacy 5180,6025 Mobile Hwy,,Pensacola,FL,32526,1234,ESCAMBIA,Other,30.462156,-87.30162,,,-9718371.883827867,3563095.0932867336
262839,Circle K 2722049,4140 W State Road 46,,Sanford,FL,32771,9001,SEMINOLE,Convenience Store,28.811777,-81.323776,,,-9052921.333706241,3351711.207225799
228196,CVS Pharmacy 5485,5801 Central Ave,,St Petersburg,FL,33710,8510,PINELLAS,Other,27.770948,-82.71254,,,-9207517.835018272,3220126.1447863523
1342329,Macks Market LLC,1513 35th St S,,Saint Petersburg,FL,33711,2822,PINELLAS,Convenience Store,27.755211,-82.681679,,,-9204082.404212901,3218146.4049182753
229231,WINN DIXIE  0171,727 W Noble Ave,,Williston,FL,32696,1515,LEVY,Supermarket,29.386234,-82.456726,,,-9179040.750800481,3424897.4164485796
228324,WALGREENS 5857,7420 State Road 54,,New Port Richey,FL,34653,6110,PASCO,Other,28.217003,-82.692039,,,-9205235.674137518,3276360.5537886345
228346,Jerry's Foods Sanibel 5626,1700 Periwinkle Way,,Sanibel,FL,33957,4334,LEE,Supermarket,26.442432,-82.058891,,,-9134753.96118074,3053982.0368644493
263010,CIRCLE K 2707169,5133 State Road 674,,Wimauma,FL,33598,3515,HILLSBOROUGH,Convenience Store,27.712473,-82.319855,,,-9163804.340776116,3212771.3389095096
260449,WINN DIXIE  657,5400 Fruitville Rd,,Sarasota,FL,34232,6403,SARASOTA,Supermarket,27.337772,-82.461502,,,-9179572.412688509,3165735.649306539
229338,PUBLIX 0467,7777 N WICKHAM RD,,MELBOURNE,FL,32940,    ,BREVARD,Supermarket,28.230713,-80.697922,,,-8983251.58511531,3278092.6826995686
228449,Graziano's,3922 SW 92nd Ave,,Miami,FL,33165,4100,MIAMI DADE,Other,25.733526,-80.34388,,,-8943839.809955876,2966114.2551015657
260474,CIRCLE K 2707423,4665 N US Highway 1,,Cocoa,FL,32927,6027,BREVARD,Convenience Store,28.446407,-80.763191,,,-8990517.296959896,3305372.9734305423
229432,Walmart Supercenter 706,7631 Gall Blvd,,Zephyrhills,FL,33541,4321,PASCO,Super Store,28.268064,-82.188324,,,-9149162.376832584,3282812.757951535
263220,LUCY MEAT MARKET,1708 NW 6th St,,Ft Lauderdale,FL,33311,7842,BROWARD,Convenience Store,26.129154,-80.165245,,,-8923954.25271802,3015086.032736522
227421,PUBLIX 0713,4765 HODGES BLVD,,JACKSONVILLE,FL,32224,    ,DUVAL,Supermarket,30.256662,-81.466408,,,-9068799.055317068,3536584.1977845705
263283,Tom Thumb 900057,1098 S Ferdon Blvd,,Crestview,FL,32536,4510,OKALOOSA,Convenience Store,30.7488,-86.563934,,,-9636253.05394254,3600168.832189282
260591,POLET'S GROCERY STORE 2 LLC,4030 Tamiami Trl,Ste E,Port Charlotte,FL,33952,8499,CHARLOTTE,Grocery Store,26.972183,-82.084206,,,-9137572.014090171,3119996.812198308
263344,Handy Food Stores 58,1040 State Road 29 S,,Labelle,FL,33935,9164,HENDRY,Convenience Store,26.746355,-81.437988,,,-9065635.355388723,3091817.741467183
231128,CUMBERLAND FARMS 9636,3505 S Hopkins Ave,,Titusville,FL,32780,5626,BREVARD,Convenience Store,28.576305,-80.804291,,,-8995092.528031498,3321828.8895650674
231285,FIRST STOP,598 Avenue J SE,,Winter Haven,FL,33880,3709,POLK,Convenience Store,28.012203,-81.718819,,,-9096897.319307689,3250512.3958954397
1592890,Sahara International Food,215 W SR 434,,Longwood,FL,32750,5113,SEMINOLE,Grocery Store,28.698166,-81.348999,,,-9055729.14522252,3337285.1343077645
263528,PUBLIX 0746,5001 SR 64 E,,BRADENTON,FL,34208,    ,MANATEE,Supermarket,27.496952,-82.500229,,,-9183883.482608462,3185697.7159285126
227599,CVS PHARMACY 3648,3634 Rogero Rd,,Jacksonville,FL,32277,2556,DUVAL,Other,30.365332,-81.588112,,,-9082347.082624571,3550596.835744416
261854,PUBLIX 0779,3450 BAYSIDE LAKES BLVD SE,,PALM BAY,FL,32909,    ,BREVARD,Supermarket,27.950375,-80.657059,,,-8978702.736763025,3242718.6519329217
261895,LA CENTRAL,1726 Okeechobee Rd,,Fort Pierce,FL,34950,3946,ST LUCIE,Convenience Store,27.443113,-80.342499,,,-8943686.077739092,3178942.781690952
1605488,99 Cents Plus,6518 W Atlantic Blvd,,Margate,FL,33063,5135,BROWARD,Convenience Store,26.234856,-80.212479,,,-8929212.31754615,3028198.061662153
261939,CIRCLE K 2705333,1890 N Roosevelt Blvd,,Key West,FL,33040,3631,MONROE,Convenience Store,24.559614,-81.784004,,,-9104153.680315048,2821749.3011664497
262214,DOLLAR GENERAL 1649,2531 N Woodland Blvd,,Deland,FL,32720,1301,VOLUSIA,Other,29.078901,-81.313751,,,-9051805.355811039,3385692.202185493
262273,WINN DIXIE 2220,3565 N Lecanto Hwy,Ste 491,Beverly Hills,FL,34465,3503,CITRUS,Supermarket,28.91613,-82.47113,,,-9180644.196745867,3364975.58784031
1601399,Market El Triunfo,1275 NW 1st St,,Miami,FL,33125,5742,MIAMI DADE,Convenience Store,25.774532,-80.21553,,,-8929551.95331256,2971182.458665543
231400,WINN DIXIE 0608,12649 US Highway 301,,Dade City,FL,33525,6067,PASCO,Supermarket,28.342178,-82.187614,,,-9149083.339994121,3292183.5052151284
263735,CVS Pharmacy 4440,434 Racetrack Rd NE,,Fort Walton Beach,FL,32547,3924,OKALOOSA,Other,30.441725,-86.598701,,,-9640123.298678951,3560456.781754025
260895,Walmart Supercenter 1220,2500 S Kirkman Rd,,Orlando,FL,32811,2345,ORANGE,Super Store,28.515381,-81.459312,,,-9068009.132210398,3314108.308338578
261025,CIRCLE K 2708808,3664 S Nova Rd,,Port Orange,FL,32129,4263,VOLUSIA,Convenience Store,29.137585,-81.010849,,,-9018086.459410775,3393169.2042066506
261064,CVS Pharmacy 5251,8809 New Tampa Blvd,,Tampa,FL,33647,3033,HILLSBOROUGH,Other,28.14373,-82.354317,,,-9167640.633067833,3267106.9692672747
261352,CIRCLE K 2707484,11091 Spring Hill Dr,,Spring Hill,FL,34608,5051,HERNANDO,Convenience Store,28.461477,-82.540718,,,-9188390.69747119,3307281.0534715154
229723,Flowers Bakery Outlet 55,5511 New Kings Rd,,Jacksonville,FL,32209,2128,DUVAL,Specialty Store,30.365322,-81.719841,,,-9097011.08782728,3550595.545561944
231720,CIRCLE K 1720,1900 E Nine Mile Rd,,Pensacola,FL,32514,7765,ESCAMBIA,Convenience Store,30.532228,-87.220642,,,-9709357.45410241,3572147.8916037185
231834,WARD'S SEAFOOD,1001 Belleair Rd,,Clearwater,FL,33756,7131,PINELLAS,Specialty Store,27.938913,-82.791801,,,-9216341.12917804,3241274.297266967
231938,CIRCLE K 2707211,5601 S Florida Ave,,Floral City,FL,34436,2014,CITRUS,Convenience Store,28.781221,-82.296715,,,-9161228.40775916,3347829.730284148
231955,PUBLIX  1578,11502 N 53rd St,,Temple Terrace,FL,33617,2245,HILLSBOROUGH,Supermarket,28.052322,-82.395592,,,-9172235.345050324,3255571.9997282964
275474,CVS Pharmacy 508,1205 W Vine St,,Kissimmee,FL,34741,4046,OSCEOLA,Other,28.304598,-81.41655,,,-9063248.888145098,3287431.1892235777
275611,MAS UNIDOS SUPERMARKET,832 SE 8th St,,Hialeah,FL,33010,5702,MIAMI DADE,Grocery Store,25.815729,-80.264175,,,-8934967.089942198,2976276.0332518066
275838,Walmart 579,2355 US Highway 1 S,,Saint Augustine,FL,32086,6072,ST JOHNS,Super Store,29.856119,-81.325539,,,-9053117.589968512,3485068.6572407577
276082,PUBLIX  0774,2633 N Dixie Hwy,,Wilton Manors,FL,33334,3724,BROWARD,Supermarket,26.159935,-80.131905,,,-8920242.860894972,3018903.1002595723
276290,Winn Dixie 330,3260 Davie Blvd,,Ft Lauderdale,FL,33312,2766,BROWARD,Supermarket,26.105017,-80.188866,,,-8926583.730410049,3012093.5730963745
276439,DOLLAR GENERAL 7720,3171 Coastal Hwy,,Crawfordville,FL,32327,4209,WAKULLA,Other,30.105165,-84.380028,,,-9393141.750082167,3517074.9989401284
276449,Sedano's 4,6709 W Flagler St,,Miami,FL,33144,2990,MIAMI DADE,Supermarket,25.770548,-80.304359,,,-8939440.352360236,2970689.97290624
249871,WINN DIXIE 0708,11092 Spring Hill Dr,,Spring Hill,FL,34608,5093,HERNANDO,Supermarket,28.461468,-82.540421,,,-9188357.635582423,3307279.913860126
276702,Pelican Point Seafood,933 Dodecanese Blvd,,Tarpon Springs,FL,34689,3135,PINELLAS,Specialty Store,28.154865,-82.763779,,,-9213221.734407028,3268512.790542439
278974,Walgreens 2777,2805 N Roosevelt Blvd,,Key West,FL,33040,4073,MONROE,Other,24.565994,-81.772446,,,-9102867.04964046,2822530.1846612496
279445,CIRCLE K 2704724,4282 N COURTENAY PKWY,,MERRITT ISLAND,FL,32953,    ,BREVARD,Convenience Store,28.433908,-80.708054,,,-8984379.474196026,3303790.6254458865
279550,Walgreens 5625,1601 SW 107th Ave,,Miami,FL,33165,7344,MIAMI DADE,Other,25.753181,-80.36795,,,-8946519.270099271,2968543.328578381
279797,PUBLIX  0677,4425 Commons Dr E,,Destin,FL,32541,3414,OKALOOSA,Supermarket,30.38978,-86.42865,,,-9621193.307950065,3553751.4684493486
276744,CVS Pharmacy 3287,850 W Sample Rd,,Pompano Beach,FL,33064,2000,BROWARD,Other,26.274736,-80.135185,,,-8920607.988824775,3033148.156028352
309724,Walmart Supercenter 1205,9218 S State Road 228,,Macclenny,FL,32063,4738,BAKER,Super Store,30.264799,-82.107803,,,-9140198.82011442,3537632.8993617473
280095,Walgreens 4811,12807 US Highway 301,,Dade City,FL,33525,5812,PASCO,Other,28.343485,-82.187599,,,-9149081.670201762,3292348.816908655
276916,Walgreens 02292,1000 SW 2nd Ave,,Boca Raton,FL,33432,    ,PALM BEACH,Other,26.340172,-80.090981,,,-8915687.22205375,3041274.069593736
277158,CIRCLE K 2704902,1181 Homestead Rd N,,Lehigh Acres,FL,33936,6041,LEE,Convenience Store,26.606089,-81.649139,,,-9089140.577189215,3074343.386814609
277658,PUBLIX  1103,606 Havendale Blvd,,Auburndale,FL,33823,4687,POLK,Supermarket,28.052965,-81.77462,,,-9103109.058213444,3255653.1069753445
277663,CIRCLE K 2707333,9951 Orange River Blvd,,Fort Myers,FL,33905,3343,LEE,Convenience Store,26.681938,-81.793533,,,-9105214.443742817,3083789.9949963167
308726,DOLLAR GENERAL 7539,1045 US Highway 331 N,,Defuniak Springs,FL,32433,4664,WALTON,Other,30.749426,-86.14814,,,-9589967.077587642,3600249.917643722
249082,CVS Pharmacy 0637,1825 NE 185th St,,N Miami Beach,FL,33179,5035,MIAMI DADE,Other,25.946096,-80.164528,,,-8923874.436643122,2992406.2325593983
309860,Gita Food Store,4804 N Florida Ave,,Tampa,FL,33603,2118,HILLSBOROUGH,Convenience Store,27.988991,-82.459435,,,-9179342.31530104,3247585.8775101095
310068,CIRCLE K 2708615,7000 E Colonial Dr,,Orlando,FL,32807,6308,ORANGE,Convenience Store,28.566914,-81.293877,,,-9049592.992251012,3320638.5258011487
310083,Walgreens 3951,900 49th St N,,St Petersburg,FL,33710,6625,PINELLAS,Other,27.781342,-82.699966,,,-9206118.103741037,3221433.8836894664
310125,DOLLAR GENERAL 1340,741 E Highway 50,,Clermont,FL,34711,3165,LAKE,Other,28.548166,-81.745613,,,-9099880.013744006,3318262.4256312475
310432,PUBLIX 0578,11600 Gladiolus Dr,,Fort Myers,FL,33908,    ,LEE,Supermarket,26.516108,-81.941864,,,-9121726.575131675,3063144.8283725916
263809,Sam's West Indian Store,3130 S University Dr,,Miramar,FL,33025,3001,BROWARD,Convenience Store,25.979521,-80.247238,,,-8933081.671726633,2996544.752644924
280276,AZTECA MEXICAN STORE II,22 S Lime St,,Fellsmere,FL,32948,6163,INDIAN RIVER,Grocery Store,27.766771,-80.595222,,,-8971819.07341084,3219600.643572556
308851,PUBLIX  0099,125 Jenkins St,,St Augustine,FL,32086,5167,ST JOHNS,Supermarket,29.865761,-81.327377,,,-9053322.195192588,3486306.315805278
308853,Presidente Supermarket 6,11336 Quail Roost Dr,,Miami,FL,33157,6567,MIAMI DADE,Supermarket,25.593576,-80.377357,,,-8947566.452549163,2948830.0464159837
249261,PUBLIX 0129,1220 Kingsway Rd,,Brandon,FL,33510,2514,HILLSBOROUGH,Supermarket,27.958731,-82.277664,,,-9159107.660140058,3243771.7085630014
307668,Diaz Supermarket,13501 SW 268th St,,Naranja,FL,33032,7719,MIAMI DADE,Super Store,25.51815,-80.4104,,,-8951244.782483445,2939523.1194431093
280347,DOLLAR GENERAL 1705,831 S Walnut St,,Starke,FL,32091,4401,BRADFORD,Other,29.937935,-82.112129,,,-9140680.388231592,3495574.458567274
308883,FLOWERS BAKERY 4670,6599 S US Highway 1,,Port Saint Lucie,FL,34952,9008,ST LUCIE,Specialty Store,27.345572,-80.326004,,,-8941849.862738457,3166713.1436669845
263969,Walgreens 4124,33670 US Highway 19 N,,Palm Harbor,FL,34684,2640,PINELLAS,Other,28.078199,-82.739265,,,-9210492.848409722,3258836.476598826
307693,Walmart Supercenter 1086,4400 13th St,,Saint Cloud,FL,34769,6763,OSCEOLA,Super Store,28.254065,-81.317284,,,-9052198.647572013,3281043.499590729
280422,Walgreens 03250,18300 NW 37th Ave,,Miami Gardens,FL,33056,5101,MIAMI DADE,Other,25.940407,-80.261436,,,-8934662.185856916,2991701.965419239
264014,BOSTONS FISH PROCESSING,1080 N Elder Rd,,Sanford,FL,32771,6918,SEMINOLE,Specialty Store,28.82646,-81.32695,,,-9053274.66177002,3353576.768805295
264077,NATIONAL SPRMKT 002,5400 Palm Ave,,Hialeah,FL,33012,2748,MIAMI DADE,Super Store,25.87122,-80.283218,,,-8937086.947005376,2983139.7118354402
264239,CVS PHARMACY 3764,20345 Old Cutler Rd,,Cutler Bay,FL,33189,1831,MIAMI DADE,Other,25.578468,-80.336182,,,-8942982.87251575,2946965.3782925964
275175,Jose's Market,5151 State Road 674,,Wimauma,FL,33598,3515,HILLSBOROUGH,Grocery Store,27.712482,-82.319199,,,-9163731.315190155,3212772.4705982557
275180,PUBLIX  0302,5881 N University Dr,,Tamarac,FL,33321,4618,BROWARD,Supermarket,26.197559,-80.252296,,,-8933644.725711066,3023570.1178610474
275216,Publix 1557,3941 Tamiami Trl,Unit 3145,Punta Gorda,FL,33950,7927,CHARLOTTE,Supermarket,26.892359,-82.024796,,,-9130958.523142142,3110029.8532315497
275404,Walgreens 3079,3090 W New Haven Ave,,West Melbourne,FL,32904,3658,BREVARD,Other,28.078983,-80.672119,,,-8980379.20829437,3258935.3932979754
275470,Winn Dixie 619,4445 Sun City Center Blvd,,Sun City Center,FL,33573,5369,HILLSBOROUGH,Supermarket,27.712158,-82.353294,,,-9167526.753228752,3212731.729862228
249346,PUBLIX 1013,19451 Cochran Blvd,Unit 2000,Port Charlotte,FL,33948,2008,CHARLOTTE,Supermarket,27.00972,-82.13298,,,-9143001.510934124,3124686.187151433
309046,PUBLIX 0322,1421 Sadler Rd,,Fernandina Beach,FL,32034,4499,NASSAU,Supermarket,30.639528,-81.455383,,,-9067571.757931072,3586022.947619279
280634,CVS PHARMACY 3122,2480 Tamiami Trl,,Port Charlotte,FL,33952,3922,CHARLOTTE,Other,26.995005,-82.116585,,,-9141176.427882567,3122847.703721278
309116,SAIGON MARKET & GIFT,832 Park Ave,,West Palm Beach,FL,33403,2402,PALM BEACH,Convenience Store,26.798431,-80.06974,,,-8913322.684749808,3098310.858478408
280826,Presidente Supermarket 3,1895 SW 8th St,,Miami,FL,33135,3417,MIAMI DADE,Supermarket,25.765566,-80.226128,,,-8930731.717275986,2970074.1417381545
278344,TARGET STORE T-1934,8455 N Wickham Rd,,Viera,FL,32940,6607,BREVARD,Super Store,28.230175,-80.721565,,,-8985883.511836134,3278024.7072908306
308210,WALGREENS  3357,7224 Merrill Rd,,Jacksonville,FL,32277,3725,DUVAL,Other,30.352013,-81.577255,,,-9081138.486913031,3548878.558612905
249696,Circle K 2721238,14780 NE County Road 315,,Fort MC Coy,FL,32134,8130,MARION,Convenience Store,29.36479,-81.967491,,,-9124579.359722232,3422158.0651820563
249766,PUBLIX  0737,55 N Indiana Ave,,Englewood,FL,34223,2944,SARASOTA,Supermarket,26.963181,-82.353004,,,-9167494.470576422,3118872.454217804
309590,PUBLIX 0023,6790 Forest Hill Blvd,,Greenacres,FL,33413,3399,PALM BEACH,Supermarket,26.651014,-80.149712,,,-8922225.127067527,3079937.8100070814
278613,DOLLAR GENERAL 8752,725 S Lake Shore Way,,Lake Alfred,FL,33850,3333,POLK,Other,28.085199,-81.729942,,,-9098135.526003782,3259719.6869731634
311650,CIRCLE K 2707109,11606 Balm Riverview Rd,,Riverview,FL,33569,6602,HILLSBOROUGH,Convenience Store,27.828768,-82.303261,,,-9161957.105145892,3227402.4543074328
311880,CVS Pharmacy 4015,302 E James Lee Blvd,,Crestview,FL,32539,2827,OKALOOSA,Other,30.762238,-86.56958,,,-9636881.563787559,3601909.5651433766
1440560,Juty Market & Whole Sale Inc,3608 Davie Blvd,,Fort Lauderdale,FL,33312,3440,BROWARD,Convenience Store,26.10458,-80.195587,,,-8927331.90870767,3012039.400357206
1557886,Family Market,7399 Davie Road Ext,,Hollywood,FL,33024,2421,BROWARD,Convenience Store,26.03965,-80.236534,,,-8931890.107897183,3003992.5950653055
232207,Tom Thumb 900122,1457 Navarre Beach Blvd,,Navarre,FL,32566,7243,SANTA ROSA,Convenience Store,30.381937,-86.862091,,,-9669443.739358991,3552739.365781859
232337,WINN DIXIE  0025,8775 Old Kings Rd,,Jacksonville,FL,32217,4827,DUVAL,Supermarket,30.22117,-81.592834,,,-9082872.733260099,3532010.982357427
314878,Walmart S/C  1223,5500 Thomasville Rd,,Tallahassee,FL,32312,3814,LEON,Super Store,30.542456,-84.228256,,,-9376246.56832549,3573469.8214096166
293423,PUBLIX 1443,1324 Homestead Rd N,,Lehigh Acres,FL,33936,6016,LEE,Supermarket,26.608747,-81.65197,,,-9089455.722667651,3074674.321212008
293590,WALGREEN 00074,1634 S Federal Hwy,,Boynton Beach,FL,33435,6901,PALM BEACH,Other,26.513226,-80.058937,,,-8912120.10029077,3062786.2951115654
294103,PRIMA'S STORE,6980 State Road 60 W,,Mulberry,FL,33860,7821,POLK,Convenience Store,27.92704,-82.054741,,,-9134291.985293947,3239778.3130549067
294377,S & M Food Shop,795 W Main St,,Bartow,FL,33830,4302,POLK,Convenience Store,27.896334,-81.851318,,,-9111647.040518308,3235910.1544548874
294475,Winn Dixie 0267,5585 Overseas Hwy,,Marathon,FL,33050,2712,MONROE,Supermarket,24.716824,-81.073433,,,-9025053.278422581,2841002.7106327233
291218,PUBLIX 0446,1478 W Granada Blvd,,Ormond Beach,FL,32174,9165,VOLUSIA,Supermarket,29.258028,-81.112068,,,-9029354.106949378,3408528.387957143
314929,PUBLIX 0481,650 W 23rd St,,Panama City,FL,32405,3921,BAY,Supermarket,30.189802,-85.669563,,,-9536692.12964227,3527970.5261609177
294573,BASIC MEATS SUPERMARKET,14500 W Dixie Hwy,,Miami,FL,33161,3031,MIAMI DADE,Super Store,25.909792,-80.168655,,,-8924333.852181625,2987912.5793748326
232542,CIRCLE K 2707410,8755 SE Federal Hwy,,Hobe Sound,FL,33455,6102,MARTIN,Convenience Store,27.09771,-80.158241,,,-8923174.571004504,3135684.6351243933
292428,Oriental Fish Company,3608 N 15th St,,Tampa,FL,33605,1195,HILLSBOROUGH,Other,27.977482,-82.443199,,,-9177534.932048522,3246135.081550232
233566,CVS Pharmacy 3103,327 NE US Highway 19,,Crystal River,FL,34429,4234,CITRUS,Other,28.897306,-82.585556,,,-9193382.04079938,3362581.8714752835
310762,Marv's Meat Mart,1225 Franklin Cir,,Clearwater,FL,33756,5857,PINELLAS,Specialty Store,27.962776,-82.785988,,,-9215694.028978057,3244281.5049652723
1647546,BP 2 Go Enterprises 105,13916 Little Rd,,Hudson,FL,34667,8596,PASCO,Convenience Store,28.359854,-82.665367,,,-9202266.56067908,3294419.3695701547
291361,PUBLIX 0457,4365 Commercial Way,,Spring Hill,FL,34606,1917,HERNANDO,Supermarket,28.493538,-82.59745,,,-9194706.074822873,3311341.3453442473
291371,CVS Pharmacy 3756,2391 W 68th St,,Hialeah,FL,33016,6816,MIAMI DADE,Other,25.884199,-80.331192,,,-8942427.388256693,2984745.5485383114
313860,Circle K 2726175,584 S 6th St,,Macclenny,FL,32063,2606,BAKER,Convenience Store,30.275,-82.122414,,,-9141825.3091944,3538947.7333108536
292525,CUMBERLAND FARMS 9551,23077 State Road 7,,Boca Raton,FL,33428,5469,PALM BEACH,Convenience Store,26.33219,-80.203171,,,-8928176.155725846,3040282.6103551327
233055,DOLLAR GENERAL 1358,403 Plaza Dr,,Eustis,FL,32726,6523,LAKE,Other,28.823635,-81.689644,,,-9093649.573163796,3353217.8154892987
292654,CVS Pharmacy 3632,5391 N Socrum Loop Rd,,Lakeland,FL,33809,4272,POLK,Other,28.1122,-81.946457,,,-9122237.86555289,3263127.021341072
292748,PUBLIX  0852,1700 N Monroe St,,Tallahassee,FL,32303,5535,LEON,Supermarket,30.463037,-84.282143,,,-9382245.241725868,3563208.871694871
292756,WINN DIXIE  683,36348 State Road 54,,Zephyrhills,FL,33541,2272,PASCO,Supermarket,28.229914,-82.215202,,,-9152154.422106128,3277991.7304966557
292861,Winn Dixie 0084,947 Amelia Plz,,Fernandina Beach,FL,32034,1996,NASSAU,Supermarket,30.646309,-81.458336,,,-9067900.484387387,3586900.3211003
292941,CVS Pharmacy 5174,1150 NE 26th St,,Wilton Manors,FL,33305,1245,BROWARD,Other,26.159445,-80.131683,,,-8920218.147968015,3018842.3288149987
293042,SUNSEED FOOD COOP INC,6615 N Atlantic Ave,Ste B,Cape Canaveral,FL,32920,3886,BREVARD,Other,28.377211,-80.605629,,,-8972977.575351523,3296615.245470378
293046,TANYA'S GARDEN,2822 Martin Luther King Jr Blvd,,Panama City,FL,32405,4410,BAY,Specialty Store,30.198811,-85.649612,,,-9534471.194481455,3529130.8276055646
315350,Flash Foods LLC 274097,463062 South 8th St,,FERNANDINA,FL,32034,    ,NASSAU,Convenience Store,30.655472,-81.460922,,,-9068188.356590576,3588085.9922407186
312766,Tom Thumb 900120,10398 N Davis Hwy,,Pensacola,FL,32514,8160,ESCAMBIA,Convenience Store,30.540962,-87.197052,,,-9706731.427314598,3573276.718952067
311024,Jiffy 1543,1904 N Young Blvd,,Chiefland,FL,32626,1951,LEVY,Convenience Store,29.496904,-82.868599,,,-9224890.24343198,3439044.0848363773
233985,CIRCLE K 2709708,3702 S US HIGHWAY 41,,RUSKIN,FL,33570,    ,HILLSBOROUGH,Convenience Store,27.686022,-82.471169,,,-9180648.53820601,3209445.708926416
314289,CIRCLE K 2705938,2211 Citrus Blvd,,Leesburg,FL,34748,3008,LAKE,Convenience Store,28.841167,-81.894608,,,-9116466.061274748,3355445.6435052403
314341,Gordon Food Service Store MP123,101 S State Road 7,,Hollywood,FL,33023,6736,BROWARD,Supermarket,26.009939,-80.207535,,,-8928661.953983666,3000311.9832578297
314372,CIRCLE K 8223,711 Quietwater Beach Rd,,Gulf Breeze,FL,32561,2038,ESCAMBIA,Convenience Store,30.334129,-87.14093,,,-9700483.954852296,3546571.721080495
313058,PUBLIX  0741,7640 W Sand Lake Rd,,Orlando,FL,32819,5112,ORANGE,Supermarket,28.449841,-81.48671,,,-9071059.063619154,3305807.7435914148
311359,Winn-Dixie 0077,1010 S Ponce de Leon Blvd,,St Augustine,FL,32084,6018,ST JOHNS,Supermarket,29.878963,-81.324852,,,-9053041.113478336,3488001.1342062945
314544,Walgreens 3391,807 E Silver Springs Blvd,,Ocala,FL,34470,6709,MARION,Other,29.187069,-82.129509,,,-9142615.120981578,3399477.340743024
311465,Tom Thumb 900041,2838 N Highway 81,,Ponce de Leon,FL,32455,6723,HOLMES,Convenience Store,30.727421,-85.937904,,,-9566563.713121228,3597399.937682597
290928,PUBLIX 0499,3830 US HIGHWAY A1A,,MELBOURNE BEACH,FL,32951,    ,BREVARD,Supermarket,28.015715,-80.533051,,,-8964898.229348732,3250955.236124608
311498,Super Kwik 2,8001 Gibsonton Dr,,Gibsonton,FL,33534,4416,HILLSBOROUGH,Convenience Store,27.849743,-82.365173,,,-9168849.117459884,3230042.9933973937
314651,CIRCLE K 2707961,5320 N Florida Ave,,Tampa,FL,33603,2142,HILLSBOROUGH,Convenience Store,27.99585,-82.459496,,,-9179349.105789978,3248450.57967195
311559,CIRCLE K 2708529,13001 W Colonial Dr,,WINTER GARDEN,FL,34787,    ,ORANGE,Convenience Store,28.551138,-81.575745,,,-9080970.394481933,3318639.0653066006
291025,SUPERMERCADO MI MEXICO & MEAT MKT,387 E Main St,,Apopka,FL,32703,5331,ORANGE,Supermarket,28.673178,-81.503372,,,-9072913.86897475,3334114.316386932
313417,Publix 1517,2848 US Highway 27 N,,Sebring,FL,33870,1625,HIGHLANDS,Supermarket,27.509867,-81.493095,,,-9071769.838567868,3187318.593277863
311648,Spears Seafood Inc,5025 W Tennessee St,,Tallahassee,FL,32304,9202,LEON,Specialty Store,30.458035,-84.363205,,,-9391269.02228855,3562562.892625122
332888,Walgreens 3046,2295 E Bay Dr,,Largo,FL,33771,2324,PINELLAS,Other,27.916452,-82.763092,,,-9213145.257916855,3238444.375956498
380851,Walmart S/C  860,1699 N Woodland Blvd,,Deland,FL,32720,1803,VOLUSIA,Super Store,29.060944,-81.304352,,,-9050759.063917074,3383405.1296088044
381228,Winn Dixie 2335,1955 N Highway 19,,Eustis,FL,32726,6728,LAKE,Supermarket,28.874233,-81.687805,,,-9093444.856620228,3359648.4315343527
381259,PUBLIX  0062,1160 E State Road 434,,Winter Springs,FL,32708,2715,SEMINOLE,Supermarket,28.698891,-81.264252,,,-9046295.152336264,3337377.143484126
381399,Walmart Supercenter 1225,899 Blanding Blvd,,Orange Park,FL,32065,    ,CLAY,Super Store,30.139498,-81.771278,,,-9102737.028475212,3521493.6429782812
273300,PUBLIX 0148,5391 Fruitville Rd,,Sarasota,FL,34232,6402,SARASOTA,Supermarket,27.338043,-82.461708,,,-9179595.344503615,3165769.6098158886
273385,Walmart Supercenter 2081,23106 US Highway 19 N,,Clearwater,FL,33765,1849,PINELLAS,Super Store,27.983761,-82.729973,,,-9209458.467701271,3246926.5775030483
334097,CVS Pharmacy 5211,5250 Clark Rd,,Sarasota,FL,34233,3225,SARASOTA,Other,27.269033,-82.465744,,,-9180044.629968455,3157124.2635937566
295711,EL BODEGON GROCERY,4704 Forest Hill Blvd,,West Palm Beach,FL,33415,5620,PALM BEACH,Super Store,26.651615,-80.115952,,,-8918466.981058346,3080012.666286487
331931,PUBLIX 0823,2310 S Highway 77,,LYNN HAVEN,FL,32444,    ,BAY,Supermarket,30.223061,-85.649445,,,-9534452.60412649,3532254.599865473
331934,P'S HOUSE OF MEATS I,4050 Hallandale Beach Blvd,,Pembroke Park,FL,33023,4448,BROWARD,Grocery Store,25.984358,-80.18364,,,-8926001.974751163,2997143.74374509
295717,Gordon Food Service Store MP125,2299 SW 8th St,,Miami,FL,33135,4913,MIAMI DADE,Supermarket,25.765398,-80.232491,,,-8931440.043195905,2970053.375501344
334181,CIRCLE K 2705321,9827 LITTLE RD,,PORT RICHEY,FL,34667,    ,PASCO,Convenience Store,28.331297,-82.666206,,,-9202359.957731858,3290807.3358503473
382134,PUBLIX 802,535 Tamiami Trl S,,Venice,FL,34285,2927,SARASOTA,Supermarket,27.0916,-82.444328,,,-9177660.611753626,3134920.627214398
295730,CVS Pharmacy 4361,1920 A1A S,,St Augustine,FL,32080,6508,ST JOHNS,Other,29.860001,-81.281403,,,-9048204.392922858,3485566.9409886403
274455,CVS Pharmacy 5125,735 NW 119th St,,North Miami,FL,33168,2334,MIAMI DADE,Other,25.883816,-80.211288,,,-8929079.736032614,2984698.159043314
334270,Winn Dixie 0144,1436 SR 121 S,,Macclenny,FL,32063,4623,BAKER,Supermarket,30.264812,-82.122795,,,-9141867.721920393,3537634.5748792924
295757,CIRCLE K 2704131,4015 S WESTSHORE,,TAMPA,FL,33611,    ,HILLSBOROUGH,Convenience Store,27.905148,-82.526794,,,-9186840.684881385,3237020.377209378
274541,Publix 1558,2952 Aventura Blvd,,Aventura,FL,33180,3103,MIAMI DADE,Supermarket,25.96129,-80.141747,,,-8921338.46732336,2994287.333623075
335359,DOLLAR GENERAL  6158,710 S US Highway 27,,Havana,FL,32333,2018,GADSDEN,Other,30.615608,-84.420189,,,-9397612.452151915,3582928.500747418
332055,Winn Dixie 729,625 N Collier Blvd,,Marco Island,FL,34145,1916,COLLIER,Supermarket,25.952703,-81.728912,,,-9098020.866928264,2993224.1857926007
332323,PUBLIX 0432,3251 HOLLYWOOD BLVD,,HOLLYWOOD,FL,33021,    ,BROWARD,Supermarket,26.010839,-80.17495,,,-8925034.608376168,3000423.461971804
332446,Publix 0396,4901 Volunteer Rd,,Southwest Ranches,FL,33330,2400,BROWARD,Supermarket,26.059475,-80.346085,,,-8944085.269433076,3006449.0435147895
332620,WINN DIXIE  355,7024 Beracasa Way,,Boca Raton,FL,33433,3447,PALM BEACH,Supermarket,26.352081,-80.154495,,,-8922757.568191992,3042753.4360315297
334360,Walmart 819,1619 DEL PRADO BLVD S,,CAPE CORAL,FL,33990,    ,LEE,Super Store,26.620743,-81.937126,,,-9121199.143384296,3076167.9793741456
334415,Joe's Market,2190 NW 46th St,,Miami,FL,33142,4017,MIAMI DADE,Supermarket,25.816772,-80.232101,,,-8931396.628594495,2976405.012185396
295902,WINN DIXIE 0081,580 S Marion Ave,,Lake City,FL,32025,5802,COLUMBIA,Supermarket,30.18224,-82.637001,,,-9199108.872003239,3526996.6709754793
274163,PUBLIX 0284,2040 58th Ave,,Vero Beach,FL,32966,4646,INDIAN RIVER,Supermarket,27.640594,-80.44648,,,-8955261.189711265,3203736.0186322047
274178,Best Food Market,685 S Goldwyn Ave,,Orlando,FL,32805,2901,ORANGE,Convenience Store,28.533232,-81.417923,,,-9063401.729805958,3316370.010138186
380153,PUBLIX  0051,1500 S Douglas Rd,,Coral Gables,FL,33134,4108,MIAMI DADE,Supermarket,25.758017,-80.254929,,,-8933937.829930324,2969141.0497825337
294844,DOLLAR GENERAL 4880,655 E Base St,,Madison,FL,32340,2705,MADISON,Other,30.469309,-83.40567,,,-9284676.713671815,3564018.9107173393
382558,CIRCLE K 2707424,1117 E Main St,,Immokalee,FL,34142,3835,COLLIER,Convenience Store,26.415419,-81.405273,,,-9061993.538247421,3050624.0061375215
334550,Sedano's 34,17171 Pines Blvd,,Pembroke Pines,FL,33027,1001,BROWARD,Supermarket,26.007788,-80.376038,,,-8947419.622140806,3000045.5525927474
382714,Winn Dixie 577,1030 US Highway 331 S,Ste G,Defuniak Springs,FL,32435,3391,WALTON,Supermarket,30.707541,-86.122917,,,-9587159.266071364,3594825.736685503
334697,CVS Pharmacy 3616,13400 S Cleveland Ave,,Fort Myers,FL,33907,3833,LEE,Other,26.547119,-81.871681,,,-9113913.839309331,3067003.3004554305
333793,Walmart NEIGHBORHOOD MKT 5132,5216 Red Bug Lake Rd,,Winter Springs,FL,32708,4912,SEMINOLE,Super Store,28.64768,-81.278191,,,-9047846.83471843,3330879.562183299
296151,Whiting field NAS Commissary 547,7180 USS Wasp St,Bldg 3060,Milton,FL,32570,6161,SANTA ROSA,Supermarket,30.713827,-87.019051,,,-9686916.446633903,3595639.6344203167
296166,MOBLEY CUSTOM CUT,6769 180th St,,McAlpin,FL,32062,2852,SUWANNEE,Specialty Store,30.12056,-82.885857,,,-9226811.39520409,3519056.1396049964
272825,PUBLIX  0830,4501 Hoffner Ave,,Orlando,FL,32812,2305,ORANGE,Supermarket,28.48056,-81.32888,,,-9053489.50838725,3309697.627797087
272888,THE HAROLD STORE,10535 Highway 90,,Milton,FL,32583,8210,SANTA ROSA,Convenience Store,30.6588,-86.880539,,,-9671497.361325145,3588516.655612832
295302,B & R MARKET INC,13002 N 15th St,,Tampa,FL,33612,4531,HILLSBOROUGH,Convenience Store,28.064751,-82.442886,,,-9177500.089047901,3257139.8647932513
331716,CVS Pharmacy 3216,5825 20th St,,Vero Beach,FL,32966,1018,INDIAN RIVER,Other,27.638727,-80.44722,,,-8955343.566134455,3203501.4125198564
380550,PUBLIX 504,4701 Sunray Dr,,Holiday,FL,34690,3808,PASCO,Supermarket,28.19821,-82.736122,,,-9210142.971250158,3273986.5971801262
295420,PUBLIX 0778,13435 SOUTH MCCALL RD,,PORT CHARLOTTE,FL,33981,    ,CHARLOTTE,Supermarket,26.933186,-82.225548,,,-9153306.133557875,3115126.699785549
296732,CIRCLE K 2702375,102525 Overseas Hwy,,Key Largo,FL,33037,4681,MONROE,Convenience Store,25.125963,-80.412018,,,-8951424.897419548,2891224.289134177
296858,MEATLAND OF TAMPA INC,5150 N 22nd St,,Tampa,FL,33610,5057,HILLSBOROUGH,Grocery Store,27.994043,-82.435097,,,-9176633.021534113,3248222.768996415
296910,DOLLAR GENERAL  4881,7101 US 98,,Panama City Beach,FL,32407,4865,BAY,Other,30.187893,-85.749252,,,-9545563.068544095,3527724.6728286725
297098,PUBLIX  0862,2840 David Walker Dr,,Eustis,FL,32726,6172,LAKE,Supermarket,28.825022,-81.701813,,,-9095004.22004726,3353394.0508206342
297134,Publix 1471,12022 Indian Rocks Rd,,Largo,FL,33774,3215,PINELLAS,Supermarket,27.88228,-82.83242,,,-9220862.81557457,3234140.081569821
297538,KC's Produce,1149 SE Baya Dr,,Lake City,FL,32025,5540,COLUMBIA,Grocery Store,30.182674,-82.619637,,,-9197175.920365104,3527052.56066848
289435,Sedano's 24,2325 N 60th Ave,,Hollywood,FL,33021,3203,BROWARD,Supermarket,26.030544,-80.208046,,,-8928718.838243462,3002864.440712272
351621,CVS Pharmacy 5167,12 Decatur St,,Chattahoochee,FL,32324,1012,GADSDEN,Other,30.705391,-84.847031,,,-9445128.286241097,3594547.3714906536
351731,Publix 0757,125 E Merritt Island Causeway,,Merritt Island,FL,32952,    ,BREVARD,Supermarket,28.356924,-80.697906,,,-8983249.804003457,3294048.7236383297
351858,Tom Thumb 900056,438 W James Lee Blvd,,Crestview,FL,32536,2638,OKALOOSA,Convenience Store,30.764748,-86.583382,,,-9638417.995399488,3602234.7326994413
383412,CIRCLE K 2707466,3280 Boggy Creek Rd,,Kissimmee,FL,34744,9528,OSCEOLA,Convenience Store,28.348024,-81.309662,,,-9051350.170413187,3292922.9335324094
350349,NATURES FOOD PATCH INC,1225 Cleveland St,,Clearwater,FL,33755,4908,PINELLAS,Super Store,27.965574,-82.786331,,,-9215732.211563399,3244634.1515792557
347349,WALGREENS 6515,5945 US Highway 301 N,,Ellenton,FL,34222,2953,MANATEE,Other,27.530985,-82.503006,,,-9184192.616834395,3189969.385630809
347703,WINN DIXIE 0003,1245 S Jefferson St,,Monticello,FL,32344,1633,JEFFERSON,Supermarket,30.534893,-83.870316,,,-9336400.869790945,3572492.319231169
347762,Flash Foods LLC 274143,2020 Sadler Rd,,Fernandina Beach,FL,32034,4428,NASSAU,Convenience Store,30.63987,-81.449402,,,-9066905.95605664,3586067.1965121482
350368,WALGREENS  03830,1947 Fruitville Rd,,Sarasota,FL,34236,4203,SARASOTA,Other,27.338867,-82.531532,,,-9187368.116628762,3165872.8703249213
350630,Tom Thumb Food Store 900025,5191 Ward Basin Rd,,Milton,FL,32583,5455,SANTA ROSA,Convenience Store,30.624132,-87.021233,,,-9687159.345762813,3584031.133151098
350778,PUBLIX  1769,4173 Tamiami Trl S,,Venice,FL,34293,5111,SARASOTA,Supermarket,27.049887,-82.394836,,,-9172151.187515287,3129705.854250764
350916,CVS Pharmacy 5077,5300 S John Young Pkwy,,Orlando,FL,32839,7363,ORANGE,Other,28.486391,-81.417572,,,-9063362.656664688,3310436.1231452143
351042,Walmart 931,5555 20TH ST,,VERO BEACH,FL,32966,    ,INDIAN RIVER,Super Store,27.636623,-80.443001,,,-8954873.909202795,3203237.0299256938
351155,VIOLET COLLEY GROCERY,4426 33rd Ave,,Vero Beach,FL,32967,1688,INDIAN RIVER,Convenience Store,27.673407,-80.4188,,,-8952179.86620611,3207859.9345924617
351210,CVS Pharmacy 3704,1421 Alton Rd,,Miami Beach,FL,33139,3813,MIAMI DADE,Other,25.78587,-80.141029,,,-8921258.53992897,2972584.1062828135
351226,CUMBERLAND FARMS 9541,5245 10th Ave N,,Greenacres,FL,33463,2052,PALM BEACH,Convenience Store,26.631227,-80.125267,,,-8919503.922115086,3077473.5022108317
356778,CHEVRON FOOD MART,2124 E Busch Blvd,,Tampa,FL,33612,8670,HILLSBOROUGH,Convenience Store,28.032587,-82.434929,,,-9176614.31985966,3253082.886372557
349365,THE CAROUSEL,19440 Front Beach Rd,,Panama City Beach,FL,32413,1764,BAY,Super Store,30.239538,-85.924271,,,-9565046.094503244,3534377.529851008
289935,PUBLIX  0772,9621 N US Highway 1,,Sebastian,FL,32958,6363,INDIAN RIVER,Supermarket,27.769545,-80.44532,,,-8955132.059101947,3219949.6335101346
290070,Tom Thumb 900015,4141 Avalon Blvd,,Milton,FL,32583,5584,SANTA ROSA,Convenience Store,30.586569,-87.086021,,,-9694371.51293233,3579172.8539090706
290332,THE BOYS FARMERS MARKET INC.,14378 S Military Trl,,Delray Beach,FL,33484,2626,PALM BEACH,Super Store,26.463526,-80.12252,,,-8919198.127473876,3056604.8143961476
356867,Dollar General 3687,100 E Nine Mile Rd,,Pensacola,FL,32534,3139,ESCAMBIA,Other,30.533278,-87.271568,,,-9715026.51049055,3572283.5936684483
349462,Walgreens 01600,14720 SW 88th St,,Miami,FL,33196,1481,MIAMI DADE,Other,25.684772,-80.430634,,,-8953497.221060155,2960090.699127698
348190,CVS Pharmacy 5119,4232 NE Ocean Blvd,,Jensen Beach,FL,34957,4307,MARTIN,Other,27.25676,-80.198448,,,-8927650.39377083,3155587.3049839255
349522,CUMBERLAND FARMS 9578,12500 State Rd 84,,Davie,FL,33325,    ,BROWARD,Convenience Store,26.114361,-80.315201,,,-8940647.278279416,3013251.9512411063
357005,CIRCLE K 2708802,6422 Benjamin Rd,,Tampa,FL,33634,5112,HILLSBOROUGH,Convenience Store,28.007042,-82.541992,,,-9188532.51850246,3249861.653753039
348298,Tom Thumb 900141,2200 W Navy Blvd,,Pensacola,FL,32505,8013,ESCAMBIA,Convenience Store,30.41258,-87.242287,,,-9711766.964480631,3556694.1639420963
298070,PUBLIX  507,1950 N Highway 19,,Eustis,FL,32726,6729,LAKE,Supermarket,28.874174,-81.688072,,,-9093474.578924268,3359640.9312662836
357115,Azteca Mexican Store 5,681 W Cowboy Way,,Labelle,FL,33935,4092,HENDRY,Grocery Store,26.746843,-81.448875,,,-9066847.29068499,3091878.574129279
348344,CVS Pharmacy 5189,1551 County Road 220,,Orange Park,FL,32003,7926,CLAY,Other,30.102228,-81.711594,,,-9096093.035986708,3516697.079462444
357206,Circle K 2721297,5105 County Road 218,,Middleburg,FL,32068,3555,CLAY,Convenience Store,30.089062,-81.945602,,,-9122142.68738826,3515003.0779081667
298380,PUBLIX  0872,4760 W Hillsboro Blvd,,Coconut Creek,FL,33073,4339,BROWARD,Supermarket,26.31743,-80.188423,,,-8926534.415875627,3038449.423037336
348627,PUBLIX 0021,2465 Glades Cir,,Weston,FL,33327,2204,BROWARD,Supermarket,26.137733,-80.421135,,,-8952439.797217112,3016149.789870277
356045,Tom Thumb 900030,5650 Woodbine Rd,,Pace,FL,32571,    ,SANTA ROSA,Convenience Store,30.642471,-87.180313,,,-9704868.050358208,3586403.7261065333
349898,PUBLIX 644,12620 Beach Blvd,Ste 12,Jacksonville,FL,32246,7130,DUVAL,Supermarket,30.287245,-81.487244,,,-9071118.508227237,3540526.2043308667
298532,Walgreens 4569,3895 W Broward Blvd,,Fort Lauderdale,FL,33312,1017,BROWARD,Other,26.121141,-80.200539,,,-8927883.162826078,3014092.5276048956
356173,PUBLIX  0053,5211 Sheridan St,,Hollywood,FL,33021,3344,BROWARD,Supermarket,26.032713,-80.196434,,,-8927426.19631637,3003133.15303754
298557,CIRCLE K 2708811,4801 W Gandy Blvd,,Tampa,FL,33611,3002,HILLSBOROUGH,Convenience Store,27.893528,-82.527344,,,-9186901.910601322,3235556.7260678355
348837,Sedano's 28,3140 W 76th St,,Hialeah,FL,33018,3803,MIAMI DADE,Supermarket,25.891443,-80.346916,,,-8944177.775929924,2985641.894726475
348883,PUBLIX  0028,250 3rd St S,,St Petersburg,FL,33701,4235,PINELLAS,Supermarket,27.76898,-82.637016,,,-9199110.541795602,3219878.5515648816
356220,DOLLAR GENERAL 8255,18210 N US Highway 301,,Citra,FL,32113,2358,MARION,Other,29.41494,-82.1101,,,-9140454.520984773,3428565.351648947
348940,Circle K 2722902,6963 N US Highway 441,,Ocala,FL,34475,1217,MARION,Convenience Store,29.259068,-82.151886,,,-9145106.11722706,3408661.089934521
356274,PUBLIX 0157,19100 S TAMIAMI TRL,,FT MYERS,FL,33908,    ,LEE,Supermarket,26.462952,-81.830231,,,-9109299.646415949,3056533.4382483657
356309,DOLLAR GENERAL 7064,113 Racetrack Rd NW,,Fort Walton Beach,FL,32547,1644,OKALOOSA,Other,30.44907,-86.619621,,,-9642452.102426345,3561405.1982407556
350109,CVS Pharmacy 3254,1952 Park Ave,,Orange Park,FL,32073,4915,CLAY,Other,30.16662,-81.701256,,,-9094942.215090888,3524985.3209970915
350213,STOP N PICK,2602 W Kennedy Blvd,,Tampa,FL,33609,3202,HILLSBOROUGH,Convenience Store,27.944754,-82.486679,,,-9182375.103508212,3242010.316816669
352963,PUBLIX  0095,10801 Starkey Rd,Ste 200,Seminole,FL,33777,1161,PINELLAS,Supermarket,27.869541,-82.76226,,,-9213052.640100513,3232535.8287463808
387286,LITTLE FOOD STORE,96 NW 42nd St,,Oakland Park,FL,33309,4704,BROWARD,Convenience Store,26.178391,-80.147652,,,-8921995.808916492,3021192.2612727564
387403,Harvey's Supermarket 1710,2630 US Highway 92 E,,Lakeland,FL,33801,2654,POLK,Supermarket,28.047968,-81.906502,,,-9117790.095298244,3255022.8041635654
451465,PUBLIX  0427,3972 Town Center Blvd,,Orlando,FL,32837,6103,ORANGE,Supermarket,28.363731,-81.425011,,,-9064190.7623567,3294909.827029603
451866,Jiffy 1542,25807 SE 19 Hwy,,Old Town,FL,32680,3997,DIXIE,Convenience Store,29.601524,-82.981346,,,-9237441.182060448,3452431.6166231805
452077,WINN DIXIE 0493,13019 SORRENTO RD,,PENSACOLA,FL,32507,    ,ESCAMBIA,Supermarket,30.321985,-87.41954,,,-9731498.67818221,3545005.5200406113
452152,CVS Pharmacy 583,245 S Military Trl,,West Palm Beach,FL,33415,3136,PALM BEACH,Other,26.674101,-80.11235,,,-8918066.00825251,3082813.6455972944
352058,CVS Pharmacy 2303,7534 Lake Worth Rd,,Lake Worth,FL,33467,2533,PALM BEACH,Other,26.617393,-80.165527,,,-8923985.644814424,3075750.844993562
352308,CVS Pharmacy 5118,28740 S Dixie Hwy,,Homestead,FL,33033,1233,MIAMI DADE,Other,25.499701,-80.446045,,,-8955212.76573277,2937247.560591372
352336,DOLLAR GENERAL 8721,4919 US Highway 98 N,,Lakeland,FL,33809,3610,POLK,Other,28.10527,-81.973549,,,-9125253.73319746,3262252.422784224
352538,Giant Food (Marathon) Store,1832 Manatee Ave E,,Bradenton,FL,34208,1454,MANATEE,Convenience Store,27.496094,-82.541809,,,-9188512.147035645,3185590.0406865557
352835,Grocery Outlet 7705,2901 W Highway 98,,Panama City,FL,32401,1248,BAY,Super Store,30.176174,-85.700844,,,-9540174.314633776,3526215.528822767
352848,PUBLIX  549,1400 Coral Ridge Dr,,Coral Springs,FL,33071,5433,BROWARD,Supermarket,26.249355,-80.280022,,,-8936731.1699128,3029997.549573695
353034,Walmart S/C  1391,1101 Beville Rd,,Daytona Beach,FL,32119,1604,VOLUSIA,Super Store,29.174694,-81.029785,,,-9020194.405288437,3397899.511562602
353333,Tom Thumb 900032,4198 Garcon Point Rd,,Milton,FL,32583,9012,SANTA ROSA,Convenience Store,30.58637,-87.03109,,,-9688256.621983564,3579147.1208959282
353335,CIRCLE K 2707058,6416 S Dale Mabry Hwy,,Tampa,FL,33611,5104,HILLSBOROUGH,Convenience Store,27.873192,-82.506279,,,-9184556.96552776,3232995.588646802
383475,DOLLAR GENERAL 0790,24 E Washington St,,Chattahoochee,FL,32324,    ,GADSDEN,Other,30.70491,-84.842491,,,-9444622.895752896,3594485.0962194973
353601,CVS Pharmacy 1302,5569 W Oakland Park Blvd,,Lauderhill,FL,33313,1411,BROWARD,Other,26.164915,-80.226051,,,-8930723.145675197,3019520.751056671
353612,Circle K 2722123,6155 SW Highway 200,,Ocala,FL,34476,5557,MARION,Convenience Store,29.115751,-82.220184,,,-9152709.015809258,3390386.8087334633
353782,MR. 99 Cents,1811 Lake Trafford Rd,,Immokalee,FL,34142,2613,COLLIER,Supermarket,26.432926,-81.438316,,,-9065671.868181704,3052800.2405356127
353873,WALGREENS 4841,4210 E State Road 64,,Bradenton,FL,34208,9095,MANATEE,Other,27.498352,-82.509453,,,-9184910.293591538,3185873.4115985064
452198,PUBLIX 0435,5200 NW 43rd St,Ste 401,Gainesville,FL,32606,4483,ALACHUA,Supermarket,29.70196,-82.388916,,,-9171492.176129788,3465296.8210218716
386514,CIRCLE K 2704917,8201 66th St,,Pinellas Park,FL,33781,1202,PINELLAS,Convenience Store,27.84675,-82.728554,,,-9209300.505343836,3229666.173919947
386580,WINN DIXIE  2343,1050 W New York Ave,,Deland,FL,32720,5136,VOLUSIA,Supermarket,29.027914,-81.323769,,,-9052920.554469807,3379199.341595436
387111,WALGREENS  4736,7546 103rd St,,Jacksonville,FL,32210,6713,DUVAL,Other,30.248154,-81.772896,,,-9102917.143411318,3535487.7744051795
452241,Fellsmere Grocery,106 N Broadway St,,Fellsmere,FL,32948,6607,INDIAN RIVER,Grocery Store,27.771931,-80.601234,,,-8972488.32618949,3220249.8172646086
1645792,Amoco Hellens ,8360 County Road 833,,Clewiston,FL,33440,9215,HENDRY,Convenience Store,26.645868,-81.127579,,,-9031080.783571074,3079296.877030682
383593,FLOWERS BAKERY 4604,3926 Pembroke Rd,,Hollywood,FL,33021,8127,BROWARD,Specialty Store,25.995502,-80.181007,,,-8925708.870531904,2998523.857577195
384718,Dixie Dandy,236 Highway 22,,Wewahitchka,FL,32465,    ,GULF,Grocery Store,30.113796,-85.20314,,,-9484770.158788,3518185.6608229596
1635863,Eat Better Live Better,14451 S Military Trl,Ste 2,Delray Beach,FL,33484,2105,PALM BEACH,Specialty Store,26.462061,-80.123413,,,-8919297.535779156,3056422.64427108
452427,Walgreens 3932,1101 E Atlantic Blvd,,Pompano Beach,FL,33060,7403,BROWARD,Other,26.231764,-80.111832,,,-8918008.34475628,3027814.3389479956
435165,LA BODEGA BESTWAY,11400 W Flagler St,Ste 119-121,Miami,FL,33174,4007,MIAMI DADE,Other,25.768185,-80.381607,,,-8948039.560385035,2970397.8763375212
383824,Walmart 955,1700 S Orange Blossom Trl,,Apopka,FL,32703,7745,ORANGE,Super Store,28.649584,-81.46933,,,-9069124.330869166,3331121.082263269
354400,Walgreens 4657,860 A1A N,,Ponte Vedra,FL,32082,3212,ST JOHNS,Other,30.194225,-81.380661,,,-9059253.742940018,3528540.1669401503
452543,CVS Pharmacy 3657,1250 Providence Blvd,,Deltona,FL,32725,7300,VOLUSIA,Other,28.8843,-81.239487,,,-9043538.325146768,3360928.2430354925
385104,Circle K 2722005,4790 US Highway 1,,Mims,FL,32754,4906,BREVARD,Convenience Store,28.732279,-80.866501,,,-9002017.713553747,3341615.079094009
435318,CIRCLE K 2707106,5299 Ehrlich Rd,,Tampa,FL,33624,2042,HILLSBOROUGH,Convenience Store,28.084526,-82.539482,,,-9188253.10658057,3259634.770102737
385242,WALGREENS  06192,6503 W Waters Ave,,Tampa,FL,33634,2207,HILLSBOROUGH,Other,28.025818,-82.552101,,,-9189657.847234888,3252229.238886841
435439,Walmart SUPERCENTER  5054,11900 Atlantic Blvd,,Jacksonville,FL,32225,2920,DUVAL,Super Store,30.320749,-81.495316,,,-9072017.07915692,3544846.125090788
385248,Publix Super Markets Inc. 2021,9900 Alternate A1a,,Palm Beach Gardens,FL,33410,4903,PALM BEACH,Supermarket,26.822126,-80.08271,,,-8914766.498545399,3101266.265563648
436545,Walmart Supercenter 2814,9300 NW 77th Ave,,Hialeah Gardens,FL,33016,2504,MIAMI DADE,Super Store,25.856667,-80.323189,,,-8941536.498371873,2981339.3405575072
385331,Walgreens 3626,1800 N Nob Hill Rd,,Plantation,FL,33322,6565,BROWARD,Other,26.14654,-80.287056,,,-8937514.19121104,3017241.8992775665
354653,CVS Pharmacy 5205,3011 N FEDERAL HWY,,BOYNTON BEACH,FL,33435,    ,PALM BEACH,Other,26.492332,-80.063049,,,-8912577.846036911,3060187.2601317316
452798,CVS Pharmacy 3746,11115 Spring Hill Dr,,Spring Hill,FL,34609,4649,HERNANDO,Other,28.461788,-82.539406,,,-9188244.646299269,3307320.433435841
435662,PUBLIX 0775,15880 SUMMERLIN RD,,FT MYERS,FL,33908,    ,LEE,Supermarket,26.513521,-81.899895,,,-9117054.607422572,3062822.993973729
452849,WINN DIXIE  138,3260 Highway 17,,Green Cv Spgs,FL,32043,9364,CLAY,Supermarket,30.023136,-81.706039,,,-9095474.656215351,3506524.107378025
385398,GRANARY WHOLE FOODS,1738 Kingsley Ave,,Orange Park,FL,32073,4438,CLAY,Grocery Store,30.164873,-81.733879,,,-9098573.790839035,3524760.383811823
355125,DOLLAR GENERAL 8264,2340 US Highway 17,,Winter Haven,FL,33881,2364,POLK,Other,28.047211,-81.735069,,,-9098706.26103308,3254927.321581396
435797,WINN DIXIE  210,3116 W Commercial Blvd,,Ft Lauderdale,FL,33309,3415,BROWARD,Supermarket,26.186214,-80.187859,,,-8926471.63168282,3022162.684185228
384262,Winn-Dixie 0556,4751 Bayou Blvd,,Pensacola,FL,32503,2607,ESCAMBIA,Supermarket,30.470739,-87.207748,,,-9707922.10058812,3564203.6048507113
436794,CVS Pharmacy 5187,2375 Vanderbilt Beach Rd,,Naples,FL,34109,2653,COLLIER,Other,26.243961,-81.769928,,,-9102586.747162642,3029328.067677939
436852,PUBLIX  0313,4060 S US Highway 1,,Jupiter,FL,33477,1121,PALM BEACH,Supermarket,26.895327,-80.060875,,,-8912335.837463925,3110400.31651303
384387,CIRCLE K 2707262,2170 Laurel Ln,,N Ft Myers,FL,33917,1908,LEE,Convenience Store,26.705732,-81.869614,,,-9113683.74192186,3086754.711248498
436042,Winn Dixie 721,960 S Main St,,Labelle,FL,33935,4444,HENDRY,Supermarket,26.747559,-81.437965,,,-9065632.795040436,3091967.829081531
384414,Gordon Food Service Store MP126,1661 Gulf to Bay Blvd,,Clearwater,FL,33755,6422,PINELLAS,Supermarket,27.960558,-82.768234,,,-9213717.662738513,3244001.965289139
436987,CVS Pharmacy 3614,3038 S Atlantic Ave,,Daytona Beach,FL,32118,6102,VOLUSIA,Other,29.167662,-80.978058,,,-9014436.181988174,3397003.0068617314
384443,DOLLAR GENERAL 6046,2871 N Rifle Range Rd,,Wahneta,FL,33880,    ,POLK,Other,27.961353,-81.726669,,,-9097771.177310416,3244102.16031959
351997,WALGREEN 03455,2501 Broadway,,Riviera Beach,FL,33404,4534,PALM BEACH,Other,26.782965,-80.054939,,,-8911675.044966578,3096382.1631544353
384488,HULL'S SEAFOOD MARKET,111 W Granada Blvd,,Ormond Beach,FL,32174,6303,VOLUSIA,Specialty Store,29.284388,-81.058952,,,-9023441.260876406,3411892.2892260957
384572,WALGREEN 03784,3655 S Dixie Hwy,,Miami,FL,33133,4306,MIAMI DADE,Other,25.733313,-80.253365,,,-8933763.726246724,2966087.933585311
282004,WALGREEN 02230,5420 Dr Martin Luther King Jr St N,,Saint Petersburg,FL,33703,1202,PINELLAS,Other,27.821472,-82.646889,,,-9200209.599128203,3226484.0817762725
282006,PUBLIX  0855,7576 S US Highway 1,,Port Saint Lucie,FL,34952,1450,ST LUCIE,Supermarket,27.327589,-80.321198,,,-8941314.861265702,3164459.621410791
257720,CVS Pharmacy 1821,1690 S Federal Hwy,,Delray Beach,FL,33483,5030,PALM BEACH,Other,26.440325,-80.07103,,,-8913466.286892932,3053720.0839072173
257777,CIRCLE K 2707377,19101 US Highway 41 N,,N Ft Myers,FL,33903,1252,LEE,Convenience Store,26.741581,-81.915787,,,-9118823.696770258,3091222.642269129
257826,WINN DIXIE  728,14600 Palm Beach Blvd,,Fort Myers,FL,33905,2302,LEE,Supermarket,26.710209,-81.719589,,,-9096983.0353156,3087312.6116285725
257892,Wayne's Grocery,1594 Highway 90,,Ponce de Leon,FL,32455,6814,HOLMES,Grocery Store,30.729311,-85.934364,,,-9566169.64212382,3597644.695689643
342048,PUBLIX 497,36301 EAST LAKE ROAD,,PALM HARBOR,FL,34684,    ,PINELLAS,Supermarket,28.068289,-82.734634,,,-9209977.327847859,3257586.2014778946
340853,Whole Foods Market 10130,1400 B GLADES ROAD,,BOCA RATON,FL,33431,    ,PALM BEACH,Super Store,26.365631,-80.109901,,,-8917793.386819556,3044436.836948222
282133,ZITRO of OCALA Inc.,9431 SE Maricamp Rd,,Ocala,FL,34472,2413,MARION,Convenience Store,29.101093,-82.009132,,,-9129214.814638356,3388519.2114498443
256237,CIRCLE K 2707510,6201 N Orange Blossom Trl,,Orlando,FL,32810,1014,ORANGE,Convenience Store,28.612286,-81.431328,,,-9064893.967580039,3326390.674271569
343356,Winn Dixie 2203,1838 S Ridgewood Ave,,Edgewater,FL,32141,3643,VOLUSIA,Supermarket,28.972197,-80.895706,,,-9005268.799282366,3372107.811707927
343498,WINN DIXIE  2306,1514 S French Ave,,Sanford,FL,32771,3374,SEMINOLE,Supermarket,28.798454,-81.273163,,,-9047287.120318722,3350018.66919034
343541,WINN DIXIE 0190,1520 University Blvd W,,Jacksonville,FL,32217,2006,DUVAL,Supermarket,30.260849,-81.644196,,,-9088590.324946223,3537123.8100737827
343882,SACKS GROCERY OUTLETS INC.,6013 Edgewater Dr,,Orlando,FL,32810,4807,ORANGE,Grocery Store,28.61132,-81.416473,,,-9063240.316544306,3326268.181338832
343954,CIRCLE K 2701866,5770 VAN DYKE RD,,TAMPA,FL,33549,    ,HILLSBOROUGH,Convenience Store,28.087135,-82.437386,,,-9176887.83184854,3259963.9678922314
343980,Walmart S/C  967,1485 Commercial Way,,Spring Hill,FL,34606,4525,HERNANDO,Super Store,28.457384,-82.628487,,,-9198161.097858626,3306762.793547999
344006,PUBLIX  0303,170 S Flamingo Rd,,Pembroke Pines,FL,33027,1720,BROWARD,Supermarket,26.00633,-80.312035,,,-8940294.840771565,2999864.9621973056
344046,CVS Pharmacy 4072,1525 W 49th St,,Hialeah,FL,33012,2924,MIAMI DADE,Other,25.866678,-80.313499,,,-8940457.812506085,2982577.7910841326
344270,Walgreens 3239,1 SE 3rd Ave,Ste 100,Miami,FL,33131,1707,MIAMI DADE,Other,25.773773,-80.18895,,,-8926593.081247276,2971088.632919877
255923,CVS Pharmacy 3658,11900 McCormick Rd,,Jacksonville,FL,32225,1839,DUVAL,Other,30.360199,-81.503845,,,-9072966.523093896,3549934.6024258286
255935,Walgreens 3755,3505 University Blvd W,,Jacksonville,FL,32217,2130,DUVAL,Other,30.261166,-81.626244,,,-9086591.917447502,3537164.6653444227
255936,WASSI'S MEAT MARKET,830 N Wickham Rd,,Melbourne,FL,32935,8866,BREVARD,Other,28.119555,-80.672935,,,-8980470.044998856,3264055.318714175
315891,DOLLAR GENERAL 1478,315 W Jefferson St,,Quincy,FL,32351,2325,GADSDEN,Other,30.588099,-84.580559,,,-9415464.758890431,3579370.7024580664
317124,Robert's Seafood #3,7722 Merrill Rd,,Jacksonville,FL,32277,3715,DUVAL,Specialty Store,30.352171,-81.566986,,,-9079995.347062076,3548898.9407380912
342293,CVS Pharmacy 3269,8914 N MILITARY TRI,,PALM BEACH GARDEN,FL,33410,    ,PALM BEACH,Other,26.807135,-80.10627,,,-8917389.185748486,3099396.4108188762
437256,CVS Pharmacy 3437,575 W Indiantown Rd,,Jupiter,FL,33458,3540,PALM BEACH,Other,26.934149,-80.102135,,,-8916928.879654057,3115246.9430602975
281734,Walmart 779,3501 S Florida Ave,,Lakeland,FL,33803,4860,POLK,Super Store,28.000799,-81.959579,,,-9123698.599911079,3249074.525644391
281785,DOLLAR GENERAL 7740,13953 W US 90,,Greenville,FL,32331,4217,MADISON,Other,30.470585,-83.634827,,,-9310186.354223529,3564183.714582963
256365,PUBLIX  0827,1850 Ridgewood Ave,,Holly Hill,FL,32117,1738,VOLUSIA,Supermarket,29.262289,-81.050575,,,-9022508.737502027,3409072.0918323644
317247,CIRCLE K 2704633,541 Barton Blvd,,Rockledge,FL,32955,3121,BREVARD,Convenience Store,28.330803,-80.734543,,,-8987328.216187648,3290744.8607765534
339914,CIRCLE K 2700025,405 N Brevard Ave,,Arcadia,FL,34266,4503,DESOTO,Convenience Store,27.221813,-81.856735,,,-9112250.058199935,3151211.79003639
282477,CIRCLE K 2707347,HWY 92 W/CO LINE RD,,LAKELAND,FL,33805,    ,POLK,Convenience Store,28.027214,-82.055794,,,-9134409.204717753,3252405.285887067
342598,CONTINENTAL MARKET MOTI'S,3980-90 N ANDREWS AVENUE,,OAKLAND PARK,FL,33309,    ,BROWARD,Grocery Store,26.175634,-80.146667,,,-8921886.159218062,3020850.2780783167
341407,Walmart 580,1050 E Van Fleet Dr,,Bartow,FL,33830,7603,POLK,Super Store,27.907005,-81.833069,,,-9109615.57113082,3237254.298847875
316313,CIRCLE K 2704742,4742 State Road 44,,New Smyrna Beach,FL,32168,9026,VOLUSIA,Convenience Store,29.025532,-81.138779,,,-9032327.561867958,3378896.0879359525
316340,DOLLAR GENERAL 8590,9410 N Century Blvd,,Century,FL,32535,1650,ESCAMBIA,Other,30.995506,-87.258957,,,-9713622.660392154,3632165.525689723
316383,Circle K 2721233,500 E Moody Blvd,,Bunnell,FL,32110,    ,FLAGLER,Convenience Store,29.468231,-81.255424,,,-9045312.423871541,3435377.4062275584
316464,CVS Pharmacy 931,101 Hialeah Dr,,Hialeah,FL,33010,5216,MIAMI DADE,Other,25.822807,-80.278557,,,-8936568.086858789,2977151.3315774915
1598386,7-eleven Store #42323a 42323A,13677 Immokalee Road,,Naples,FL,34120,    ,COLLIER,Convenience Store,26.284895,-81.59494,,,-9083107.172107708,3034409.4109392473
316778,PUBLIX 0780,3913 Manatee Ave W,,Bradenton,FL,34205,1715,MANATEE,Supermarket,27.495663,-82.60083,,,-9195082.334701756,3185535.9523910102
341497,CIRCLE K 2708536,4630 S 50th St,,Tampa,FL,33619,9507,HILLSBOROUGH,Convenience Store,27.901312,-82.401718,,,-9172917.288250925,3236537.178610893
256752,Circle K 2726228,4775 Fay Blvd,,Cocoa,FL,32927,8237,BREVARD,Convenience Store,28.468504,-80.799461,,,-8994554.854890967,3308170.86633989
317458,Circle K 2721295,14300 W Newberry Rd,,Newberry,FL,32669,2805,ALACHUA,Convenience Store,29.654037,-82.496269,,,-9183442.65742492,3459156.5920451153
317490,Walmart Supercenter 1219,12100 Lem Turner Rd,,Jacksonville,FL,32218,2304,DUVAL,Super Store,30.451351,-81.704903,,,-9095348.197273811,3561699.7448477913
256822,Walgreens 3371,7910 NW 27th Ave,,Miami,FL,33147,4902,MIAMI DADE,Other,25.846254,-80.241882,,,-8932485.444533944,2980051.270289875
256836,PUBLIX  1712,220 N Nova Rd,,Ormond Beach,FL,32174,5124,VOLUSIA,Supermarket,29.284309,-81.082863,,,-9026103.021220762,3411882.2064351253
1642286,Fruitland Food Mart,3277 S US Highway 27,,Fruitland Park,FL,34731,4477,LAKE,Convenience Store,28.850863,-81.900169,,,-9117085.10896305,3356677.8957742085
341635,CVS Pharmacy 5147,227 SW 8th St,,Miami,FL,33130,3529,MIAMI DADE,Other,25.766333,-80.197868,,,-8927585.82846617,2970168.949871265
341680,CVS Pharmacy 5784,10013 McMullen Rd,,Riverview,FL,33569,5541,HILLSBOROUGH,Other,27.85441,-82.302246,,,-9161844.115862736,3230630.5906626745
342908,CVS Pharmacy 5181,2303 SW 75th St,,Gainesville,FL,32607,3425,ALACHUA,Other,29.630701,-82.42244,,,-9175224.050739143,3456167.6797267394
317820,PUBLIX  0262,18496 NW 67th Ave,,Hialeah,FL,33015,3440,MIAMI DADE,Supermarket,25.941263,-80.307045,,,-8939739.356512506,2991807.931371525
317880,Sam's Market,3365 S Military Trl,,Lake Worth,FL,33463,2268,PALM BEACH,Convenience Store,26.627932,-80.113251,,,-8918166.307113716,3077063.1785704484
317916,CVS Pharmacy 4469,1819 W Tennessee St,,Tallahassee,FL,32304,3356,LEON,Other,30.448973,-84.313301,,,-9385713.734420003,3561392.672737759
339602,PUBLIX  0867,619 S Fort Harrison Ave,,Clearwater,FL,33756,5301,PINELLAS,Supermarket,27.959141,-82.799919,,,-9217244.820804298,3243823.3805050193
343088,Walmart 1374,200 S State Road 434,,Altamonte Springs,FL,32714,3858,SEMINOLE,Super Store,28.660311,-81.419228,,,-9063547.001741441,3332481.871098712
339639,Walmart 800,2501 CITRUS BLVD,,LEESBURG,FL,34748,    ,LAKE,Super Store,28.842546,-81.899185,,,-9116975.570584109,3355620.8918500403
343170,CUMBERLAND FARMS 9556,10975 S Ocean Dr,,Jensen Beach,FL,34957,2690,ST LUCIE,Convenience Store,27.264805,-80.202126,,,-8928059.826857967,3156594.7682701363
342005,SUNRISE MEATS,1601 W Sunrise Blvd,,Ft Lauderdale,FL,33311,6959,BROWARD,Supermarket,26.136738,-80.164253,,,-8923843.823783154,3016026.410371712
336814,CIRCLE K 2707157,9326 W C 476,,Bushnell,FL,33513,7784,SUMTER,Convenience Store,28.620516,-82.203583,,,-9150861.000942599,3327434.3191717584
337111,DOLLAR GENERAL 1416,12500 Seminole Blvd,,Largo,FL,33778,2746,PINELLAS,Other,27.88636,-82.787216,,,-9215830.72931275,3234653.9256509617
337132,DOLLAR GENERAL 4071,407 E Memorial Blvd,,Lakeland,FL,33801,1768,POLK,Other,28.054924,-81.95372,,,-9123046.37901452,3255900.2158705615
337144,PUBLIX 0784,3820 Murrell Rd,,Rockledge,FL,32955,4741,BREVARD,Supermarket,28.294996,-80.722099,,,-8985942.956444217,3286217.2026182623
337444,Walgreens 5994,7520 W Newberry Rd,,Gainesville,FL,32606,6728,ALACHUA,Other,29.659819,-82.422554,,,-9175236.741161095,3459897.2669981015
337524,Sam's Food Market,2102 Ford St,,Fort Myers,FL,33916,4133,LEE,Convenience Store,26.638571,-81.848228,,,-9111303.063291756,3078388.0870721554
337616,Circle K 2726272,543 S US Highway 17,,San Mateo,FL,32187,2316,PUTNAM,Convenience Store,29.606607,-81.584526,,,-9081947.890930587,3453082.4079773016
337747,Walmart 2591,151 SW 184th Ave,,Pembroke Pnes,FL,33029,5465,BROWARD,Super Store,26.006128,-80.392479,,,-8949249.825888937,2999839.9423056324
337847,PUBLIX  0228,6330 W Indiantown Rd,,Jupiter,FL,33458,7981,PALM BEACH,Supermarket,26.934441,-80.130875,,,-8920128.201819455,3115283.4033215633
335514,CUMBERLAND FARMS 9565,2001 NE Savannah Rd,,Jensen Beach,FL,34957,5422,MARTIN,Convenience Store,27.230465,-80.236343,,,-8931868.84587444,3152294.9297622894
242327,La Trocha Supermarket,12073 W Okeechobee Rd,,Hialeah,FL,33018,2919,MIAMI DADE,Grocery Store,25.883823,-80.361916,,,-8945847.568291822,2984699.025168475
299109,WINN DIXIE  309,7915 S Dixie Hwy,,West Palm Beach,FL,33405,4821,PALM BEACH,Supermarket,26.647062,-80.056343,,,-8911831.33753165,3079445.5868499223
1647858,7-Eleven 10305J,705 Honore Ave,,Sarasota,FL,34232,2761,SARASOTA,Convenience Store,27.329851,-82.463776,,,-9179825.553210573,3164743.061652625
299410,CVS PHARMACY 1771,2322 Land O Lakes Blvd,,Lutz,FL,33549,2919,PASCO,Other,28.191133,-82.465744,,,-9180044.629968455,3273092.7294030907
1647422,7-Eleven 22868J,1201 Old Dixie Hwy,,Vero Beach,FL,32960,3746,INDIAN RIVER,Convenience Store,27.623619,-80.394951,,,-8949525.00767018,3201603.097433074
318223,CIRCLE K 2704632,533 Cape Coral Pkwy E,,Cape Coral,FL,33904,8545,LEE,Convenience Store,26.562859,-81.962212,,,-9123991.704130337,3068962.1127491617
241080,Handy Food Stores 75,2902 Lake Trafford Rd,,Immokalee,FL,34142,2673,COLLIER,Convenience Store,26.432888,-81.450394,,,-9067016.384991504,3052795.5165296267
302243,PUBLIX 0229,709 E 3rd Ave,,New Smyrna Beach,FL,32169,3101,VOLUSIA,Supermarket,29.028658,-80.896088,,,-9005311.323327849,3379294.0620564763
302324,CVS Pharmacy 3251,130 E State Road 434,,Longwood,FL,32750,5214,SEMINOLE,Other,28.697773,-81.345268,,,-9055313.812202372,3337235.259255103
302381,CIRCLE K 2701677,2749 9th Ave N,,St Petersburg,FL,33713,6804,PINELLAS,Convenience Store,27.781029,-82.670792,,,-9202870.468916636,3221394.501233747
302464,WINN DIXIE 358,251 Key Deer Blvd,,Big Pine Key,FL,33043,4906,MONROE,Supermarket,24.673136,-81.358337,,,-9056768.64662755,2835649.8362801904
302532,PUBLIX  0896,8244 Navarre Pkwy,,Navarre,FL,32566,6943,SANTA ROSA,Supermarket,30.401789,-86.878593,,,-9671280.733596062,3555301.331503455
303182,Mobil Quick Mart,6901 N 56th St,,Tampa,FL,33617,8707,HILLSBOROUGH,Convenience Store,28.011129,-82.393387,,,-9171989.885573128,3250376.974403398
335461,Walmart 1084,3838 S Semoran Blvd,,Orlando,FL,32822,4006,ORANGE,Super Store,28.504999,-81.310387,,,-9051430.877044013,3312793.0965961562
318284,Sam's Market And Deli,106 NW 11th Ave,,Fort Lauderdale,FL,33311,8946,BROWARD,Convenience Store,26.123234,-80.156052,,,-8922930.892639158,3014352.025115996
241192,PUBLIX 1105,13820 Old St Aug Rd,,Jacksonville,FL,32258,2448,DUVAL,Supermarket,30.142326,-81.549187,,,-9078013.971445445,3521857.6740062777
241243,WINN DIXIE  2366,2950 9th St SW,,Vero Beach,FL,32968,4109,INDIAN RIVER,Supermarket,27.587244,-80.416214,,,-8951891.994002918,3197033.6651013703
241369,CVS Pharmacy 3351,7300 Curry Ford Rd,,Orlando,FL,32822,7929,ORANGE,Other,28.514965,-81.28875,,,-9049022.257221717,3314055.6061681197
241543,Walmart Supercenter 859,2000 State Road 60 E # 60E,,Lake Wales,FL,33898,5182,POLK,Super Store,27.894049,-81.555862,,,-9078757.02904649,3235622.3476808104
335708,WALGREENS 2838,3101 N Ocean Blvd,,Fort Lauderdale,FL,33308,7186,BROWARD,Other,26.167561,-80.100517,,,-8916748.764717953,3019848.935282152
319598,Walmart Supercenter 2796,3801 Tampa Rd,,Oldsmar,FL,34677,3008,PINELLAS,Super Store,28.042446,-82.674126,,,-9203241.608098939,3254326.313887595
318443,Mac's Meat & Produce,1277 1st St S,,Winter Haven,FL,33880,3946,POLK,Supermarket,28.00968,-81.726822,,,-9097788.209192507,3250194.271010718
300096,WINN DIXIE  2225,684 E Highway 50,,Clermont,FL,34711,3184,LAKE,Supermarket,28.549007,-81.747604,,,-9100101.650850173,3318369.00394959
338291,Winn Dixie 0012,12333 Sago Ave,,Jacksonville,FL,32218,2654,DUVAL,Supermarket,30.460596,-81.633224,,,-9087368.927493239,3562893.626665904
319693,Circle K 2726508,6835 State Road 21,,Keystone Heights,FL,32656,9743,CLAY,Convenience Store,29.820456,-81.995399,,,-9127686.064071292,3480491.950598572
301455,PUBLIX 0015,250 Citrus Tower Blvd,,Clermont,FL,34711,2790,LAKE,Supermarket,28.56492,-81.741295,,,-9099399.336182758,3320385.788399719
318545,WALGREENS 6886,7020 Massachusetts Ave,,New Port Richey,FL,34653,2930,PASCO,Other,28.258623,-82.698181,,,-9205919.398449972,3281619.535197701
240500,PUBLIX 0748,1140 SW 36th Ave,07481,Pompano Beach,FL,33069,4835,BROWARD,Supermarket,26.21512,-80.171959,,,-8924701.651779206,3025748.9641163805
336064,WALGREENS 3613,4220 Manatee Ave W,,Bradenton,FL,34205,1721,MANATEE,Other,27.495777,-82.603722,,,-9195404.27066913,3185550.2587873302
301621,PUBLIX  500,3316 N Roosevelt Blvd,,Key West,FL,33040,4115,MONROE,Supermarket,24.570675,-81.764397,,,-9101971.039059065,2823103.143426719
301672,PUBLIX 1106,13450 Summerport Village Pkwy,,Windermere,FL,34786,7366,ORANGE,Supermarket,28.477478,-81.585091,,,-9082010.786442887,3309307.3093922967
336172,Los Amigos Inc.,1600 Missouri Ave N,Ste 110,Largo,FL,33770,1827,PINELLAS,Convenience Store,27.932199,-82.786858,,,-9215790.876935046,3240428.320870746
301720,WALGREENS  4482,1565 Airport Rd S,,Naples,FL,34104,4351,COLLIER,Other,26.139061,-81.766449,,,-9102199.466654172,3016314.4628391424
240697,Tom Thumb 900138,5450 Saufley Field Rd,,Pensacola,FL,32526,1630,ESCAMBIA,Convenience Store,30.461628,-87.323799,,,-9720840.838814171,3563026.9042231226
240787,WINN DIXIE  0153,7921 Normandy Blvd,,Jacksonville,FL,32221,6640,DUVAL,Supermarket,30.293581,-81.779457,,,-9103647.510590412,3541343.0389167303
300672,MONEY SAVER,2902 E Dr Martin Luther King Jr Blvd,,Tampa,FL,33610,7741,HILLSBOROUGH,Convenience Store,27.981468,-82.42775,,,-9175815.157235255,3246637.529285204
338846,CVS Pharmacy 0866,9031 SW 107th Ave,,Miami,FL,33176,1414,MIAMI DADE,Other,25.685007,-80.366196,,,-8946324.01571242,2960119.7274579233
300707,CIRCLE K 2708530,35319 US 19 N,,Palm Harbor,FL,34684,1930,PINELLAS,Convenience Store,28.092932,-82.739395,,,-9210507.319943525,3260695.449033661
338908,Walmart Supercenter 5055,9885 Collier Blvd,,Naples,FL,34114,2638,COLLIER,Super Store,26.148932,-81.686852,,,-9093338.769145502,3017538.532753345
300736,Winn Dixie 0182,3551 N Ponce de Leon Blvd,,St Augustine,FL,32084,1202,ST JOHNS,Supermarket,29.925406,-81.326035,,,-9053172.804435944,3493965.0793994614
301958,Walgreens 3389,3529 E Silver Springs Blvd,,Ocala,FL,34470,6403,MARION,Other,29.197414,-82.087311,,,-9137917.661109084,3400796.488270795
336708,DOLLAR GENERAL  6215,7726 Highway 77,,Southport,FL,32409,1577,BAY,Other,30.290623,-85.641502,,,-9533568.39341112,3540961.6881733057
339047,Walmart Supercenter 1349,3306 N University Dr,,Sunrise,FL,33351,6720,BROWARD,Super Store,26.167139,-80.256371,,,-8934098.352636049,3019796.5939881927
323833,CVS Pharmacy 3642,7030 S Jog Rd,,Lake Worth,FL,33467,7607,PALM BEACH,Other,26.571598,-80.146011,,,-8921813.133632103,3070049.7803945625
323888,PUBLIX 0340,9100 S US Highway 1,,Port Saint Lucie,FL,34952,3406,ST LUCIE,Supermarket,27.302868,-80.30674,,,-8939705.404067814,3161362.3296514153
324246,Bella Vista Enterprises Inc/Ideal Food Basket,2750 Davie Blvd,,Ft Lauderdale,FL,33312,2927,BROWARD,Super Store,26.106287,-80.178719,,,-8925454.171536969,3012251.009894861
324403,FAMILY BUDGET SUPERMARKET,2319 NE 5th Ave,,Pompano Beach,FL,33064,5501,BROWARD,Supermarket,26.25989,-80.115982,,,-8918470.320643071,3031305.201649943
324630,CVS Pharmacy 5231,7563 SE Maricamp Rd,,Ocala,FL,34472,2112,MARION,Other,29.118002,-82.027,,,-9131203.871299852,3390673.6355129103
324720,CVS Pharmacy 2849,1698 S Palm Ave,,Pembroke Pines,FL,33025,5587,BROWARD,Other,25.993837,-80.279366,,,-8936658.144326838,2998317.6495545595
452965,CVS Pharmacy 5160,3904 NW 13th St,,Gainesville,FL,32609,1937,ALACHUA,Other,29.68931,-82.339111,,,-9165947.90889083,3463675.7304276256
266252,CIRCLE K 2707435,3416 Handy Rd,,Tampa,FL,33618,4608,HILLSBOROUGH,Convenience Store,28.074827,-82.505592,,,-9184480.489037585,3258411.0420879484
265055,CIRCLE K 2707008,116 N Charleston Ave,,Fort Meade,FL,33841,2820,POLK,Convenience Store,27.754061,-81.801453,,,-9106096.0941099,3218001.7442931677
396779,PUBLIX 1708,5050 Champion Blvd,,Boca Raton,FL,33496,    ,PALM BEACH,Supermarket,26.411793,-80.123795,,,-8919340.059824638,3050173.311962679
454357,CIRCLE K 2707153,CR SR 39/CENTRAL AVE,,CRYSTAL SPRINGS,FL,33527,    ,HILLSBOROUGH,Convenience Store,27.996414,-82.212929,,,-9151901.392903553,3248521.6846162057
396791,PUBLIX 0180,7745 Lake Worth Rd,,Lake Worth,FL,33467,2536,PALM BEACH,Supermarket,26.617617,-80.169106,,,-8924384.057271972,3075778.736582757
339238,Super Choice Foods,610 W Memorial Blvd,,Lakeland,FL,33815,1460,POLK,Super Store,28.054844,-81.963394,,,-9124123.283768455,3255890.124556439
453270,DOLLAR GENERAL 3478,5007 N Davis Hwy,Ste 6,Pensacola,FL,32503,2303,ESCAMBIA,Other,30.471027,-87.225021,,,-9709844.922152594,3564240.802318966
453501,WINN DIXIE  710,14134 US Highway 19,,Hudson,FL,34667,1167,PASCO,Supermarket,28.362661,-82.694359,,,-9205493.93535616,3294774.465559045
1584178,DOLLARTREE 8092,1072 Clearlake Rd,,Cocoa,FL,32922,6384,BREVARD,Other,28.372072,-80.753548,,,-8989443.843110176,3295965.060761117
397825,CVS Pharmacy 4266,100 US Highway 41 Byp N,,Venice,FL,34285,6031,SARASOTA,Other,27.100611,-82.433472,,,-9176452.127361575,3136047.3971739775
265071,MEGA SUPERMARKET,4407 N Nebraska Ave,,Tampa,FL,33603,4146,HILLSBOROUGH,Supermarket,27.985601,-82.451118,,,-9178416.471096111,3247158.526440384
265076,CVS Pharmacy 5785,1209 Del Prado Blvd S,,Cape Coral,FL,33990,3643,LEE,Other,26.630159,-81.940781,,,-9121606.016123146,3077340.503753091
324934,Walgreens 4003,3015 S University Dr,,Davie,FL,33328,2013,BROWARD,Other,26.083338,-80.251068,,,-8933508.025376372,3009406.378179109
266357,Winn Dixie 203,1055 HALLANDALE BCH BLVD,,HALLANDALE BCH,FL,33009,    ,BROWARD,Supermarket,25.984898,-80.163902,,,-8923804.750641884,2997210.6163088973
396902,CIRCLE K 2707443,10039 E Broadway Ave,,Tampa,FL,33619,7729,HILLSBOROUGH,Convenience Store,27.972521,-82.335579,,,-9165554.728449348,3245509.757959106
326096,Walmart STORE  1996,2551 E Hallandale Beach Blvd,,Hallandale Beach,FL,33009,4818,BROWARD,Super Store,25.986399,-80.123985,,,-8919361.210527891,2997396.498882374
339386,WINN DIXIE 2325,100 Canaveral Plaza Blvd,,Cocoa Beach,FL,32931,3520,BREVARD,Supermarket,28.356266,-80.609619,,,-8973421.740119789,3293965.487835769
396933,PUBLIX 0851,7050 Seminole Pratt Whitney Rd,,Loxahatchee,FL,33470,3474,PALM BEACH,Supermarket,26.779976,-80.294563,,,-8938349.866628423,3096009.448708922
397926,Walmart Supercenter 0994,8745 State Road 54,,New Port Richey,FL,34655,3006,PASCO,Super Store,28.206068,-82.668823,,,-9202651.280839263,3274979.179325328
326172,PUBLIX  0740,4791 Estero Blvd,,Fort Myers Beach,FL,33931,3923,LEE,Supermarket,26.436308,-81.920738,,,-9119374.839569176,3053220.683306512
266509,CIRCLE K 2707149,11401 US Highway 301 S,,Riverview,FL,33578,6124,HILLSBOROUGH,Convenience Store,27.834816,-82.328789,,,-9164798.869106863,3228163.7835977348
266558,Walgreens 748,12295 Biscayne Blvd,,North Miami,FL,33181,2713,MIAMI DADE,Other,25.889282,-80.163666,,,-8923778.479242058,2985374.49469721
323045,WALGREEN 03597,3700 34th St N,,St Petersburg,FL,33713,1521,PINELLAS,Other,27.805571,-82.679642,,,-9203855.646410156,3224482.7821740545
323083,PUBLIX 0024,10201 HAMMOCKS BLVD BOX 111,,MIAMI,FL,33196,    ,MIAMI DADE,Supermarket,25.672722,-80.444069,,,-8954992.798418963,2958602.3019033335
323260,PUBLIX  0054,311 SW 7th St,,Miami,FL,33130,2917,MIAMI DADE,Supermarket,25.767227,-80.19928,,,-8927743.011587169,2970279.4571255404
323475,Circle K 2722777,1777 S Highway 17,,Pomona Park,FL,32181,2201,PUTNAM,Convenience Store,29.496168,-81.593971,,,-9082999.30352113,3438949.9528127145
323516,Walmart Supercenter 1874,2931 S McCall Rd,,Englewood,FL,34224,8607,CHARLOTTE,Super Store,26.934393,-82.31044,,,-9162756.267770298,3115277.409847474
323633,PUBLIX  0010,8341 W Flagler St,,Miami,FL,33144,2029,MIAMI DADE,Supermarket,25.769817,-80.331039,,,-8942410.3563746,2970599.6114759403
325021,CVS Pharmacy 5025,1875 Capital Cir NE,,Tallahassee,FL,32308,4598,LEON,Other,30.470192,-84.230965,,,-9376548.132826049,3564132.9557954893
326262,DOLLAR GENERAL 8551,10247 Highway 98 W,,Destin,FL,32550,    ,WALTON,Other,30.376329,-86.346405,,,-9612037.836429771,3552015.729270514
264356,CIRCLE K 2707440,437 Ocoee Apopka Rd,,Ocoee,FL,34761,    ,ORANGE,Convenience Store,28.576279,-81.55069,,,-9078181.284640107,3321825.593767453
264368,CVS Pharmacy 3818,21200 Saint Andrews Blvd,,Boca Raton,FL,33433,2435,PALM BEACH,Other,26.36224,-80.13739,,,-8920853.448301973,3044015.5333845555
264476,Walmart SUPERSTORE 988,1575 Land O Lakes Blvd,,Lutz,FL,33549,2930,PASCO,Super Store,28.180531,-82.465561,,,-9180024.25850164,3271753.7435919927
264839,CIRCLE K 2705178,2009 W Pensacola St,,Tallahassee,FL,32304,3101,LEON,Convenience Store,30.440582,-84.317276,,,-9386156.229395907,3560309.1993370415
264954,PUBLIX  0532,939 W Brandon Blvd,,Brandon,FL,33511,4905,HILLSBOROUGH,Supermarket,27.937567,-82.297256,,,-9161288.631603679,3241104.6945688124
395978,Ez Deli Store ,8490 Pensacola Blvd,,Pensacola,FL,32534,3300,ESCAMBIA,Convenience Store,30.519829,-87.27243,,,-9715122.467891613,3570545.5549823595
326363,PUBLIX  1048,1501 Meeting Pl,,Orlando,FL,32814,6602,ORANGE,Supermarket,28.566544,-81.327827,,,-9053372.288963446,3320591.6283286912
325151,Walmart S/C  857,3653 S Orlando Dr,,Sanford,FL,32773,5611,SEMINOLE,Super Store,28.761137,-81.284996,,,-9048604.36385328,3345279.1131223533
454744,CIRCLE K 2707436,4950 Babcock St NE,,Palm Bay,FL,32905,2812,BREVARD,Convenience Store,28.027391,-80.622101,,,-8974811.230003871,3252427.607195614
454759,DOLLAR GENERAL 3476,387 W Nelson Ave,B,DEFUNIAK SPRING,FL,32433,1462,WALTON,Other,30.724567,-86.126106,,,-9587514.263927503,3597030.3492365666
397194,PUBLIX 0843,12900 Trade Way Four,,Bonita Springs,FL,34135,6983,LEE,Supermarket,26.330597,-81.740341,,,-9099293.137388542,3040084.749011373
397209,Walmart Supercenter 1173,8808 Beach Blvd,,Jacksonville,FL,32216,4621,DUVAL,Super Store,30.286722,-81.562653,,,-9079512.999708466,3540458.78173732
325362,La Ranchera Meat Market,181 SW 6th St,,Pompano Beach,FL,33060,7917,BROWARD,Grocery Store,26.222614,-80.126129,,,-8919599.87951615,3026678.867398872
454979,WINN DIXIE  2273,1750 Sunshadow Dr,Ste 100,Casselberry,FL,32707,9049,SEMINOLE,Supermarket,28.697317,-81.321419,,,-9052658.953666443,3337177.389199707
397413,Jiffy 2948,607 S Main St,,Chiefland,FL,32626,0228,LEVY,Convenience Store,29.472286,-82.858505,,,-9223766.58449191,3435895.8931719316
397506,PUBLIX  630,14371 Spring Hill Dr,,Spring Hill,FL,34609,8199,HERNANDO,Supermarket,28.479795,-82.485565,,,-9182251.093595468,3309600.7436780343
455130,Riverside Seafood Market,6501 N 40th St,,Tampa,FL,33610,1701,HILLSBOROUGH,Other,28.007317,-82.413857,,,-9174268.595549664,3249896.327271848
396386,PUBLIX  0331,4606 S Kirkman Rd,,Orlando,FL,32811,2891,ORANGE,Supermarket,28.495304,-81.459152,,,-9067991.321091872,3311565.03219097
326945,PUBLIX 0755,4265 TAMIAMI TRL,,PT CHARLOTTE,FL,33980,    ,CHARLOTTE,Supermarket,26.967062,-82.078247,,,-9136908.661244536,3119357.183622474
266076,WINN DIXIE 0271,1491 S Dixie Hwy,,Lantana,FL,33462,5413,PALM BEACH,Supermarket,26.573391,-80.054092,,,-8911580.757357875,3070272.9498334355
327019,Winn Dixie 2247,1260 Palm Coast Pkwy NW,,Palm Coast,FL,32137,4738,FLAGLER,Supermarket,29.553474,-81.23278,,,-9042791.705322018,3446281.253947984
325914,Best Value Foods,607 E Canal St,,Mulberry,FL,33860,2511,POLK,Convenience Store,27.894814,-81.968338,,,-9124673.647330938,3235718.702445004
357757,DOLLAR GENERAL  7891,1111 W Silver Springs Blvd,,Ocala,FL,34475,6464,MARION,Other,29.186508,-82.148369,,,-9144714.60657794,3399405.8083683127
357856,Tom Thumb 900019,7935 Pine Forest Rd,,Pensacola,FL,32526,8771,ESCAMBIA,Convenience Store,30.518229,-87.313019,,,-9719640.81470342,3570338.8000876736
357871,WINN DIXIE 0028,729 W Base St,,Madison,FL,32340,1461,MADISON,Supermarket,30.471317,-83.424957,,,-9286823.732690744,3564278.2582141305
358512,PUBLIX  0227,540 S Hunt Club Blvd,,Apopka,FL,32703,4960,SEMINOLE,Supermarket,28.671127,-81.449745,,,-9066944.13864198,3333854.0911535365
322777,Circle K 2722111,6004 US Highway 1,,Mims,FL,32754,5813,BREVARD,Convenience Store,28.765881,-80.877533,,,-9003245.79017618,3345881.544832226
371048,Walmart Supercenter 1408,4400 W Tennessee St,,Tallahassee,FL,32304,1029,LEON,Super Store,30.459469,-84.358063,,,-9390696.617466893,3562748.0819540448
371491,Winn Dixie 2271,1021 Lockwood Blvd,,Oviedo,FL,32765,6001,SEMINOLE,Supermarket,28.657331,-81.179153,,,-9036821.974989247,3332103.824995581
457982,CVS PHARMACY 3520,6202 N US Highway 41,,Apollo Beach,FL,33572,1801,HILLSBOROUGH,Other,27.769764,-82.391579,,,-9171788.619933771,3219977.1857262263
458076,CIRCLE K 2704110,2704 S Ferncreek Ave,,Orlando,FL,32806,5539,ORANGE,Convenience Store,28.51269,-81.359856,,,-9056937.740934063,3313767.3948504655
458147,Sunlight Produce,2708 S Chickasaw Trl,,Orlando,FL,32829,8550,ORANGE,Grocery Store,28.50963,-81.269035,,,-9046827.59346073,3313379.7445967216
458167,CIRCLE K 2701707,1190 Overseas Hwy,,Key West,FL,33040,5673,MONROE,Convenience Store,24.599251,-81.651894,,,-9089447.26238635,2826601.336814413
458265,Walmart Supercenter 759,1480 US Highway 17 N,,Wauchula,FL,33873,5006,HARDEE,Super Store,27.567436,-81.8153,,,-9107637.535098914,3194546.019029898
458357,PUBLIX 0032,4370 Thomasson Dr,,Naples,FL,34112,6725,COLLIER,Supermarket,26.106621,-81.751167,,,-9100498.28219587,3012292.414817204
458421,CVS PHARMACY 5126,11211 SW 152nd St,,Miami,FL,33157,1101,MIAMI DADE,Other,25.627798,-80.375282,,,-8947335.464605765,2953054.684729773
455523,TAN TIEN ORIENTAL MARKET,5266 W Colonial Dr,,Orlando,FL,32808,7619,ORANGE,Grocery Store,28.552301,-81.451736,,,-9067165.77574815,3318786.454452852
321462,WINN DIXIE  371,19167 S Dixie Hwy,,Cutler Bay,FL,33157,7714,MIAMI DADE,Supermarket,25.590094,-80.358543,,,-8945472.087649379,2948400.2681632857
321471,DOLLAR GENERAL 9764,108 N CENTER ST,,Pierson,FL,32180,    ,VOLUSIA,Other,29.24073,-81.462982,,,-9068417.674741609,3406321.3946183915
321727,WINN DIXIE  0051,6060 Fort Caroline Rd Ste 10,,Jacksonville,FL,32277,1890,DUVAL,Supermarket,30.366262,-81.596573,,,-9083288.956836175,3550716.823291066
321783,Walgreens 3173,9020 Biscayne Blvd,,Miami Shores,FL,33138,3222,MIAMI DADE,Other,25.857918,-80.184219,,,-8926066.428736333,2981494.0947479536
322096,DOLLAR GENERAL  7049,1498 S Highway 29,,Cantonment,FL,32533,8632,ESCAMBIA,Other,30.580982,-87.29789,,,-9717956.662127208,3578450.4099436486
322459,Walmart 767,2767 W US HIGHWAY 90,,LAKE CITY,FL,32055,    ,COLUMBIA,Super Store,30.181353,-82.677544,,,-9203622.09811847,3526882.445571516
320310,Star Mini Mart,2950 N Washington Blvd,,Sarasota,FL,34234,6250,SARASOTA,Convenience Store,27.361832,-82.530548,,,-9187258.578249821,3168751.0647459985
320317,Grocery Outlet 7710,4230C Lafayette St,,Marianna,FL,32446,8234,JACKSON,Super Store,30.781364,-85.243378,,,-9489249.43245854,3604387.529937617
372746,PUBLIX 0837,6525 Nova Dr,,Davie,FL,33317,7401,BROWARD,Supermarket,26.086533,-80.232033,,,-8931389.058869122,3009802.37935899
456910,Walgreens 2489,3007 Aventura Blvd,,Miami,FL,33180,3106,MIAMI DADE,Other,25.961676,-80.141045,,,-8921260.321040824,2994335.1257165708
499789,CIRCLE K 2704070,2173 N Hercules Ave,,Clearwater,FL,33763,2322,PINELLAS,Convenience Store,28.00069,-82.754814,,,-9212223.755172066,3249060.7831432167
500239,CIRCLE K 2705169,2849 Apalachee Pkwy,,Tallahassee,FL,32301,8048,LEON,Convenience Store,30.426985,-84.232124,,,-9376677.152115878,3558553.7081104913
500256,PUBLIX  0707,1910 N John Young Pkwy,,Kissimmee,FL,34741,3221,OSCEOLA,Supermarket,28.309622,-81.416122,,,-9063201.243403038,3288066.4202097803
319801,WALGREENS  3429,13705 Park Blvd,,Seminole,FL,33776,3402,PINELLAS,Other,27.843887,-82.828682,,,-9220446.703317985,3229305.7312072855
319809,OCEANIC TRADING INTERNATIONAL INC,1609 N Tampa St,,Tampa,FL,33602,2646,HILLSBOROUGH,Grocery Store,27.957342,-82.460899,,,-9179505.287035562,3243596.6555644623
320013,Circle K 2722577,1119 State Road 100,,Florahome,FL,32140,2959,PUTNAM,Convenience Store,29.732693,-81.882622,,,-9115131.785858098,3469236.0890476396
371878,WALGREENS  6071,38 Homestead Rd N,,Lehigh Acres,FL,33936,6646,LEE,Other,26.602072,-81.644516,,,-9088625.947183276,3073843.26465945
371966,WALGREEN'S  05657,101 Ariana St,,Lakeland,FL,33803,2159,POLK,Other,28.025948,-81.95723,,,-9123437.110427203,3252245.6328520556
320544,CVS Pharmacy 4430,44 Gulf Beach Hwy,,Pensacola,FL,32507,3618,ESCAMBIA,Other,30.387737,-87.279213,,,-9715877.547997663,3553487.8209778713
372063,GATE PETROLEUM 1189,640 Stockton St,,Jacksonville,FL,32204,3022,DUVAL,Convenience Store,30.319042,-81.690575,,,-9093753.211609723,3544625.9931388265
455893,CVS Pharmacy 5169,100 2nd Ave SE,,Jasper,FL,32052,6114,HAMILTON,Other,30.517979,-82.945831,,,-9233487.670344925,3570306.4949428225
372143,Walgreens 4648,11101 US Highway 441,,Tavares,FL,32778,4647,LAKE,Other,28.818659,-81.772125,,,-9102831.316083916,3352585.5730854203
372161,Winn-Dixie 0336,3850 N 46th Ave,,Hollywood,FL,33021,1725,BROWARD,Supermarket,26.044966,-80.19062,,,-8926778.984796898,3004651.241816142
320782,Walmart Supercenter 778,5001 Taylor Rd,,Punta Gorda,FL,33950,4722,CHARLOTTE,Super Store,26.894415,-82.010902,,,-9129411.85013706,3110286.4803987057
372197,PUBLIX 667,915 DOYLE ROAD,,DELTONA,FL,32725,    ,VOLUSIA,Supermarket,28.869253,-81.251663,,,-9044893.751266666,3359015.373050546
457601,LITTLE ASIA MARKET INC.,1756 N University Dr,,Pembroke Pines,FL,33024,3602,BROWARD,Grocery Store,26.024216,-80.248848,,,-8933260.89610681,3002080.5080152364
457889,Walgreens 3565,18590 S Dixie Hwy,,Cutler Bay,FL,33157,6818,MIAMI DADE,Other,25.596264,-80.355453,,,-8945128.110422827,2949161.8309470084
373006,Save-A-Lot 21578,1325 E Oak St,,Arcadia,FL,34266,8902,DESOTO,Supermarket,27.210186,-81.845695,,,-9111021.091021577,3149756.343984359
372292,CVS Pharmacy 3685,7790 Blanding Blvd,,Jacksonville,FL,32244,5114,DUVAL,Other,30.20483,-81.739655,,,-9099216.772217859,3529906.095385426
1578219,El Supremo Market & Taqueria Corp,162 San Marco Ave,Ste 1,Saint Augustine,FL,32084,3291,ST JOHNS,Grocery Store,29.90745,-81.319893,,,-9052489.08012349,3491658.9426123095
456155,DOLLAR GENERAL 8010,1027 W Orange Blossom Trl,,Apopka,FL,32712,3482,ORANGE,Other,28.684385,-81.530609,,,-9075945.877945486,3335536.319675649
1588123,DOLLARTREE 8099,500 State Rd. 16,,St Augustine,FL,32084,    ,ST JOHNS,Other,29.917068,-81.347023,,,-9055509.177908713,3492894.1561873835
456213,CVS Pharmacy 176,970 Cypress Gardens Blvd,,Winter Haven,FL,33880,4636,POLK,Other,28.003933,-81.71357,,,-9096313.003300516,3249469.660018888
320890,Walmart Supercenter 538,5700 NW 23rd St,,Gainesville,FL,32653,2084,ALACHUA,Super Store,29.710114,-82.356133,,,-9167842.789263114,3466341.8598842993
372395,Fletcher Supermarket,1502 E Fletcher Ave,,Tampa,FL,33612,3685,HILLSBOROUGH,Grocery Store,28.069248,-82.442551,,,-9177462.797018487,3257707.1867344095
372526,CVS Pharmacy 262,400 6th St NW,,Winter Haven,FL,33881,4062,POLK,Other,28.02639,-81.732887,,,-9098463.36190417,3252301.3724818905
321097,WALGREENS  6012,655 NW 57th Ave,,Miami,FL,33126,4814,MIAMI DADE,Other,25.777802,-80.288322,,,-8937655.121686384,2971586.695025838
372618,Circle K 2721063,2691 ORANGE BLOSSOM TR,,ZELLWOOD,FL,32798,3180,ORANGE,Convenience Store,28.717802,-81.590599,,,-9082623.934198176,3339777.3487451966
372658,WARD'S SUPERMARKET,515 NW 23rd Ave,,Gainesville,FL,32609,8527,ALACHUA,Super Store,29.673912,-82.329514,,,-9164879.575737689,3461702.760471743
372686,PUBLIX  0353,1491 Main St,,Dunedin,FL,34698,4612,PINELLAS,Supermarket,28.019428,-82.762276,,,-9213054.421212366,3251423.4368453724
373248,PUBLIX 0239,10155 W Oakland Park Blvd,,Sunrise,FL,33351,6918,BROWARD,Supermarket,26.170206,-80.287308,,,-8937542.243722718,3020177.002920203
456675,WALGREENS  05659,870 E Cervantes St,,Pensacola,FL,32501,3212,ESCAMBIA,Other,30.422956,-87.207657,,,-9707911.97051446,3558033.5760868117
373490,Walgreens 03459,2117 E Hillsborough Ave,,Tampa,FL,33610,    ,HILLSBOROUGH,Other,27.995529,-82.435471,,,-9176674.655023672,3248410.1105347266
373491,Circle K 2726289,744 S US Highway 17,,San Mateo,FL,32187,2312,PUTNAM,Convenience Store,29.592379,-81.602348,,,-9083931.826895507,3451260.838113814
412158,Walgreens 2082,15 S Ocean Blvd,,Pompano Beach,FL,33062,5606,BROWARD,Other,26.231218,-80.090981,,,-8915687.22205375,3027746.5804343154
359974,Walgreens 4449,2101 Sadler Rd,,Fernandina Beach,FL,32034,4452,NASSAU,Other,30.639982,-81.448547,,,-9066810.77789201,3586081.6874116566
1646633,DOLLARTREE 10152,3545 Universal Plz,,New Port Richey,FL,34652,6259,PASCO,Other,28.210428,-82.741615,,,-9210754.449213086,3275529.943594079
360141,Lakeview Market,1940 22nd Ave S,,Saint Petersburg,FL,33712,3156,PINELLAS,Convenience Store,27.74814,-82.659973,,,-9201666.10334574,3217256.9549441678
360167,PUBLIX 0502,5000 US Highway 17,Ste 11,Fleming Island,FL,32003,8223,CLAY,Supermarket,30.102785,-81.708572,,,-9095756.62848553,3516768.750764582
360528,Walgreens 3555,1880 N Belcher Rd,,Clearwater,FL,33765,1407,PINELLAS,Other,27.989199,-82.745804,,,-9211220.76656002,3247612.0988982352
360768,WALGREEN 04734,719 S State Road 19,,Palatka,FL,32177,3946,PUTNAM,Other,29.642071,-81.67585,,,-9092114.032107793,3457623.881031679
360900,PUBLIX 0293,13735 SW 152nd St,,Miami,FL,33177,1106,MIAMI DADE,Supermarket,25.626364,-80.415596,,,-8951823.198557608,2952877.6359751513
438026,Tom Thumb 900062,7331 Highway 29 N,,Molino,FL,32577,9299,ESCAMBIA,Convenience Store,30.731182,-87.349342,,,-9723684.272567503,3597886.9978938117
438070,COUNTRY EXPRESS,10455 Broad St,,Brooksville,FL,34601,4859,HERNANDO,Convenience Store,28.580284,-82.375633,,,-9170013.519333582,3322333.282963872
438106,Circle K 2726086,1500 N Singleton Ave,,Titusville,FL,32796,1648,BREVARD,Convenience Store,28.637156,-80.846191,,,-8999756.814695738,3329544.6846888126
438794,Walgreens 03318,11690 SW 72nd St,,Miami,FL,33173,2691,MIAMI DADE,Other,25.700535,-80.381348,,,-8948010.728636919,2962037.947630881
362115,Walmart Supercenter 1916,5571 W Hillsboro Blvd,,Coconut Creek,FL,33073,4376,BROWARD,Super Store,26.317656,-80.200134,,,-8927838.078432307,3038477.4904044378
440117,WINN-DIXIE  0290,680 N Federal Hwy,,Ft Lauderdale,FL,33304,4687,BROWARD,Supermarket,26.131205,-80.137405,,,-8920855.118094336,3015340.3403370325
362127,AKEL MARKET,504 NW 6th St,,Pompano Beach,FL,33060,5532,BROWARD,Convenience Store,26.236776,-80.12986,,,-8920015.2125363,3028436.342222151
439217,WINN DIXIE  199,703 Chaffee Rd S,,Jacksonville,FL,32221,1105,DUVAL,Supermarket,30.306671,-81.848518,,,-9111335.345944086,3543030.763634967
362129,WALGREENS  5690,866 Dunn Ave,,Jacksonville,FL,32218,4803,DUVAL,Other,30.429913,-81.65976,,,-9090322.90150093,3558931.7177580437
358720,CVS PHARMACY 3158,1895 N Congress Ave,,Boynton Beach,FL,33426,8203,PALM BEACH,Other,26.545366,-80.090874,,,-8915675.310868233,3066785.1596665876
441078,Circle K 2722207,12390 E Colonial Dr,,Orlando,FL,32826,4704,ORANGE,Convenience Store,28.565363,-81.194962,,,-9038581.824819198,3320441.9377697175
412549,CVS Pharmacy 5112,101 S Main St,,Belle Glade,FL,33430,3423,PALM BEACH,Other,26.685471,-80.667725,,,-8979890.070451824,3084230.165268574
358784,Circle K 2726186,5111 Baymeadows Rd,,Jacksonville,FL,32217,4803,DUVAL,Convenience Store,30.220688,-81.593567,,,-9082954.33044685,3531948.8870520843
361206,DOLLAR GENERAL 3013,6003 Dundee Rd,,Winter Haven,FL,33884,1193,POLK,Other,28.018827,-81.644051,,,-9088574.18362006,3251347.65103889
359607,WINN DIXIE 0671,1050 58th St N,,St Petersburg,FL,33710,6327,PINELLAS,Supermarket,27.782681,-82.712326,,,-9207494.012647243,3221602.361353101
440176,MERIDIAN FOOD MARKET,812 6th St,,Miami Beach,FL,33139,6320,MIAMI DADE,Other,25.775768,-80.136421,,,-8920745.579715395,2971335.2512828773
412682,CVS Pharmacy 2731,2200 Gulf to Bay Blvd,,Clearwater,FL,33765,4001,PINELLAS,Other,27.960648,-82.746094,,,-9211253.04921235,3244013.3080857317
441197,Walgreens 6486,1111 W Vine St,,Kissimmee,FL,34741,4168,OSCEOLA,Other,28.304607,-81.415199,,,-9063098.495513035,3287432.327150352
412696,DOLLAR GENERAL 6384,310 E State Road 434,,Winter Springs,FL,32708,2624,SEMINOLE,Other,28.6991,-81.302025,,,-9050500.023461998,3337403.6676271134
442441,VICTORIA GROCERY,1416 W 49th St,,Hialeah,FL,33012,3219,MIAMI DADE,Grocery Store,25.866478,-80.310852,,,-8940163.149813956,2982553.0482626357
362258,WALGREENS 4480,3770 Tampa Rd,,Oldsmar,FL,34677,6306,PINELLAS,Other,28.043613,-82.678421,,,-9203719.725311896,3254473.504705522
442467,CVS Pharmacy 3486,906 Blanding Blvd,,Orange Park,FL,32065,6206,CLAY,Other,30.140886,-81.769318,,,-9102518.84227326,3521672.3103687116
412818,Nick's Food Mart,1219 Lakeland Hills Blvd,,Lakeland,FL,33805,4657,POLK,Convenience Store,28.059431,-81.953224,,,-9122991.164547088,3256468.747409207
442481,CHIPLEY PACKING COMPANY,1008 Highway 277,,Chipley,FL,32428,5924,WASHINGTON,Specialty Store,30.760494,-85.575638,,,-9526236.446469512,3601683.6369812572
442515,The Butcher Shoppe Etc,802 SW Federal Hwy,,Stuart,FL,34994,2939,MARTIN,Specialty Store,27.191992,-80.25518,,,-8933965.771122513,3147479.157872617
362356,TWIN BROTHERS FOOD MART,2433 Lucerne Park Rd,,Winter Haven,FL,33881,1665,POLK,Convenience Store,28.048462,-81.723549,,,-9097423.860499142,3255085.1141634895
361350,Circle K 2722328,1940 SE 58TH AVE,,Ocala,FL,34471,    ,MARION,Convenience Store,29.168495,-82.053757,,,-9134182.446915008,3397109.202235094
437496,CIRCLE K 2707059,801 S 21ST ST,,DADE CITY,FL,33525,    ,PASCO,Convenience Store,28.359703,-82.204033,,,-9150911.094713455,3294400.2677720897
439548,Tom Thumb 900045,2648 Levy St,,Cottondale,FL,32431,3321,JACKSON,Convenience Store,30.792316,-85.377243,,,-9504151.216093581,3605806.693040431
439564,CIRCLE K 2707340,18620 E COLONIAL DR,,BITHLO,FL,32807,    ,ORANGE,Convenience Store,28.531996,-81.308884,,,-9051263.563849349,3316213.397973691
441492,PUBLIX 688,7999 Dr Martin Luther King Jr St N,,Saint Petersburg,FL,33702,4107,PINELLAS,Supermarket,27.845091,-82.646919,,,-9200212.938712927,3229457.309868527
437589,PUBLIX 641,5240 W State Road 46,,Sanford,FL,32771,9230,SEMINOLE,Supermarket,28.811443,-81.352745,,,-9056146.148035033,3351668.773619091
442848,Walmart 666,3525 US HIGHWAY 27 N,,SEBRING,FL,33870,    ,HIGHLANDS,Super Store,27.513096,-81.497147,,,-9072220.905144563,3187723.873721047
440493,Publix 1748,11495 Bird Rd,,Miami,FL,33165,3311,MIAMI DADE,Supermarket,25.732216,-80.380699,,,-8947938.482287394,2965952.372344769
437723,CVS Pharmacy 5010,306 Lincoln Rd,,Miami Beach,FL,33139,3103,MIAMI DADE,Other,25.790638,-80.130867,,,-8920127.311263528,2973173.584991923
442924,WALGREEN 06804,5767 38th Ave N,,St Petersburg,FL,33710,1925,PINELLAS,Other,27.806429,-82.711609,,,-9207414.196572343,3224590.7625625683
440576,WINN DIXIE  639,8438 N Armenia Ave,,Tampa,FL,33604,2602,HILLSBOROUGH,Supermarket,28.026382,-82.484314,,,-9182111.832912486,3252300.363617778
440672,CVS Pharmacy 5139,1995 N State Road 19,,Eustis,FL,32726,6728,LAKE,Other,28.874872,-81.687752,,,-9093438.956687214,3359729.6635241043
441933,Walgreens 3247,2075 US Highway 1 S,,St Augustine,FL,32086,6000,ST JOHNS,Other,29.861952,-81.323135,,,-9052849.977912644,3485817.373755493
411915,CIRCLE K 4727,8000 US HWY 98W,,PENSACOLA,FL,32516,    ,ESCAMBIA,Convenience Store,30.42696,-87.287689,,,-9716821.092001626,3558550.480617953
440812,PUBLIX  0448,6031 Cypress Gardens Blvd,,Winter Haven,FL,33884,4115,POLK,Supermarket,27.988489,-81.688156,,,-9093483.929761495,3247522.5934067676
442022,PUBLIX  0793,2515 Thonotosassa Rd,,Plant City,FL,33563,1464,HILLSBOROUGH,Supermarket,28.024908,-82.149345,,,-9144823.254400954,3252114.4816847057
362014,WINN DIXIE  652,31100 Cortez Blvd,,Brooksville,FL,34602,7548,HERNANDO,Supermarket,28.52298,-82.23056,,,-9153864.06684573,3315071.0463528163
412890,Circle K 2726274,4 Highway 19 S,,Inglis,FL,34449,9688,LEVY,Convenience Store,29.030191,-82.669327,,,-9202707.385862622,3379489.2341909586
442254,CVS Pharmacy 5117,900 S State Road 7,,Hollywood,FL,33023,6730,BROWARD,Other,26.002239,-80.207375,,,-8928644.14286514,2999358.2558496585
416905,CIRCLE K 2707494,2820 N US Highway 301,,Tampa,FL,33619,    ,HILLSBOROUGH,Convenience Store,27.968678,-82.360535,,,-9168332.817661585,3245025.375676293
416954,CVS Pharmacy 5226,17817 SE 109th Ave,,Summerfield,FL,34491,8999,MARION,Other,28.96216,-81.969032,,,-9124750.903057547,3370830.7318124655
416985,CIRCLE K 2704146,10111 W Hillsborough Ave,,Tampa,FL,33615,3017,HILLSBOROUGH,Convenience Store,28.004496,-82.598694,,,-9194844.55626942,3249540.6442146446
417051,Key Food Supermarket,519 S Orange Blossom Trl,,Apopka,FL,32703,5462,ORANGE,Super Store,28.671183,-81.494179,,,-9071890.508895889,3333861.19621172
417145,Apple Market Inc,1021 Scenic Hwy,,Pensacola,FL,32503,6616,ESCAMBIA,Other,30.431244,-87.175636,,,-9704347.409099767,3559103.555813019
417282,Handy Food Stores 87,3205 Lee Blvd,,Lehigh Acres,FL,33971,    ,LEE,Convenience Store,26.616863,-81.680977,,,-9092684.76713709,3075684.851718878
417295,CVS Pharmacy 3228,1298 County Road 1,,Dunedin,FL,34698,4610,PINELLAS,Other,28.02186,-82.763603,,,-9213202.142176649,3251730.115177203
414064,WALGREENS 6014,1015 S Federal Hwy,,Delray Beach,FL,33483,5131,PALM BEACH,Other,26.446711,-80.067039,,,-8913022.010805175,3054514.0386543907
414206,CVS PHARMACY 2760,2911 E Fowler Ave,,Tampa,FL,33612,6278,HILLSBOROUGH,Other,28.054333,-82.427101,,,-9175742.91088573,3255825.6664646426
414373,WINN DIXIE  656,7400 44th Ave W,,Bradenton,FL,34210,2407,MANATEE,Supermarket,27.462622,-82.635818,,,-9198977.181045631,3181390.1059151054
414445,WINN DIXIE 318,604 CRANDON BLVD,,KEY BISCAYNE,FL,33149,    ,MIAMI DADE,Supermarket,25.689934,-80.163918,,,-8923806.531753737,2960728.347380817
414447,WINN DIXIE  0085,470 W Madison St,,Starke,FL,32091,3926,BRADFORD,Supermarket,29.944305,-82.113487,,,-9140831.56010009,3496392.7775858985
414507,PUBLIX  582,2724 W Hillsborough Ave,,Tampa,FL,33614,6053,HILLSBOROUGH,Supermarket,27.996056,-82.487534,,,-9182470.281672841,3248476.5505836327
414816,WALGREENS 11537,414 S Magnolia Dr,,Tallahassee,FL,32301,2991,LEON,Other,30.437429,-84.26181,,,-9379981.782519566,3559902.0977538093
414984,PUBLIX 0736,2640 BLANDING BLVD,,MIDDLEBURG,FL,32068,    ,CLAY,Supermarket,30.063837,-81.872414,,,-9113995.436496083,3511758.136666239
415159,Walmart 1605,4600 Mobile Hwy,Ste 122,Pensacola,FL,32506,3500,ESCAMBIA,Super Store,30.43663,-87.27845,,,-9715792.611226188,3559798.936455535
415290,CVS Pharmacy 501,250 E Granada Blvd,,Ormond Beach,FL,32176,6664,VOLUSIA,Other,29.29171,-81.040504,,,-9021387.63891025,3412826.831882522
419087,KWIK STOP 0941,2172 10th Ave N,,Lake Worth,FL,33461,3314,PALM BEACH,Convenience Store,26.628054,-80.075211,,,-8913931.713683939,3077078.3709191973
374113,WALGREENS 4706,4600 Coconut Creek Pkwy,4706,Coconut Creek,FL,33063,3902,BROWARD,Other,26.244595,-80.187042,,,-8926380.683658842,3029406.755632842
374340,PUBLIX  0704,1411 S Babcock St,,Melbourne,FL,32901,3024,BREVARD,Supermarket,28.086718,-80.62175,,,-8974772.156862604,3259911.351227029
374371,GAS N SNACKS,2612 Edison Ave,,Fort Myers,FL,33916,5306,LEE,Convenience Store,26.633574,-81.859528,,,-9112560.97353772,3077765.7794066323
374505,Flash Foods LLC 274179,474328 E SR 200 SW 1,,FERNANDINA BEACh,FL,32034,    ,NASSAU,Convenience Store,30.617525,-81.515434,,,-9074256.6046727,3583176.468155751
375028,Speedway 6588,700 US Highway 1,,Sebastian,FL,32958,4139,INDIAN RIVER,Convenience Store,27.809303,-80.466377,,,-8957476.113619579,3224952.4653213597
377880,Tom Thumb 900075,4535 Cerny Rd,,Pensacola,FL,32526,2750,ESCAMBIA,Convenience Store,30.448914,-87.303795,,,-9718614.003720343,3561385.054138941
412950,CIRCLE K 2707020,8324 US Highway 98 N,,Lakeland,FL,33809,4820,POLK,Convenience Store,28.150949,-81.973846,,,-9125286.795086225,3268018.369196762
376672,Walgreens 4386,5999 Pembroke Rd,,Hollywood,FL,33023,2341,BROWARD,Other,25.995308,-80.206749,,,-8928574.456863904,2998499.830786324
376804,PUBLIX 0246,1337 S Military Trl,,Deerfield Beach,FL,33442,7686,BROWARD,Supermarket,26.300543,-80.134857,,,-8920571.476031793,3036352.3494591634
377003,PRIMO SUPERMARKET,306 New Market Rd W,,Immokalee,FL,34142,3233,COLLIER,Grocery Store,26.429449,-81.41951,,,-9063578.393837847,3052368.000436297
377081,Winn Dixie 0163,901 S Highway 19,,Palatka,FL,32177,9397,PUTNAM,Supermarket,29.639969,-81.67659,,,-9092196.40853098,3457354.6571094734
377458,Walmart Supercenter 3207,1601 Rinehart Rd,,Sanford,FL,32771,7392,SEMINOLE,Super Store,28.802814,-81.330971,,,-9053722.2774425,3350572.534570657
377917,Community Store 8,981 NW 27th Ave,,Ft Lauderdale,FL,33311,6769,BROWARD,Convenience Store,26.135935,-80.17852,,,-8925432.018958302,3015926.8395430082
378005,NS Northwest Quality Meat,14025 NW 27th Ave,,Opa Locka,FL,33054,3654,MIAMI DADE,Grocery Store,25.901676,-80.243637,,,-8932680.810240287,2986908.182636633
474619,WALGREEN 05293,4895 Palm Ave,,Hialeah,FL,33012,4006,MIAMI DADE,Other,25.866701,-80.283005,,,-8937063.235953836,2982580.636511289
415699,CVS Pharmacy 3225,2311 E Semoran Blvd,,Apopka,FL,32703,5804,ORANGE,Other,28.673048,-81.467567,,,-9068928.0746069,3334097.822193625
378019,PUBLIX 0306,1200 NW 76th Blvd,,Gainesville,FL,32606,6750,ALACHUA,Supermarket,29.663242,-82.424042,,,-9175402.384563394,3460335.773801835
418181,Valero Express Mart,1296 8th St,,Daytona Beach,FL,32117,4009,VOLUSIA,Convenience Store,29.228991,-81.062355,,,-9023820.081103573,3404823.867758824
418482,CVS Pharmacy 3107,4 S Brevard Ave,,Arcadia,FL,34266,4400,DESOTO,Other,27.214891,-81.859039,,,-9112506.538306722,3150345.2887633047
418628,DOLLAR GENERAL 9280,4695 BLOUNTSTOWN HWY,,TALLAHASSEE,FL,32304,    ,LEON,Other,30.434883,-84.357635,,,-9390648.972724833,3559573.3789643706
418647,PUBLIX 1444,299 E International Speedway Blvd,,Deland,FL,32724,2339,VOLUSIA,Supermarket,29.055016,-81.300224,,,-9050299.53705908,3382650.204193455
418669,MATERS & TATERS PRODUCEINC.,454 N Park Ave,,Apopka,FL,32712,4105,ORANGE,Grocery Store,28.687361,-81.509445,,,-9073589.912242338,3335913.955826107
418676,Save-A-Lot 21579,5631 14th St W,,Bradenton,FL,34207,3610,MANATEE,Supermarket,27.441235,-82.575356,,,-9192246.581993287,3178707.217113672
418679,CVS Pharmacy 5660,7120 Ridge Rd,,Port Richey,FL,34668,6938,PASCO,Other,28.280371,-82.696465,,,-9205728.37420377,3284368.3655381054
415726,Publix 1459,1968 NE 5th Ave,asd fasdfg sadf,Alachua,FL,33431,7702,PALM BEACH,Supermarket,29.65555,-82.299637,,,-9161553.683311258,3459350.403430989
378076,PUBLIX  0401,95 S US Highway 1,,Jupiter,FL,33477,5117,PALM BEACH,Supermarket,26.932985,-80.080185,,,-8914485.416831143,3115101.6024091276
474719,PUBLIX 1080,3475 Wedgewood Ln,,The Villages,FL,32162,7183,SUMTER,Supermarket,28.928247,-82.013786,,,-9129732.895548508,3366516.6517607486
378141,FIESTA FOOD MARKET,106 S 3rd St,,Immokalee,FL,34142,3908,COLLIER,Supermarket,26.416891,-81.419373,,,-9063563.143067606,3050806.972625695
375681,Harveys Supermarket 1690,5909 University Blvd W,,Jacksonville,FL,32216,4911,DUVAL,Supermarket,30.275963,-81.604614,,,-9084184.076861644,3539071.8639938766
474760,PUBLIX 0475,2685 N Forest Ridge Blvd,,Hernando,FL,34442,5123,CITRUS,Supermarket,28.901884,-82.447044,,,-9177962.95549062,3363163.9837423135
375771,PUBLIX  0242,8245 NW 88th Ave,,Tamarac,FL,33321,1541,BROWARD,Supermarket,26.225943,-80.269806,,,-8935593.929994855,3027091.970152187
378194,PUBLIX 0454,18995 Biscayne Blvd,,Aventura,FL,33180,2818,MIAMI DADE,Supermarket,25.951448,-80.146538,,,-8921871.79900375,2993068.81200116
415853,7 DAYS FOOD MART,8620 Temple Terrace Hwy,,Tampa,FL,33637,5812,HILLSBOROUGH,Convenience Store,28.032707,-82.356781,,,-9167914.924293147,3253098.0202146233
375804,CVS Pharmacy 3423,1300 E Vine St,,Kissimmee,FL,34744,3620,OSCEOLA,Other,28.304182,-81.39077,,,-9060379.071672447,3287378.5918243346
375944,PUBLIX  524,3939 Van Dyke Rd,,Lutz,FL,33558,8001,HILLSBOROUGH,Supermarket,28.127937,-82.504601,,,-9184370.17142221,3265113.314586973
416090,WALGREEN 05198,7340 Collins Ave,,Miami Beach,FL,33141,2712,MIAMI DADE,Other,25.858891,-80.120995,,,-8919028.365250416,2981614.460250502
373659,Walmart S/C  944,3351 S Ferdon Blvd,,Crestview,FL,32536,8484,OKALOOSA,Super Store,30.727772,-86.56797,,,-9636702.339407383,3597445.3923781696
376145,PUBLIX 0212,10913 N MILITARY TRAIL,,PALM BCH GARDNS,FL,33410,    ,PALM BEACH,Supermarket,26.840086,-80.10527,,,-8917277.866257694,3103506.774831825
413597,CIRCLE K 2701861,12834 State Road 52,,Hudson,FL,34669,3019,PASCO,Convenience Store,28.334902,-82.602585,,,-9195277.700408097,3291263.260920845
416243,McDuff Food Mart,730 McDuff Ave N,,Jacksonville,FL,32254,3221,DUVAL,Convenience Store,30.332432,-81.705589,,,-9095424.562444495,3546352.8488038275
413667,WALGREENS  3316,2700 W Flagler St,,Miami,FL,33135,1335,MIAMI DADE,Other,25.772287,-80.239197,,,-8932186.551701164,2970904.938928897
413885,PUBLIX 1090,5715 NW 7th St,,Miami,FL,33126,3105,MIAMI DADE,Supermarket,25.778053,-80.288963,,,-8937726.477479983,2971617.72402645
502286,Tom Thumb 900070,2695 Highway 87,,Navarre,FL,32566,3228,SANTA ROSA,Convenience Store,30.431538,-86.86628,,,-9669910.056705924,3559141.512844579
502640,CVS Pharmacy 306,5432 US Highway 19,,New Port Richey,FL,34652,3948,PASCO,Other,28.23875,-82.727562,,,-9209190.07640897,3279108.1851374847
502968,CVS Pharmacy 3981,91410 Overseas Hwy,,Tavernier,FL,33070,2549,MONROE,Other,25.00477,-80.522034,,,-8963671.822518662,2876330.5227484116
503132,CIRCLE K 2707330,601 Collier Ave,,Everglades City,FL,34139,9800,COLLIER,Convenience Store,25.865803,-81.382721,,,-9059483.061091052,2982469.5415492454
503245,PUBLIX  0750,1003 E Commercial Blvd,,Oakland Park,FL,33334,3957,BROWARD,Supermarket,26.189037,-80.133614,,,-8920433.105904737,3022512.88603027
328407,PUBLIX 1101,13850 Landstar Blvd,,Orlando,FL,32824,5526,ORANGE,Supermarket,28.364138,-81.366119,,,-9057634.934904901,3294961.3153491183
328445,Winn Dixie 0386,3800 N Ocean Blvd,,Ft Lauderdale,FL,33308,6432,BROWARD,Supermarket,26.174534,-80.099449,,,-8916629.875501787,3020713.8343749805
327479,WALGREEN 03544,790 W Granada Blvd,,Ormond Beach,FL,32174,5178,VOLUSIA,Other,29.278637,-81.082451,,,-9026057.157590555,3411158.307942636
327492,SUPER STAR K,4100 W Oakland Park Blvd,,Lauderdale Lakes,FL,33313,1932,BROWARD,Convenience Store,26.164677,-80.204147,,,-8928284.803548861,3019491.2322056363
327576,CVS Pharmacy 3429,5052 Highway A1A,,Vero Beach,FL,32963,1272,INDIAN RIVER,Other,27.675665,-80.364227,,,-8946104.827635046,3208143.764057012
327743,Winn Dixie 2219,10051 S US Highway 41,,Dunnellon,FL,34432,4190,MARION,Supermarket,29.078117,-82.452629,,,-9178584.674846701,3385592.340610611
327850,Tom Thumb 900026,5107 Highway 90,,Pace,FL,32571,1531,SANTA ROSA,Convenience Store,30.603098,-87.11071,,,-9697119.879840523,3581310.430216434
328243,CVS Pharmacy 3779,530 Truman Ave,,Key West,FL,33040,3141,MONROE,Other,24.551706,-81.798264,,,-9105741.096253762,2820781.452446435
328300,Walmart Supercenter 551,1024 S State Road 19,,Palatka,FL,32177,9000,PUTNAM,Super Store,29.63489,-81.682121,,,-9092812.116634557,3456704.162558238
403696,CIRCLE K 2707515,7916 HWY 27,,SEBRING,FL,33870,    ,HIGHLANDS,Convenience Store,27.483467,-81.47908,,,-9070209.6959044,3184005.5045308075
328523,STOP & SHOP,2801 Central Ave,,St Petersburg,FL,33713,8630,PINELLAS,Convenience Store,27.771038,-82.671532,,,-9202952.845339822,3220137.4677541736
328677,CVS Pharmacy 3260,7325 State Road 54,,New Port Richey,FL,34653,6107,PASCO,Other,28.217237,-82.693352,,,-9205381.83662893,3276390.115610988
329022,Winn Dixie 0720,4100 N Access Rd,,Englewood,FL,34224,9331,CHARLOTTE,Supermarket,26.933102,-82.274216,,,-9158723.830535801,3115116.2113242904
330566,DOLLAR GENERAL 1056,5480 Dogwood Dr,,Milton,FL,32570,3700,SANTA ROSA,Other,30.633928,-87.055542,,,-9690978.606172442,3585298.426596205
378821,PUBLIX  0877,2121 Collier Pkwy,,Land O Lakes,FL,34639,5286,PASCO,Supermarket,28.187899,-82.43779,,,-9176932.804922821,3272684.275401815
501305,Walmart 705,17030 US HIGHWAY 441,,MOUNT DORA,FL,32757,    ,LAKE,Super Store,28.817671,-81.673012,,,-9091798.107392922,3352460.0430195886
330588,CIRCLE K 2708622,1598 54th Ave N,,St Petersburg,FL,33703,2644,PINELLAS,Convenience Store,27.821135,-82.65461,,,-9201069.096916618,3226441.663922252
503444,Sunrise Food Mart,4221 E University Ave,,Gainesville,FL,32641,6028,ALACHUA,Convenience Store,29.651814,-82.272865,,,-9158573.43790374,3458871.8367815325
330640,PUBLIX 0854,2420 Santa Barbara Blvd,,Cape Coral,FL,33914,4485,LEE,Supermarket,26.606489,-81.974396,,,-9125348.020806162,3074393.1883392027
503501,DOLLAR GENERAL 13280,6798 W Gulf to Lake Hwy,,Crystal River,FL,34429,9426,CITRUS,Other,28.890509,-82.547554,,,-9189151.677510252,3361717.651225592
378946,CIRCLE K 2708626,5202 W Sligh Ave,,Tampa,FL,33634,3601,HILLSBOROUGH,Convenience Store,28.010855,-82.532227,,,-9187445.483674865,3250342.425747325
329613,WINN DIXIE 0560,981 US HWY 98,,DESTIN,FL,32541,    ,OKALOOSA,Supermarket,30.388435,-86.477592,,,-9626641.506468467,3553577.896684388
503550,Sedano's 22,5360 W 16th Ave,,Hialeah,FL,33012,2165,MIAMI DADE,Supermarket,25.871008,-80.315063,,,-8940631.916189687,2983113.483437796
330838,Dollar General 7487,3602 Cypress Gardens Rd,,Winter Haven,FL,33884,2522,POLK,Other,27.996775,-81.674629,,,-9091978.111009534,3248567.1970187444
405370,Walmart STORE  977,1385 Amelia Plz,,Fernandina Beach,FL,32034,1998,NASSAU,Super Store,30.646219,-81.45607,,,-9067648.234421248,3586888.6758643687
503742,CIRCLE K 2707348,APEX SR 78/SR S-721,,LAKEPORT,FL,33471,    ,GLADES,Convenience Store,26.83638,-81.098091,,,-9027798.194426563,3103044.422391475
330887,Citgo Rightway Food Store,5003 Old Winter Garden Rd,,Orlando,FL,32811,1635,ORANGE,Convenience Store,28.542137,-81.447388,,,-9066681.75860218,3317498.4069331908
503764,PUBLIX 1066,10500 San Jose Blvd,Ste 36,Jacksonville,FL,32257,6209,DUVAL,Supermarket,30.187099,-81.627991,,,-9086786.392597917,3527622.4177908767
330927,CVS Pharmacy 3758,9204 Cortez Blvd,,Weeki Wachee,FL,34613,6371,HERNANDO,Other,28.518654,-82.570038,,,-9191654.58494125,3314522.9651199337
501773,PUBLIX  0876,10928 Cross Creek Blvd,,Tampa,FL,33647,4034,HILLSBOROUGH,Supermarket,28.144163,-82.283516,,,-9159759.10180018,3267161.633856127
500378,Dong A 2 Market,7020 49th St N,,Pinellas Park,FL,33781,4401,PINELLAS,Supermarket,27.835989,-82.70005,,,-9206127.454578264,3228311.4471179084
329878,PUBLIX 0375,1525 SW 107th Ave,,Miami,FL,33174,2510,MIAMI DADE,Supermarket,25.754787,-80.367996,,,-8946524.390795847,2968741.824690791
502013,Handy Food Stores 61,14601 Livingston Ave,,Lutz,FL,33559,3102,HILLSBOROUGH,Convenience Store,28.080841,-82.430763,,,-9176150.562861016,3259169.8186648325
502104,Walgreens 02832,4010 SW 137th Ave,,Miami,FL,33175,6464,MIAMI DADE,Other,25.730759,-80.415855,,,-8951852.03030572,2965772.326213649
502153,The Village Grocer,11057 Dowling Park Drive,,Live Oak,FL,32060,    ,SUWANNEE,Grocery Store,30.247433,-83.240753,,,-9266318.237208659,3535394.8637180086
502172,WALGREEN 03794,5701 Gulfport Blvd S,,Gulfport,FL,33707,4834,PINELLAS,Other,27.748318,-82.710648,,,-9207307.218541693,3217279.344575728
427635,CVS Pharmacy 3653,353 Gulf Blvd,,Indian Rocks Beach,FL,33785,2537,PINELLAS,Other,27.882261,-82.850418,,,-9222866.343769869,3234137.6887137503
331136,DELI VIEW,25 NW 9th St,,Miami,FL,33136,3522,MIAMI DADE,Convenience Store,25.782911,-80.19458,,,-8927219.80998044,2972218.2902851366
500561,CVS Pharmacy 4480,1037 Main St,,Chipley,FL,32428,1930,WASHINGTON,Other,30.771984,-85.53746,,,-9521986.490950005,3603172.195477245
427688,CVS Pharmacy 3298,8800 SE Bridge Rd,,Hobe Sound,FL,33455,5309,MARTIN,Other,27.059864,-80.135422,,,-8920634.371544093,3130952.9577209447
330055,Walmart Supercenter 5172,1900 S Jefferson St,,Perry,FL,32348,5615,TAYLOR,Super Store,30.103054,-83.582603,,,-9304372.80513634,3516803.3641592734
331152,WINN DIXIE 498,1550 S Highway 29,,Cantonment,FL,32533,6424,ESCAMBIA,Supermarket,30.580572,-87.297462,,,-9717909.017385148,3578397.3952909256
331154,Circle K 2721296,13697 Beach Blvd,,Jacksonville,FL,32224,1205,DUVAL,Convenience Store,30.287779,-81.458466,,,-9067914.955921188,3540595.045361304
427740,CVS PHARMACY 981,3501 Davie Blvd,,Ft Lauderdale,FL,33312,3437,BROWARD,Other,26.104708,-80.194,,,-8927155.244675782,3012055.267866249
330087,PUBLIX 655,10755 NW 58th St,,Doral,FL,33178,2801,MIAMI DADE,Supermarket,25.82633,-80.371109,,,-8946870.928370688,2977587.021609145
330157,PUBLIX 0768,2400 S RIDGEWOOD,,S DAYTONA,FL,32119,    ,VOLUSIA,Supermarket,29.165558,-80.998741,,,-9016738.60301625,3396734.7813283047
500735,Walmart 713,12650 US Highway 301,,Dade City,FL,33525,6058,PASCO,Super Store,28.342422,-82.187332,,,-9149051.947897717,3292214.366616343
504115,Publix 0817,1589 W Lantana Rd,,Lantana,FL,33462,1537,PALM BEACH,Supermarket,26.587198,-80.065887,,,-8912893.770751782,3071991.58357686
404597,PUBLIX  1644,3428 Clark Rd,,Sarasota,FL,34231,8406,SARASOTA,Supermarket,27.269272,-82.500572,,,-9183921.665193804,3157154.1954587083
